"JASID","LGC","Site_no","SiteName_furigana","SiteName_original","Address","Chronology","SiteType","ArchaeologicalFeatures","MajorArtefacts","Lon","Lat","P","J","Y","K","N","H","M","E","U","色"
13103000800,13103,"8","","港区No.8遺跡","港区 赤坂六丁目","[古墳時代]","古墳","","須恵器　刀　管玉",139.7354352,35.66837971,FALSE,FALSE,FALSE,TRUE,FALSE,FALSE,FALSE,FALSE,FALSE,"green"
13103002400,13103,"24","まるやまこふん","丸山古墳","港区 芝公園四丁目","[古墳時代]","古墳","※遺跡範囲のすべてが、都指定史跡芝丸山古墳となっています。 　 前方後円墳","鉄鏃　円筒埴輪　馬歯",139.7479137,35.65494619,FALSE,FALSE,FALSE,TRUE,FALSE,FALSE,FALSE,FALSE,FALSE,"green"
13103002500,13103,"25","まるやまこふんぐん","丸山古墳群","港区 芝公園四丁目","[古墳時代]","古墳","","",139.7474845,35.65553201,FALSE,FALSE,FALSE,TRUE,FALSE,FALSE,FALSE,FALSE,FALSE,"green"
13103002501,13103,"25-1","まるやまこふんぐん　いちごうふん","丸山古墳群　1号墳","港区 芝公園四丁目","[古墳時代]","古墳","円墳　[古墳時代]横穴式石室","土師器　須恵器　鉄鏃　鹿角製刀子　刀子　管玉　棗玉　ガラス小玉　大刀　直刀　金環　人骨",139.7474502,35.65461143,FALSE,FALSE,FALSE,TRUE,FALSE,FALSE,FALSE,FALSE,FALSE,"green"
13103002502,13103,"25-2","まるやまこふんぐん　にごうふん","丸山古墳群　2号墳","港区 芝公園四丁目","[古墳時代]","古墳","円墳","",139.7468494,35.6548625,FALSE,FALSE,FALSE,TRUE,FALSE,FALSE,FALSE,FALSE,FALSE,"green"
13103002503,13103,"25-3","まるやまこふんぐん　さんごうふん","丸山古墳群　3号墳","港区 芝公園四丁目","[古墳時代]","古墳","円墳","",139.7466262,35.65519726,FALSE,FALSE,FALSE,TRUE,FALSE,FALSE,FALSE,FALSE,FALSE,"green"
13103002504,13103,"25-4","まるやまこふんぐん　よんごうふん","丸山古墳群　4号墳","港区 芝公園四丁目","[古墳時代]","古墳","円墳　[古墳時代]竪穴式石室?","円筒埴輪　人骨",139.7464889,35.65565755,FALSE,FALSE,FALSE,TRUE,FALSE,FALSE,FALSE,FALSE,FALSE,"green"
13103002505,13103,"25-5","まるやまこふんぐん　ごごうふん","丸山古墳群　5号墳","港区 芝公園四丁目","[古墳時代]","古墳","円墳　[古墳時代]横穴式石室","須恵器　鉄鏃　刀子　埴輪　玉類　直刀　馬具　人骨",139.7465232,35.65610388,FALSE,FALSE,FALSE,TRUE,FALSE,FALSE,FALSE,FALSE,FALSE,"green"
13103002506,13103,"25-6","まるやまこふんぐん　ろくごうふん","丸山古墳群　6号墳","港区 芝公園四丁目","[古墳時代]","古墳","円墳　[古墳時代]横穴式石室","須恵器　鉄鏃　管玉　直刀　銅環　鉄環　人骨",139.7468494,35.65646653,FALSE,FALSE,FALSE,TRUE,FALSE,FALSE,FALSE,FALSE,FALSE,"green"
13103002507,13103,"25-7","まるやまこふんぐん　ななごうふん","丸山古墳群　7号墳","港区 芝公園四丁目","[古墳時代]","古墳","円墳　[古墳時代]横穴式石室","鉄鏃　人物埴輪　直刀　銅環　人骨",139.7473129,35.6563131,FALSE,FALSE,FALSE,TRUE,FALSE,FALSE,FALSE,FALSE,FALSE,"green"
13103002508,13103,"25-8","まるやまこふんぐん　はちごうふん","丸山古墳群　8号墳","港区 芝公園四丁目","[古墳時代]","古墳","円墳　[古墳時代]横穴式石室","須恵器　埴輪　玉類　刀　槍　人骨",139.7477249,35.65645258,FALSE,FALSE,FALSE,TRUE,FALSE,FALSE,FALSE,FALSE,FALSE,"green"
13103002509,13103,"25-9","まるやまこふんぐん　きゅうごうふん","丸山古墳群　9号墳","港区 芝公園四丁目","[古墳時代]","古墳","円墳　[古墳時代]横穴式石室","土師器　須恵器　鉄鏃　埴輪　玉類　直刀　銅釧　人骨",139.748051,35.65628521,FALSE,FALSE,FALSE,TRUE,FALSE,FALSE,FALSE,FALSE,FALSE,"green"
13103002600,13103,"26","","港区No.26遺跡","港区 芝公園四丁目","[古墳時代]","古墳","","",139.7473472,35.65747078,FALSE,FALSE,FALSE,TRUE,FALSE,FALSE,FALSE,FALSE,FALSE,"green"
13103003300,13103,"33","","港区No.33遺跡","港区 麻布台一丁目","[古墳時代]","古墳？","円墳","",139.7406146,35.66122309,FALSE,FALSE,FALSE,TRUE,FALSE,FALSE,FALSE,FALSE,FALSE,"green"
13103003600,13103,"36","","港区No.36遺跡","港区 六本木六丁目","[古墳時代]","古墳","円墳","",139.7316628,35.66153105,FALSE,FALSE,FALSE,TRUE,FALSE,FALSE,FALSE,FALSE,FALSE,"green"
13103004900,13103,"49","","港区No.49遺跡","港区 南麻布五丁目","[古墳時代]","古墳","前方後円墳?","",139.724762,35.65140484,FALSE,FALSE,FALSE,TRUE,FALSE,FALSE,FALSE,FALSE,FALSE,"green"
13103005400,13103,"54","ねこづか（おせんちやま）いせき","猫塚（オセンチ山）遺跡","港区 三田一丁目","[古墳時代]","古墳","円墳","",139.7432998,35.65271046,FALSE,FALSE,FALSE,TRUE,FALSE,FALSE,FALSE,FALSE,FALSE,"green"
13103005700,13103,"57","かめづかいせき","亀塚遺跡","港区 三田四丁目","[古墳時代]","古墳","※遺跡範囲のすべてが、都指定史跡亀塚となっています。 円墳","土師器　須恵器",139.740881,35.64355127,FALSE,FALSE,FALSE,TRUE,FALSE,FALSE,FALSE,FALSE,FALSE,"green"
13103006100,13103,"61","","港区No.61遺跡","港区 三田三丁目","[古墳時代]","古墳？","","石棺?",139.7409325,35.64282586,FALSE,FALSE,FALSE,TRUE,FALSE,FALSE,FALSE,FALSE,FALSE,"green"
13105000200,13105,"2","おおつかこふん","大塚古墳","文京区 大塚一丁目","[古墳時代？]","古墳","円墳?","",139.7344217,35.71637583,FALSE,FALSE,FALSE,TRUE,FALSE,FALSE,FALSE,FALSE,FALSE,"green"
13105001300,13105,"13","あけぼのちょうこふん","曙町古墳","文京区 本駒込一丁目","[古墳時代？]","古墳","円墳","",139.7523089,35.72384597,FALSE,FALSE,FALSE,TRUE,FALSE,FALSE,FALSE,FALSE,FALSE,"green"
13105001500,13105,"15","ふじじんじゃこふん","富士神社古墳","文京区 本駒込五丁目","[古墳時代]","古墳","前方後円墳？","土師器　埴輪",139.7512446,35.73117605,FALSE,FALSE,FALSE,TRUE,FALSE,FALSE,FALSE,FALSE,FALSE,"green"
13105002000,13105,"20","ごてんまちこふん","御殿町古墳","文京区 白山二丁目","[古墳時代]","古墳","円墳?","",139.7484636,35.71782531,FALSE,FALSE,FALSE,TRUE,FALSE,FALSE,FALSE,FALSE,FALSE,"green"
13105002300,13105,"23","はくさんじんじゃこふん","白山神社古墳","文京区 白山五丁目","[古墳時代]","古墳","円墳？","",139.7505067,35.72222407,FALSE,FALSE,FALSE,TRUE,FALSE,FALSE,FALSE,FALSE,FALSE,"green"
13105003700,13105,"37","つばきやまこふん","椿山古墳","文京区 本郷七丁目","[古墳時代]","古墳","","切石",139.7611666,35.71038249,FALSE,FALSE,FALSE,TRUE,FALSE,FALSE,FALSE,FALSE,FALSE,"green"
13106000300,13106,"3","すりばちやまこふん","摺鉢山古墳","台東区 上野公園","[古墳時代]","古墳","前方後円墳　近世瓦溜　土杭","古代土器・近世瓦・陶磁器",139.7738078,35.7139363,FALSE,FALSE,FALSE,TRUE,FALSE,FALSE,FALSE,FALSE,FALSE,"green"
13106000500,13106,"5","","台東区No.5遺跡","台東区 上野公園","[古墳時代]","古墳","","鉄鏃　鉄刀身　鉄鐔",139.7754214,35.7186193,FALSE,FALSE,FALSE,TRUE,FALSE,FALSE,FALSE,FALSE,FALSE,"green"
13106000900,13106,"9","とりごえこふん","鳥越古墳","台東区 鳥越二丁目","[古墳時代]","古墳","","土師器　管玉　匂玉　蕨手大刀　銀環",139.7875929,35.70195662,FALSE,FALSE,FALSE,TRUE,FALSE,FALSE,FALSE,FALSE,FALSE,"green"
13106001300,13106,"13","へびづかこふん","蛇塚古墳","台東区 上野公園","[古墳時代]","古墳","","",139.7739747,35.71767561,FALSE,FALSE,FALSE,TRUE,FALSE,FALSE,FALSE,FALSE,FALSE,"green"
13106001400,13106,"14","おううんだいこふん","桜雲台古墳","台東区 上野公園","[古墳時代]","古墳","","埴輪",139.7756398,35.71442817,FALSE,FALSE,FALSE,TRUE,FALSE,FALSE,FALSE,FALSE,FALSE,"green"
13109001800,13109,"18","","品川区No.18遺跡","品川区 南品川五丁目","[古墳時代]","古墳","","須恵器　円筒埴輪　人物埴輪",139.7416467,35.60782891,FALSE,FALSE,FALSE,TRUE,FALSE,FALSE,FALSE,FALSE,FALSE,"green"
13109001900,13109,"19","おおいはやしちょうこふん","大井林町古墳","品川区 東大井四丁目","[古墳時代]","古墳","円墳","",139.7411009,35.60679337,FALSE,FALSE,FALSE,TRUE,FALSE,FALSE,FALSE,FALSE,FALSE,"green"
13109002000,13109,"20","おおいこうえんないこふん","大井公園内古墳","品川区 東大井四丁目","[古墳時代]","古墳","円墳","円筒埴輪",139.7409449,35.60532457,FALSE,FALSE,FALSE,TRUE,FALSE,FALSE,FALSE,FALSE,FALSE,"green"
13110001800,13110,"18","おおつかやまこふん","大塚山古墳","目黒区 目黒四丁目","[古墳時代]","古墳","円墳","",139.701523,35.632854,FALSE,FALSE,FALSE,TRUE,FALSE,FALSE,FALSE,FALSE,FALSE,"green"
13110002500,13110,"25","きつねづかこふん","狐塚古墳","目黒区 碑文谷二丁目","[古墳時代]","古墳","方墳?","",139.6888711,35.62368702,FALSE,FALSE,FALSE,TRUE,FALSE,FALSE,FALSE,FALSE,FALSE,"green"
13111000200,13111,"2","せんげんじんじゃこふん","浅間神社古墳","大田区 田園調布一丁目","[縄文時代][弥生時代（後期）][古墳時代]","古墳・集落","前方後円墳　[縄文時代]炉穴　[弥生時代]住居　炉　柱穴","縄文土器　打斧　剥片　弥生土器　土師器　円筒埴輪　人物埴輪　動物埴輪",139.6687695,35.58743962,FALSE,TRUE,TRUE,TRUE,FALSE,FALSE,FALSE,FALSE,FALSE,"green"
13111000800,13111,"8","にしおか19ごうふん","西岡19号墳","大田区 田園調布五丁目","[古墳時代]","古墳","前方後円墳？","直刀",139.6587397,35.59761202,FALSE,FALSE,FALSE,TRUE,FALSE,FALSE,FALSE,FALSE,FALSE,"green"
13111000900,13111,"9","にしおか20ごうふん","西岡20号墳","大田区 田園調布五丁目","[古墳時代]","古墳","円墳","",139.6578784,35.59596871,FALSE,FALSE,FALSE,TRUE,FALSE,FALSE,FALSE,FALSE,FALSE,"green"
13111001000,13111,"10","にしおか21ごうふん","西岡21号墳","大田区 田園調布五丁目","[古墳時代]","古墳","円墳","",139.6579115,35.59571279,FALSE,FALSE,FALSE,TRUE,FALSE,FALSE,FALSE,FALSE,FALSE,"green"
13111001100,13111,"11","にしおか22ごうふん","西岡22号墳","大田区 田園調布五丁目","[古墳時代]","古墳","円墳　[古墳時代]横穴式石室","土器　鉄鏃　刀子　直刀　金環　雲珠",139.6581103,35.59556462,FALSE,FALSE,FALSE,TRUE,FALSE,FALSE,FALSE,FALSE,FALSE,"green"
13111001200,13111,"12","にしおか23ごうふん","西岡23号墳","大田区 田園調布五丁目","[古墳時代]","古墳","円墳","",139.6582659,35.59544897,FALSE,FALSE,FALSE,TRUE,FALSE,FALSE,FALSE,FALSE,FALSE,"green"
13111001300,13111,"13","にしおか24ごうふん","西岡24号墳","大田区 田園調布五丁目","[古墳時代]","古墳","円墳","鉄鏃　直刀　銅釧　人骨",139.6586951,35.59520469,FALSE,FALSE,FALSE,TRUE,FALSE,FALSE,FALSE,FALSE,FALSE,"green"
13111001400,13111,"14","いっぽんまつこふん（にしおか25ごうふん）","一本松古墳(西岡25号墳）","大田区 田園調布五丁目","[古墳時代]","古墳","円墳？","土器",139.660401,35.59766486,FALSE,FALSE,FALSE,TRUE,FALSE,FALSE,FALSE,FALSE,FALSE,"green"
13111001500,13111,"15","にしおか26ごうふん","西岡26号墳","大田区 田園調布四丁目","[古墳時代]","古墳","円墳","埴輪",139.6602508,35.59732463,FALSE,FALSE,FALSE,TRUE,FALSE,FALSE,FALSE,FALSE,FALSE,"green"
13111001600,13111,"16","にしおか27ごうふん","西岡27号墳","大田区 田園調布五丁目","[古墳時代]","古墳","円墳","",139.6598109,35.596112,FALSE,FALSE,FALSE,TRUE,FALSE,FALSE,FALSE,FALSE,FALSE,"green"
13111001700,13111,"17","にしおか28ごうふん","西岡28号墳","大田区 田園調布五丁目","[古墳時代]","古墳","[古墳時代]横穴式石室","鉄鏃　鹿角柄刀子　轡　六鈴鏡　直刀",139.6602231,35.59584821,FALSE,FALSE,FALSE,TRUE,FALSE,FALSE,FALSE,FALSE,FALSE,"green"
13111001800,13111,"18","にしおか29ごうふん","西岡29号墳","大田区 田園調布五丁目","[古墳時代]","古墳","円墳","土師器",139.6593983,35.59610788,FALSE,FALSE,FALSE,TRUE,FALSE,FALSE,FALSE,FALSE,FALSE,"green"
13111001900,13111,"19","にしおか30ごうふん","西岡30号墳","大田区 田園調布五丁目","[古墳時代]","古墳","円墳","小刀　管玉　耳環",139.6594643,35.59568898,FALSE,FALSE,FALSE,TRUE,FALSE,FALSE,FALSE,FALSE,FALSE,"green"
13111002000,13111,"20","にしおか31ごうふん","西岡31号墳","大田区 田園調布五丁目","[古墳時代]","古墳","円墳？","土器　石釧",139.6593099,35.59519127,FALSE,FALSE,FALSE,TRUE,FALSE,FALSE,FALSE,FALSE,FALSE,"green"
13111002100,13111,"21","にしおか32ごうふん","西岡32号墳","大田区 田園調布五丁目","[古墳時代]","古墳","円墳","土器　円筒埴輪",139.6591834,35.59476115,FALSE,FALSE,FALSE,TRUE,FALSE,FALSE,FALSE,FALSE,FALSE,"green"
13111002200,13111,"22","にしおか33ごうふん","西岡33号墳","大田区 田園調布四丁目","[古墳時代]","古墳","","土器",139.6606553,35.59527542,FALSE,FALSE,FALSE,TRUE,FALSE,FALSE,FALSE,FALSE,FALSE,"green"
13111002300,13111,"23","せんげんさまこふん（にしおか34ごうふん）","浅間様古墳(西岡34号墳）","大田区 田園調布四丁目","[古墳時代]","古墳","※遺跡範囲うち、石室部分が大田区指定史跡古墳石室（俗称穴八幡）となっています。 円墳　[古墳時代]横穴式石室","",139.6608623,35.59448064,FALSE,FALSE,FALSE,TRUE,FALSE,FALSE,FALSE,FALSE,FALSE,"green"
13111002400,13111,"24","にしおか35ごうふん","西岡35号墳","大田区 田園調布四丁目","[古墳時代]","古墳","","円筒埴輪",139.6613682,35.59369521,FALSE,FALSE,FALSE,TRUE,FALSE,FALSE,FALSE,FALSE,FALSE,"green"
13111002500,13111,"25","かんのんづかこふん（にしおか36ごうふん）","観音塚古墳(西岡36号墳）","大田区 田園調布四丁目","[古墳時代]","古墳","前方後円墳　[古墳時代]横穴式石室","鉄鏃　刀子　円筒埴輪　人物埴輪　玉まき　大刀埴輪　玉類　直刀　鉄環　轡　鐙　木製鐙金具　辻金具　雲珠",139.6625296,35.59444324,FALSE,FALSE,FALSE,TRUE,FALSE,FALSE,FALSE,FALSE,FALSE,"green"
13111002600,13111,"26","たまがわだいこふんぐん","多摩川台古墳群1〜8号墳","大田区 田園調布一丁目　 田園調布四丁目","[古墳時代]","古墳","1号墳：前方後円墳　径39m　横穴式石室 2号墳：円墳？　礫槨　 3号墳：円墳　径13〜14m　横穴式石室　 4号墳：円墳　径18m　横穴式石室　 5号墳：円墳　径20.1m　横穴式石室　 6号墳：円墳　径20m　横穴式石室　 7号墳：円墳　径18.5m　横穴式石室　 8号墳：円墳　径16m　横穴式石室","1号墳：土師器　須恵器　鉄鏃　円筒埴輪　形象埴輪　 2号墳：勾玉　 3号墳：土師器　須恵器　鉄鏃　直刀　金環　 4号墳：土師器　須恵器　鉄鏃　刀子　埴輪　直刀　轡　 5号墳：鉄鏃　刀子　玉類　直刀　金環　銅環　轡　 7号墳：鉄鏃　大刀　 8号墳：土師器　須恵器　鉄鏃　刀子　玉類　直刀　金環　鉾",139.6653353,35.59098393,FALSE,FALSE,FALSE,TRUE,FALSE,FALSE,FALSE,FALSE,FALSE,"green"
13111002800,13111,"28","しもぬまべきつねづか1・2ごうふん","下沼部狐塚1・2号墳","大田区 田園調布二丁目","[古墳時代]","古墳","円墳2基","",139.6707426,35.5931476,FALSE,FALSE,FALSE,TRUE,FALSE,FALSE,FALSE,FALSE,FALSE,"green"
13111003000,13111,"30","いしづかこふん","石塚古墳","大田区 西嶺町","[古墳時代]","古墳","円墳","",139.6774303,35.58177573,FALSE,FALSE,FALSE,TRUE,FALSE,FALSE,FALSE,FALSE,FALSE,"green"
13111003500,13111,"35","かめのこやまこふん（にしおか46ごうふん）","亀甲山古墳（西岡46号墳）","大田区 田園調布一丁目","[古墳時代]","古墳","※遺跡範囲のすべてが、国指定史跡亀甲山古墳となっています。 　 前方後円墳","",139.6672172,35.58937143,FALSE,FALSE,FALSE,TRUE,FALSE,FALSE,FALSE,FALSE,FALSE,"green"
13111003600,13111,"36","にしおか47ごうふん","西岡47号墳","大田区 田園調布三丁目","[古墳時代]","古墳","円墳","",139.6673245,35.5914479,FALSE,FALSE,FALSE,TRUE,FALSE,FALSE,FALSE,FALSE,FALSE,"green"
13111003800,13111,"38","ほうらいさん（ほうらいづか）こふん","宝莱山（蓬莱塚）古墳","大田区 田園調布四丁目","[古墳時代]","古墳","※遺跡範囲のすべてが、都指定史跡宝莱山古墳となっています。 前方後円墳　[古墳時代]粘土槨","土器　鉄鏃　紡錘車形石製品　管玉　勾玉　丸玉　小玉　四獣鏡　鉄剣",139.6632476,35.59286127,FALSE,FALSE,FALSE,TRUE,FALSE,FALSE,FALSE,FALSE,FALSE,"green"
13111005000,13111,"50","にしおか49ごうふん","西岡49号墳","大田区 田園調布本町","[古墳時代]","古墳","円墳","",139.6709538,35.58545938,FALSE,FALSE,FALSE,TRUE,FALSE,FALSE,FALSE,FALSE,FALSE,"green"
13111005100,13111,"51","にしおか50ごうふん","西岡50号墳","大田区 田園調布本町","[古墳時代]","古墳","円墳","",139.6708465,35.58590436,FALSE,FALSE,FALSE,TRUE,FALSE,FALSE,FALSE,FALSE,FALSE,"green"
13111005200,13111,"52","にしおか51ごうふん","西岡51号墳","大田区 田園調布本町","[古墳時代]","古墳","円墳　[古墳時代]横穴式石室","直刀",139.6716083,35.58488351,FALSE,FALSE,FALSE,TRUE,FALSE,FALSE,FALSE,FALSE,FALSE,"green"
13111005300,13111,"53","にしおか52ごうふん","西岡52号墳","大田区 田園調布本町","[古墳時代]","古墳","円墳","土師器　鉄鏃　方頭大刀　銀環　人骨",139.6722949,35.5844996,FALSE,FALSE,FALSE,TRUE,FALSE,FALSE,FALSE,FALSE,FALSE,"green"
13111005400,13111,"54","にしおか53ごうふん","西岡53号墳","大田区 田園調布南","[古墳時代]","古墳","円墳","",139.676801,35.5810443,FALSE,FALSE,FALSE,TRUE,FALSE,FALSE,FALSE,FALSE,FALSE,"green"
13111005500,13111,"55","にしおか54ごうふん","西岡54号墳","大田区 西嶺町","[古墳時代]","古墳","円墳","",139.6781743,35.58182961,FALSE,FALSE,FALSE,TRUE,FALSE,FALSE,FALSE,FALSE,FALSE,"green"
13111005600,13111,"56","うのきおおつかこふん","鵜木大塚古墳","大田区 雪谷大塚町","[古墳時代]","古墳","円墳","",139.6771517,35.59133995,FALSE,FALSE,FALSE,TRUE,FALSE,FALSE,FALSE,FALSE,FALSE,"green"
13111008300,13111,"83","すりばちやまこふん","スリバチ山古墳","大田区 久が原六丁目","[古墳時代]","古墳","円墳","円筒埴輪　人物埴輪",139.6935284,35.57388922,FALSE,FALSE,FALSE,TRUE,FALSE,FALSE,FALSE,FALSE,FALSE,"green"
13111008600,13111,"86","おおつかこふん","大塚古墳","大田区 千鳥一丁目","[古墳時代]","古墳","円墳","",139.6916401,35.57430809,FALSE,FALSE,FALSE,TRUE,FALSE,FALSE,FALSE,FALSE,FALSE,"green"
13111009002,13111,"90-2","あらづか１ごうふん","荒塚1号墳","大田区 鵜の木一丁目","[古墳時代]","古墳","円墳","円筒埴輪",139.6841959,35.57387143,FALSE,FALSE,FALSE,TRUE,FALSE,FALSE,FALSE,FALSE,FALSE,"green"
13111009003,13111,"90-3","あらづか2ごうふん","荒塚2号墳","大田区 鵜の木一丁目","[古墳時代]","古墳","[古墳時代]周溝","円筒埴輪　埴輪棺",139.6839599,35.57381034,FALSE,FALSE,FALSE,TRUE,FALSE,FALSE,FALSE,FALSE,FALSE,"green"
13111009400,13111,"94","おなづかこふん","女塚古墳","大田区 西蒲田六丁目","[古墳時代]","古墳","円墳","土師器",139.712384,35.56524609,FALSE,FALSE,FALSE,TRUE,FALSE,FALSE,FALSE,FALSE,FALSE,"green"
13111009700,13111,"97","ひえだじんじゃけいだいこふん","ひえ田神社境内古墳","大田区 蒲田三丁目","[古墳時代]","古墳","円墳","土師器",139.7225496,35.56436462,FALSE,FALSE,FALSE,TRUE,FALSE,FALSE,FALSE,FALSE,FALSE,"green"
13111009800,13111,"98","かまたはちまんじんじゃけいだいこふん","蒲田八幡神社境内古墳","大田区 蒲田四丁目","[古墳時代]","古墳","円墳","",139.7224852,35.56057679,FALSE,FALSE,FALSE,TRUE,FALSE,FALSE,FALSE,FALSE,FALSE,"green"
13111010100,13111,"101","やくしづかこふん","薬師塚古墳","大田区 西糀谷三丁目","[古墳時代]","古墳","円墳","土師器　刀",139.7381708,35.55472887,FALSE,FALSE,FALSE,TRUE,FALSE,FALSE,FALSE,FALSE,FALSE,"green"
13111010600,13111,"106","おおもりみなみこふん","大森南古墳","大田区 大森南一丁目","[古墳時代][中世]","古墳？塚？","円墳","",139.7383679,35.56248294,FALSE,FALSE,FALSE,TRUE,FALSE,FALSE,TRUE,FALSE,FALSE,"green"
13111011200,13111,"112","つつみかたごんげんだいこふん","堤方権現台古墳","大田区 池上一丁目","[古墳時代]","古墳","円墳","土器　刀",139.7073986,35.57649601,FALSE,FALSE,FALSE,TRUE,FALSE,FALSE,FALSE,FALSE,FALSE,"green"
13111014500,13111,"145","おうぎづかこふん","扇塚古墳","大田区 田園調布一丁目","[古墳時代]","古墳","円墳","",139.6709204,35.58696438,FALSE,FALSE,FALSE,TRUE,FALSE,FALSE,FALSE,FALSE,FALSE,"green"
13111015100,13111,"151","ひがしこうじややくしづかこふん","東糀谷薬師塚古墳","大田区 東糀谷一丁目","[古墳時代]","古墳","","土師器　刀",139.7407095,35.55951162,FALSE,FALSE,FALSE,TRUE,FALSE,FALSE,FALSE,FALSE,FALSE,"green"
13111015500,13111,"155","せんげんじんじゃきたこふん","浅間神社北古墳","大田区 田園調布一丁目","[古墳時代]","古墳","円墳","土師器　円筒埴輪",139.6682356,35.58793012,FALSE,FALSE,FALSE,TRUE,FALSE,FALSE,FALSE,FALSE,FALSE,"green"
13111015600,13111,"156","にしみねこふん","西嶺古墳","大田区 西嶺町","[古墳時代]","古墳","円墳","",139.6779988,35.58063574,FALSE,FALSE,FALSE,TRUE,FALSE,FALSE,FALSE,FALSE,FALSE,"green"
13111015700,13111,"157","うのきいっちょうめ15ばんこふん","鵜の木一丁目15番古墳","大田区 鵜の木一丁目","[古墳時代]","古墳","円墳","",139.6826498,35.57641237,FALSE,FALSE,FALSE,TRUE,FALSE,FALSE,FALSE,FALSE,FALSE,"green"
13111015800,13111,"158","みしまづかこふん","三島塚古墳","大田区 鵜の木一丁目","[古墳時代]","古墳","","円筒埴輪　人物埴輪頭部　直刀　耳環",139.6830467,35.57518197,FALSE,FALSE,FALSE,TRUE,FALSE,FALSE,FALSE,FALSE,FALSE,"green"
13111015900,13111,"159","はちまんじんじゃけいだいこふん","八幡神社境内古墳","大田区 田園調布五丁目","[古墳時代]","古墳","[古墳時代]横穴式石室","",139.6572278,35.59580502,FALSE,FALSE,FALSE,TRUE,FALSE,FALSE,FALSE,FALSE,FALSE,"green"
13111016000,13111,"160","にしこうじやおおつか","西糀谷大塚","大田区 西糀谷三丁目","[古墳時代]","古墳","円墳","",139.7346606,35.55528909,FALSE,FALSE,FALSE,TRUE,FALSE,FALSE,FALSE,FALSE,FALSE,"green"
13111020000,13111,"200","きたかまたこふん","北蒲田古墳","大田区 蒲田二丁目","[古墳時代]","古墳","円墳","土器",139.7228069,35.56578356,FALSE,FALSE,FALSE,TRUE,FALSE,FALSE,FALSE,FALSE,FALSE,"green"
13111020500,13111,"205","おいせづか","お伊勢塚","大田区 新蒲田一丁目","[古墳時代]","古墳","円墳","",139.7093741,35.55668216,FALSE,FALSE,FALSE,TRUE,FALSE,FALSE,FALSE,FALSE,FALSE,"green"
13111020700,13111,"207","ことりづか","小鳥塚","大田区 西六郷一丁目","[古墳時代]","古墳","円墳","",139.7081295,35.55383667,FALSE,FALSE,FALSE,TRUE,FALSE,FALSE,FALSE,FALSE,FALSE,"green"
13111020900,13111,"209","てんのうぎこふん","天王木古墳","大田区 西六郷一丁目","[古墳時代]","古墳","円墳","須恵器",139.7060911,35.55200363,FALSE,FALSE,FALSE,TRUE,FALSE,FALSE,FALSE,FALSE,FALSE,"green"
13111023400,13111,"234","ちょうえいこふん","長栄古墳","大田区 池上一丁目","[古墳時代]","古墳","[古墳時代]周溝","須恵器",139.7065079,35.57819371,FALSE,FALSE,FALSE,TRUE,FALSE,FALSE,FALSE,FALSE,FALSE,"green"
13112001002,13112,"10-2","きぬたちゅうがっこうこふんぐん2ごうこふん","砧中学校古墳群2号古墳","世田谷区 成城一丁目","[古墳時代]","古墳","","",139.6026937,35.63488369,FALSE,FALSE,FALSE,TRUE,FALSE,FALSE,FALSE,FALSE,FALSE,"green"
13112001003,13112,"10-3","きぬたちゅうがっこうこふんぐん3ごうこふん","砧中学校古墳群3号古墳","世田谷区 成城一丁目","[古墳時代]","古墳","円墳　[古墳時代]周溝","",139.6017589,35.6335968,FALSE,FALSE,FALSE,TRUE,FALSE,FALSE,FALSE,FALSE,FALSE,"green"
13112001004,13112,"10-4","きぬたちゅうがっこうこふんぐん4ごうこふん","砧中学校古墳群4号古墳","世田谷区 成城一丁目","[古墳時代]","古墳","※遺跡範囲のすべてが、世田谷区史跡砧中学校古墳群四号墳 円墳　[古墳時代]周溝　幅5〜10ｍ　深2ｍ","土師器　直刀",139.6018616,35.63283375,FALSE,FALSE,FALSE,TRUE,FALSE,FALSE,FALSE,FALSE,FALSE,"green"
13112001005,13112,"10-5","きぬたちゅうがっこうこふんぐん5ごうこふん","砧中学校古墳群5号古墳","世田谷区 成城一丁目","[古墳時代]","古墳","方墳","",139.6025804,35.63256549,FALSE,FALSE,FALSE,TRUE,FALSE,FALSE,FALSE,FALSE,FALSE,"green"
13112001006,13112,"10-6","きぬたちゅうがっこうこふんぐん6ごうこふん","砧中学校古墳群6号古墳","世田谷区 成城一丁目","[古墳時代]","古墳","円墳","土師器　須恵器　直刀　刀子　鉄鏃　耳環　ガラス玉　歯",139.6034605,35.63282779,FALSE,FALSE,FALSE,TRUE,FALSE,FALSE,FALSE,FALSE,FALSE,"green"
13112001007,13112,"10-7","きぬたちゅうがっこうこふんぐん7ごうこふん","砧中学校古墳群7号古墳","世田谷区 成城一丁目","[古墳時代]","古墳","","",139.6026937,35.63488369,FALSE,FALSE,FALSE,TRUE,FALSE,FALSE,FALSE,FALSE,FALSE,"green"
13112001008,13112,"10-8","きぬたちゅうがっこうこふんぐん8ごうこふん","砧中学校古墳群8号古墳","世田谷区 成城一丁目","[古墳時代]","古墳","円墳[古墳時代]周溝","土師器　須恵器",139.600336,35.63324509,FALSE,FALSE,FALSE,TRUE,FALSE,FALSE,FALSE,FALSE,FALSE,"green"
13112001009,13112,"10-9","きぬたちゅうがっこうこふんぐん9ごうふん","砧中学校古墳群9号墳","世田谷区 成城一丁目","[古墳時代]","古墳","古墳周溝","刀子",139.6012895,35.63365045,FALSE,FALSE,FALSE,TRUE,FALSE,FALSE,FALSE,FALSE,FALSE,"green"
13112002400,13112,"24","てんじんづかこふん","天神塚古墳","世田谷区 喜多見四丁目","[古墳時代]","古墳","円墳　[古墳時代]横穴式石室","",139.5968285,35.62662704,FALSE,FALSE,FALSE,TRUE,FALSE,FALSE,FALSE,FALSE,FALSE,"green"
13112002500,13112,"25","いなりづかこふん","稲荷塚古墳","世田谷区 喜多見四丁目","[古墳時代]","古墳","※遺跡範囲のすべてが、世田谷区指定史跡稲荷塚古墳となっています。 円墳　[古墳時代]横穴式石室","土師器　須恵器　鉄鏃　刀子　玉類　直刀　圭頭大刀　耳環　骨片",139.5968872,35.6273663,FALSE,FALSE,FALSE,TRUE,FALSE,FALSE,FALSE,FALSE,FALSE,"green"
13112002600,13112,"26","だいろくてんづかこふん","第六天塚古墳","世田谷区 喜多見四丁目","古墳時代","古墳","円墳　[古墳時代]周溝　墳丘　葺石","円筒埴輪　蔵骨器",139.5967239,35.62605718,FALSE,FALSE,FALSE,TRUE,FALSE,FALSE,FALSE,FALSE,FALSE,"green"
13112002801,13112,"28-1","けいげんじこふんぐん1ごうふん","慶元寺古墳群1号墳","世田谷区 喜多見四丁目","古墳時代","古墳","円墳　[古墳時代]周溝　葺石","土師器　須恵器　円筒埴輪　直刀",139.5959157,35.62654554,FALSE,FALSE,FALSE,TRUE,FALSE,FALSE,FALSE,FALSE,FALSE,"green"
13112002802,13112,"28-2","けいげんじこふんぐん2ごうふん","慶元寺古墳群2号墳","世田谷区 喜多見四丁目","古墳時代","古墳","円墳","埴輪",139.5954507,35.62687117,FALSE,FALSE,FALSE,TRUE,FALSE,FALSE,FALSE,FALSE,FALSE,"green"
13112002803,13112,"28-3","けいげんじこふんぐん3ごうふん","慶元寺古墳群3号墳","世田谷区 喜多見四丁目","古墳時代","古墳","円墳","円筒埴輪",139.5945424,35.62693509,FALSE,FALSE,FALSE,TRUE,FALSE,FALSE,FALSE,FALSE,FALSE,"green"
13112002804,13112,"28-4","けいげんじこふんぐん4ごうふん","慶元寺古墳群4号墳","世田谷区 喜多見四丁目","古墳時代","古墳","円墳","円筒埴輪　小刀",139.5941561,35.62704558,FALSE,FALSE,FALSE,TRUE,FALSE,FALSE,FALSE,FALSE,FALSE,"green"
13112002805,13112,"28-5","けいげんじこふんぐん5ごうふん","慶元寺古墳群5号墳","世田谷区 喜多見四丁目","古墳時代","古墳","","円筒埴輪",139.5943922,35.62721415,FALSE,FALSE,FALSE,TRUE,FALSE,FALSE,FALSE,FALSE,FALSE,"green"
13112002806,13112,"28-6","けいげんじこふんぐん6ごうふん","慶元寺古墳群6号墳","世田谷区 喜多見四丁目","古墳時代","古墳","前方後円墳?","円筒埴輪",139.5941203,35.62743505,FALSE,FALSE,FALSE,TRUE,FALSE,FALSE,FALSE,FALSE,FALSE,"green"
13112002807,13112,"28-7","けいげんじこふんぐん7ごうふん","慶元寺古墳群7号墳","世田谷区 喜多見四丁目","古墳時代","古墳","[古墳時代]横穴式石室","",139.5941632,35.62727808,FALSE,FALSE,FALSE,TRUE,FALSE,FALSE,FALSE,FALSE,FALSE,"green"
13112002808,13112,"28-8","けいげんじこふんぐん8ごうふん","慶元寺古墳群8号墳","世田谷区 喜多見四丁目","古墳時代","古墳","","円筒埴輪",139.5929331,35.62763859,FALSE,FALSE,FALSE,TRUE,FALSE,FALSE,FALSE,FALSE,FALSE,"green"
13112003301,13112,"33-1","おおくらこふんぐん1ごうふん","大蔵古墳群1号墳","世田谷区 大蔵四丁目","[古墳時代]","古墳","円墳　[古墳時代]周溝　横穴式石室","須恵器",139.6115471,35.62908311,FALSE,FALSE,FALSE,TRUE,FALSE,FALSE,FALSE,FALSE,FALSE,"green"
13112003302,13112,"33-2","おおくらこふんぐん2ごうふん","大蔵古墳群2号墳","世田谷区 大蔵四丁目","[古墳時代]","古墳","円墳　[古墳時代]横穴式石室","縄文土器　石器　弥生土器　土師器",139.6122911,35.62878085,FALSE,FALSE,FALSE,TRUE,FALSE,FALSE,FALSE,FALSE,FALSE,"green"
13112003303,13112,"33-3","おおくらこふんぐん3ごうふん","大蔵古墳群3号墳","世田谷区 大蔵四丁目","[古墳時代]","古墳","円墳　[古墳時代]周溝","縄文土器",139.6120479,35.62908311,FALSE,FALSE,FALSE,TRUE,FALSE,FALSE,FALSE,FALSE,FALSE,"green"
13112003901,13112,"39-1","とのやまこふんぐん1ごうふん","殿山古墳群1号墳","世田谷区 大蔵六丁目","[古墳時代]","古墳","円墳?　[古墳時代]横穴式石室","土師器　鉄鏃　鉄器　刀子　棗玉　ガラス玉　直刀　耳環　鉄環　顔料",139.6095178,35.62616894,FALSE,FALSE,FALSE,TRUE,FALSE,FALSE,FALSE,FALSE,FALSE,"green"
13112003902,13112,"39-2","とのやまこふんぐん2ごうふん","殿山古墳群2号墳","世田谷区 大蔵六丁目","[古墳時代]","古墳","円墳　[古墳時代]横穴式石室","土師器　鉄片",139.6087096,35.62694796,FALSE,FALSE,FALSE,TRUE,FALSE,FALSE,FALSE,FALSE,FALSE,"green"
13112003903,13112,"39-3","とのやまこふんぐん3ごうふん","殿山古墳群3号墳","世田谷区 大蔵六丁目","[古墳時代]","古墳","円墳?","土師器",139.6090672,35.62671538,FALSE,FALSE,FALSE,TRUE,FALSE,FALSE,FALSE,FALSE,FALSE,"green"
13112003904,13112,"39-4","とのやまこふんぐん4ごうふん","殿山古墳群4号墳","世田谷区 大蔵六丁目","[古墳時代]","古墳","","",139.6091315,35.62623871,FALSE,FALSE,FALSE,TRUE,FALSE,FALSE,FALSE,FALSE,FALSE,"green"
13112003905,13112,"39-5","とのやまこふんぐん5ごうふん","殿山古墳群5号墳","世田谷区 大蔵六丁目","[古墳時代]","古墳","円墳　[古墳時代]横穴式石室","",139.6087525,35.6262503,FALSE,FALSE,FALSE,TRUE,FALSE,FALSE,FALSE,FALSE,FALSE,"green"
13112003906,13112,"39-6","とのやまこふんぐん6ごうふん","殿山古墳群6号墳","世田谷区 大蔵六丁目","[古墳時代]","古墳","","",139.6084447,35.62630025,FALSE,FALSE,FALSE,TRUE,FALSE,FALSE,FALSE,FALSE,FALSE,"green"
13112003907,13112,"39-7","とのやまこふんぐん7ごうふん","殿山古墳群7号墳","世田谷区 大蔵六丁目","[古墳時代]","古墳","円墳","直刀",139.6095248,35.6266142,FALSE,FALSE,FALSE,TRUE,FALSE,FALSE,FALSE,FALSE,FALSE,"green"
13112003908,13112,"39-8","とのやまこふんぐん8ごうふん（たいしょうづか）","殿山古墳群8号墳（大将塚）","世田谷区 大蔵六丁目","[古墳時代]","古墳","円墳","鏃　刀",139.6107479,35.62564907,FALSE,FALSE,FALSE,TRUE,FALSE,FALSE,FALSE,FALSE,FALSE,"green"
13112003909,13112,"39-9","とのやまこふんぐん9ごうふん","殿山古墳群9号墳","世田谷区 大蔵六丁目","[古墳時代]","古墳","円墳　[古墳時代]横穴式石室?","金銅装圭頭大刀",139.6116795,35.62648051,FALSE,FALSE,FALSE,TRUE,FALSE,FALSE,FALSE,FALSE,FALSE,"green"
13112010800,13112,"108","たまがわじんじゃこふん","玉川神社古墳","世田谷区 瀬田四丁目","[古墳時代]","古墳","円墳","直刀",139.626,35.62008,FALSE,FALSE,FALSE,TRUE,FALSE,FALSE,FALSE,FALSE,FALSE,"green"
13112011500,13112,"115","かみのげいなりづか（にしおか5ごうふん）こふん","上野毛稲荷塚（西岡5号墳）古墳","世田谷区 上野毛二丁目","[古墳時代]","古墳","※遺跡範囲のすべてが、世田谷区指定史跡上野毛稲荷塚古墳となっています。 円墳・前方後円墳 [旧石器時代]ブロック [縄文時代]住居 集石 土坑 [弥生時代]住居 溝 [古墳時代]住居 [中世]掘立柱建物 井戸 [近世]建物 門","直刀",139.6371,35.60871,FALSE,FALSE,FALSE,TRUE,FALSE,FALSE,FALSE,FALSE,FALSE,"green"
13112011900,13112,"119","てんじんやまこふん","天神山古墳","世田谷区 野毛一丁目","[古墳時代]","古墳","円墳 [古墳時代]周溝","",139.6454,35.60118,FALSE,FALSE,FALSE,TRUE,FALSE,FALSE,FALSE,FALSE,FALSE,"green"
13112012700,13112,"127","のげおおつか（にしおか8ごうふん）こふん","野毛大塚(西岡8号墳)古墳","世田谷区 野毛一丁目","[古墳時代]","古墳","※遺跡範囲のすべてが、都指定史跡野毛大塚古墳となっています。 前方後円墳 帆立貝式 [古墳時代]石棺 木棺 粘土槨","土師器 鉄鎌 鉄斧 鉄鏃 刀子 埴輪 玉類 鏡 直刀 鉄剣 鉄矛 銅釧 短甲 頸甲 肩甲 冑 石製模造品 人骨 くし 靫 矢筒",139.6431,35.60508,FALSE,FALSE,FALSE,TRUE,FALSE,FALSE,FALSE,FALSE,FALSE,"green"
13112012800,13112,"128","すくもづか（にしおか6ごう）こふん","スクモ塚(西岡6号)古墳","世田谷区 野毛三丁目","[古墳時代]","古墳","古墳周溝","縄文土器 土師器 埴輪",139.64,35.60704,FALSE,FALSE,FALSE,TRUE,FALSE,FALSE,FALSE,FALSE,FALSE,"green"
13112012900,13112,"129","にしおか7ごうふん","西岡7号墳","世田谷区 野毛二丁目","[古墳時代]","古墳","","",139.641,35.60414,FALSE,FALSE,FALSE,TRUE,FALSE,FALSE,FALSE,FALSE,FALSE,"green"
13112013200,13112,"132","にしおか4ごうふん","西岡4号墳","世田谷区 等々力三丁目","[古墳時代]","古墳","円墳","柄鏡",139.6472,35.61179,FALSE,FALSE,FALSE,TRUE,FALSE,FALSE,FALSE,FALSE,FALSE,"green"
13112013300,13112,"133","にしおか9ごうふん","西岡9号墳","世田谷区 等々力一丁目","[古墳時代]","古墳","円墳","",139.6466,35.60473,FALSE,FALSE,FALSE,TRUE,FALSE,FALSE,FALSE,FALSE,FALSE,"green"
13112013400,13112,"134","みたけさん（にしおか10ごうふん）こふん","御岳山(西岡10号墳)古墳","世田谷区 等々力一丁目","[古墳時代]","古墳","円墳 [古墳時代]ピット 溝 周溝 粘土槨","土師器 須恵器 埴輪 七鈴鏡 直刀 短甲 円筒埴輪 形象埴輪",139.6479,35.6029,FALSE,FALSE,FALSE,TRUE,FALSE,FALSE,FALSE,FALSE,FALSE,"green"
13112013500,13112,"135","だいにちづか（にしおか11ごうふん）","大日塚（西岡11号墳）","世田谷区 等々力二丁目","[古墳時代]","古墳","円墳","",139.6497,35.60318,FALSE,FALSE,FALSE,TRUE,FALSE,FALSE,FALSE,FALSE,FALSE,"green"
13112013600,13112,"136","きつねづか（にしおか12ごうふん）こふん","狐塚(西岡12号墳)古墳","世田谷区 尾山台二丁目","[古墳時代]","古墳","円墳 [古墳時代]葺石 埴輪列","須恵器 埴輪",139.6515,35.60222,FALSE,FALSE,FALSE,TRUE,FALSE,FALSE,FALSE,FALSE,FALSE,"green"
13112013700,13112,"137","おやまきたはらづか（にしおか13ごうふん）","尾山北原塚（西岡13号墳）","世田谷区 尾山台二丁目","[古墳時代]","古墳","円墳 [古墳時代]古墳周溝","円筒埴輪",139.6533,35.60129,FALSE,FALSE,FALSE,TRUE,FALSE,FALSE,FALSE,FALSE,FALSE,"green"
13112013800,13112,"138","はちまんづか（にしおか14ごうふん・しんめいづか）こふん","八幡塚(西岡14号墳・神明塚)古墳","世田谷区 尾山台二丁目","[古墳時代][中世]","古墳","円墳","土師器 ヤリガンナ <U+9299>帯金具 刀身 石製模造品 銅鏡 直刀 鉄槍 鉄鏃 ガラス小玉",139.6552,35.60042,FALSE,FALSE,FALSE,TRUE,FALSE,FALSE,TRUE,FALSE,FALSE,"green"
13112013900,13112,"139","てんぎょうづかこふん","天慶塚古墳","世田谷区 尾山台一丁目","[古墳時代]","古墳","帆立貝ないし造出付円墳 [古墳時代]古墳周溝","鉄鏃 ヤリガンナ 金具 鉄器 匂玉 直刀 <U+9299>帯飾板 石製模造品 経筒 人骨 円筒埴輪 壷形埴輪 土師器 縄文土器 土師質土器",139.6573,35.60068,FALSE,FALSE,FALSE,TRUE,FALSE,FALSE,FALSE,FALSE,FALSE,"green"
13112014000,13112,"140","にしおか16ごうふん","西岡16号墳","世田谷区 尾山台一丁目","[古墳時代]","古墳","円墳","須恵器",139.6569,35.60042,FALSE,FALSE,FALSE,TRUE,FALSE,FALSE,FALSE,FALSE,FALSE,"green"
13112014100,13112,"141","にしおか17ごうふん","西岡17号墳","世田谷区 尾山台一丁目","[古墳時代]","古墳","円墳","直刀",139.6566,35.59972,FALSE,FALSE,FALSE,TRUE,FALSE,FALSE,FALSE,FALSE,FALSE,"green"
13112014700,13112,"147","にしおかじゅうはちごうふん","西岡18号墳","世田谷区 玉川田園調布一丁目","[古墳時代]","古墳","円墳","直刀",139.6627,35.59994,FALSE,FALSE,FALSE,TRUE,FALSE,FALSE,FALSE,FALSE,FALSE,"green"
13112025100,13112,"251","いなりまるこふん","稲荷丸古墳","世田谷区 上野毛三丁目","[古墳時代]","古墳","円墳 [古墳時代]礫槨 石槨 葺石","",139.6354509,35.6119298,FALSE,FALSE,FALSE,TRUE,FALSE,FALSE,FALSE,FALSE,FALSE,"green"
13112026201,13112,"262-1","じんや1ごうふん","陣屋1号墳","世田谷区 喜多見一丁目","[古墳時代]","古墳","円墳 [古墳時代]周溝","土師器",139.5963457,35.62438351,FALSE,FALSE,FALSE,TRUE,FALSE,FALSE,FALSE,FALSE,FALSE,"green"
13112026202,13112,"262-2","じんや2ごうふん","陣屋2号墳","世田谷区 喜多見一丁目","[古墳時代]","古墳","[古墳時代]葺石","土師器 埴輪（円筒、人物、形象）",139.5965603,35.62461026,FALSE,FALSE,FALSE,TRUE,FALSE,FALSE,FALSE,FALSE,FALSE,"green"
13112026203,13112,"262-3","じんや3ごうふん","陣屋3号墳","世田谷区 喜多見四丁目","[古墳時代]","古墳","[古墳時代]石室","鉄鏃",139.5967525,35.62561757,FALSE,FALSE,FALSE,TRUE,FALSE,FALSE,FALSE,FALSE,FALSE,"green"
13112026204,13112,"262-4","じんや4ごうふん","陣屋4号墳","世田谷区 喜多見三丁目","[古墳時代]","古墳","円墳 [古墳時代]周溝","土師器 須恵器 勾玉",139.5977481,35.62498966,FALSE,FALSE,FALSE,TRUE,FALSE,FALSE,FALSE,FALSE,FALSE,"green"
13112026205,13112,"262-5","じんや5ごうふん","陣屋5号墳","世田谷区 喜多見四丁目","[古墳時代]","古墳","前方後円墳 帆立貝式 [古墳時代]周溝","土師器 須恵器 埴輪 臼玉",139.5961689,35.62565943,FALSE,FALSE,FALSE,TRUE,FALSE,FALSE,FALSE,FALSE,FALSE,"green"
13112026206,13112,"262-6","じんや6ごうふん","陣屋6号墳","世田谷区 喜多見三丁目","[古墳時代]","古墳","円墳 [古墳時代]周溝","",139.597525,35.62551989,FALSE,FALSE,FALSE,TRUE,FALSE,FALSE,FALSE,FALSE,FALSE,"green"
13112026207,13112,"262-7","じんや7ごうふん","陣屋7号墳","世田谷区 喜多見三丁目","[古墳時代]","古墳","","",139.5985464,35.62495129,FALSE,FALSE,FALSE,TRUE,FALSE,FALSE,FALSE,FALSE,FALSE,"green"
13112026209,13112,"262-9","じんや9ごうふん","陣屋9号墳","世田谷区 喜多見四丁目","[古墳時代]","古墳","円墳 [古墳時代]周溝","",139.5968383,35.6270687,FALSE,FALSE,FALSE,TRUE,FALSE,FALSE,FALSE,FALSE,FALSE,"green"
13112026213,13112,"262-3","じんや13ごうふん","陣屋13号墳","世田谷区 喜多見三丁目","[古墳時代]","古墳","[古墳時代]古墳周溝","土師器 須恵器",139.5994047,35.62492338,FALSE,FALSE,FALSE,TRUE,FALSE,FALSE,FALSE,FALSE,FALSE,"green"
13112026214,13112,"262-4","じんや14ごうふん","陣屋14号墳","世田谷区 喜多見四丁目","[古墳時代]","古墳","[古墳時代]周溝","土師器 須恵器",139.5972675,35.62712451,FALSE,FALSE,FALSE,TRUE,FALSE,FALSE,FALSE,FALSE,FALSE,"green"
13112026215,13112,"262-5","じんや15ごうふん","陣屋15号墳","世田谷区 喜多見四丁目","[古墳時代]","古墳","古墳周溝","土師器 須恵器 鉄製品（鋤鍬先）",139.5961517,35.62642685,FALSE,FALSE,FALSE,TRUE,FALSE,FALSE,FALSE,FALSE,FALSE,"green"
13112026602,13112,"266-2","しものだ2ごうふん","下野田2号墳","世田谷区 喜多見六丁目","[古墳時代]","古墳？","円墳?","",139.6065209,35.63028913,FALSE,FALSE,FALSE,TRUE,FALSE,FALSE,FALSE,FALSE,FALSE,"green"
13112027200,13112,"272","どうがやと１ごうふん","堂が谷戸1号墳","世田谷区 岡本三丁目","[古墳時代]","古墳","円墳 [古墳時代]周溝 幅4ｍ","縄文土器 土師器",139.616195,35.62453376,FALSE,FALSE,FALSE,TRUE,FALSE,FALSE,FALSE,FALSE,FALSE,"green"
13112027300,13112,"273","しもやま１ごうふん","下山1号墳","世田谷区 瀬田四丁目","[古墳時代]","古墳","[古墳時代]円形周溝","土師器",139.6246235,35.62206395,FALSE,FALSE,FALSE,TRUE,FALSE,FALSE,FALSE,FALSE,FALSE,"green"
13112030300,13112,"303","とどろきね1ごうふん","等々力根1号墳","世田谷区 等々力一丁目","[古墳時代]","古墳","[古墳時代]周溝","土師器",139.6552347,35.60028312,FALSE,FALSE,FALSE,TRUE,FALSE,FALSE,FALSE,FALSE,FALSE,"green"
13112030700,13112,"307","のげ2ごうふん","野毛2号墳","世田谷区 野毛二丁目","[古墳時代]","古墳","[古墳時代]周溝","円筒埴輪 形象埴輪 須恵器坏身",139.6412044,35.60273978,FALSE,FALSE,FALSE,TRUE,FALSE,FALSE,FALSE,FALSE,FALSE,"green"
13112030800,13112,"308","のげ3ごうふん","野毛3号墳","世田谷区 野毛二丁目","[古墳時代]","古墳","[古墳時代]主体部（礫槨）","",139.6409813,35.60318641,FALSE,FALSE,FALSE,TRUE,FALSE,FALSE,FALSE,FALSE,FALSE,"green"
13112030900,13112,"309","のげ4ごうふん","野毛4号墳","世田谷区 野毛二丁目","[古墳時代]","古墳","[古墳時代]周溝","円筒埴輪",139.6427014,35.60145482,FALSE,FALSE,FALSE,TRUE,FALSE,FALSE,FALSE,FALSE,FALSE,"green"
13112031000,13112,"310","のげ5ごうふん","野毛5号墳","世田谷区 野毛二丁目","[古墳時代]","古墳","[古墳時代]周溝","",139.6429074,35.60160835,FALSE,FALSE,FALSE,TRUE,FALSE,FALSE,FALSE,FALSE,FALSE,"green"
13112031100,13112,"311","のげ6ごうふん","野毛6号墳","世田谷区 野毛二丁目","[古墳時代]","古墳","[古墳時代]周溝","土師器坏",139.643019,35.60131525,FALSE,FALSE,FALSE,TRUE,FALSE,FALSE,FALSE,FALSE,FALSE,"green"
13112031500,13112,"315","みやのはら1ごうふん","宮之原1号墳","世田谷区 喜多見四丁目","[古墳時代]","古墳","形態（円墳） [古墳時代]周溝 横穴式石室","土師器 須恵器",139.5939716,35.62945464,FALSE,FALSE,FALSE,TRUE,FALSE,FALSE,FALSE,FALSE,FALSE,"green"
13112031600,13112,"316","のげ7ごうふん","野毛7号墳","世田谷区 野毛一丁目","[古墳時代]","古墳","形態（ブリッジ付?円墳） [古墳時代]周溝","",139.6429716,35.60305022,FALSE,FALSE,FALSE,TRUE,FALSE,FALSE,FALSE,FALSE,FALSE,"green"
13112031700,13112,"317","のげ8ごうふん","野毛8号墳","世田谷区 野毛一丁目","[古墳時代]","古墳","形態（ブリッジ付?円墳） [古墳時代]周溝","",139.6425424,35.60328401,FALSE,FALSE,FALSE,TRUE,FALSE,FALSE,FALSE,FALSE,FALSE,"green"
13112031800,13112,"318","のげ9ごうふん","野毛9号墳","世田谷区 野毛一丁目 野毛二丁目","[古墳時代]","古墳","形態（円墳） [古墳時代]周溝","土師器",139.6433149,35.60128461,FALSE,FALSE,FALSE,TRUE,FALSE,FALSE,FALSE,FALSE,FALSE,"green"
13112032300,13112,"323","しもやま2ごうふん","下山2号墳","世田谷区 瀬田五丁目","[古墳時代]","古墳","形態（円墳） [古墳時代]周溝","",139.6245549,35.62306863,FALSE,FALSE,FALSE,TRUE,FALSE,FALSE,FALSE,FALSE,FALSE,"green"
13112032400,13112,"324","しもやま3ごうふん","下山3号墳","世田谷区 瀬田五丁目","[古墳時代]","古墳","形態（ブリッジ付円墳） [古墳時代]周溝","",139.6244004,35.62140811,FALSE,FALSE,FALSE,TRUE,FALSE,FALSE,FALSE,FALSE,FALSE,"green"
13112032700,13112,"327","のげ10ごうふん","野毛10号墳","世田谷区 野毛二丁目","[古墳時代]","古墳","円墳 古墳周溝","土師器 須恵器",139.6431099,35.60170693,FALSE,FALSE,FALSE,TRUE,FALSE,FALSE,FALSE,FALSE,FALSE,"green"
13112033000,13112,"330","のげ11ごうふん","野毛11号墳","世田谷区 野毛一丁目","[古墳時代]","古墳","円墳 古墳周溝","",139.6438857,35.60151491,FALSE,FALSE,FALSE,TRUE,FALSE,FALSE,FALSE,FALSE,FALSE,"green"
13112033100,13112,"331","のげ12ごうふん","野毛12号墳","世田谷区 野毛一丁目","[古墳時代]","古墳","円墳 [古墳時代]周溝","",139.6428858,35.6032526,FALSE,FALSE,FALSE,TRUE,FALSE,FALSE,FALSE,FALSE,FALSE,"green"
13112033400,13112,"334","のげ13ごうふん","野毛13号墳","世田谷区 野毛一丁目","[古墳時代]","古墳","方墳 [古墳時代]周濠","埴輪 土師器 鉄製品（鉄鎌）",139.6429373,35.6041005,FALSE,FALSE,FALSE,TRUE,FALSE,FALSE,FALSE,FALSE,FALSE,"green"
13113000200,13113,"2","","渋谷区No.2遺跡","渋谷区 代々木四丁目","[縄文時代][古墳時代][奈良時代][平安時代][近世]","包蔵地・古墳","円墳","縄文土器　土師器　陶磁器",139.6924308,35.67891625,FALSE,TRUE,FALSE,TRUE,TRUE,TRUE,FALSE,TRUE,FALSE,"green"
13113000400,13113,"4","","渋谷区No.4遺跡","渋谷区 代々木五丁目","[古墳時代]","古墳","円墳?","石棺",139.6886199,35.67215383,FALSE,FALSE,FALSE,TRUE,FALSE,FALSE,FALSE,FALSE,FALSE,"green"
13113000900,13113,"9","かねづかこふん","カネ塚古墳","渋谷区 西原三丁目","[古墳時代]","古墳","円墳","武装埴輪　玉　ほう製鏡　金環　銭貨",139.6788639,35.67022637,FALSE,FALSE,FALSE,TRUE,FALSE,FALSE,FALSE,FALSE,FALSE,"green"
13113001400,13113,"14","","渋谷区No.14遺跡","渋谷区 富ケ谷二丁目","[古墳時代]","古墳","円墳","",139.6867603,35.66612627,FALSE,FALSE,FALSE,TRUE,FALSE,FALSE,FALSE,FALSE,FALSE,"green"
13113001700,13113,"17","","渋谷区No.17遺跡","渋谷区 代々木神園町","[古墳時代]","古墳","円墳","須恵器　鉄刀",139.6976093,35.68040597,FALSE,FALSE,FALSE,TRUE,FALSE,FALSE,FALSE,FALSE,FALSE,"green"
13113002200,13113,"22","","渋谷区No.22遺跡","渋谷区 代々木神園町","[古墳時代]","古墳","円墳","箱式石棺",139.6996349,35.67401947,FALSE,FALSE,FALSE,TRUE,FALSE,FALSE,FALSE,FALSE,FALSE,"green"
13113002300,13113,"23","","渋谷区No.23遺跡","渋谷区 代々木神園町","[古墳時代]","古墳","円墳3基","須恵器　鏡　鉄刀",139.6924252,35.67438203,FALSE,FALSE,FALSE,TRUE,FALSE,FALSE,FALSE,FALSE,FALSE,"green"
13113002900,13113,"29","なまこやまこふん","ナマコ山古墳","渋谷区 神南二丁目","[古墳時代]","古墳","前方後円墳?","",139.6967854,35.66492689,FALSE,FALSE,FALSE,TRUE,FALSE,FALSE,FALSE,FALSE,FALSE,"green"
13113005000,13113,"50","さるがくづか（きたづか）","猿楽塚(北塚)","渋谷区 猿楽町","[古墳時代]","古墳","※遺跡範囲のすべてが、No.51猿楽塚（南塚）とともに渋谷区指定史跡猿楽塚となっています。 円墳","",139.7003643,35.64802429,FALSE,FALSE,FALSE,TRUE,FALSE,FALSE,FALSE,FALSE,FALSE,"green"
13113005100,13113,"51","さるがくづか（みなみづか）","猿楽塚(南塚)","渋谷区 猿楽町","[古墳時代]","古墳","※遺跡範囲のすべてが、No.50猿楽塚（北塚）とともに渋谷区指定史跡猿楽塚となっています。 円墳","",139.700742,35.6476616,FALSE,FALSE,FALSE,TRUE,FALSE,FALSE,FALSE,FALSE,FALSE,"green"
13113005500,13113,"55","","渋谷区No.55遺跡","渋谷区 恵比寿南一丁目","[古墳時代]","古墳","円墳","",139.7101266,35.64570088,FALSE,FALSE,FALSE,TRUE,FALSE,FALSE,FALSE,FALSE,FALSE,"green"
13113005600,13113,"56","しぶやづかこふん","渋谷塚古墳","渋谷区 恵比寿南一丁目","[古墳時代]","古墳","円墳","",139.7095997,35.64448106,FALSE,FALSE,FALSE,TRUE,FALSE,FALSE,FALSE,FALSE,FALSE,"green"
13113006200,13113,"62","かけづかこふん","加計塚古墳","渋谷区 恵比寿四丁目","[古墳時代]","古墳","円墳","",139.7143719,35.64462056,FALSE,FALSE,FALSE,TRUE,FALSE,FALSE,FALSE,FALSE,FALSE,"green"
13113007800,13113,"78","","渋谷区No.78遺跡","渋谷区 広尾二丁目","[古墳時代]","古墳","円墳2基","",139.7170498,35.65128839,FALSE,FALSE,FALSE,TRUE,FALSE,FALSE,FALSE,FALSE,FALSE,"green"
13113008100,13113,"81","","渋谷区No.81遺跡","渋谷区 代々木四丁目","[古墳時代]","古墳","","",139.6897185,35.68206753,FALSE,FALSE,FALSE,TRUE,FALSE,FALSE,FALSE,FALSE,FALSE,"green"
13113009500,13113,"95","せいしんじょしだいがくこうないこふん","聖心女子大学構内古墳","渋谷区 広尾四丁目","[古墳時代]","古墳","円墳","",139.720174,35.65193003,FALSE,FALSE,FALSE,TRUE,FALSE,FALSE,FALSE,FALSE,FALSE,"green"
13114006600,13114,"66","とうやまこふんぐんいせき","塔山古墳群","中野区 中央一丁目","[古墳時代]","古墳","","鉄釘　直刀",139.6838773,35.6989713,FALSE,FALSE,FALSE,TRUE,FALSE,FALSE,FALSE,FALSE,FALSE,"green"
13114010200,13114,"102","ひかわじんじゃふきんこふん","氷川神社付近古墳","中野区 沼袋一丁目","[古墳時代]","古墳","","鉄刀",139.6676138,35.71890491,FALSE,FALSE,FALSE,TRUE,FALSE,FALSE,FALSE,FALSE,FALSE,"green"
13115018000,13115,"180","たかちほだいがくおおみやいせき","高千穂大学大宮遺跡","杉並区 大宮二丁目","[旧石器時代][縄文時代（早期・中期）][古墳時代][中世]","集落・古墳","[旧石器時代]礫群　ブロック　[縄文時代]陥し坑　土坑　[古墳時代]円墳（周溝）　住居　[中世]溝状遺構　溝　土坑","剥片　縄文土器　土師器　埴輪　鉄製品　陶磁器",139.6376941,35.68312,TRUE,TRUE,FALSE,TRUE,FALSE,FALSE,TRUE,FALSE,FALSE,"green"
13116000900,13116,"9","こまごめこふん","駒込古墳","豊島区 駒込一丁目","[古墳時代]","古墳","","紡錘車　勾玉　金環",139.7497842,35.73425248,FALSE,FALSE,FALSE,TRUE,FALSE,FALSE,FALSE,FALSE,FALSE,"green"
13117000600,13117,"6","あかばねだいこふんぐん","赤羽台古墳群","北区 赤羽台四丁目","[古墳時代]","古墳","円墳　[古墳時代]周溝　横穴式石室","土師器　須恵器　鉄器　刀子　埴輪　玉類　直刀　金環　銀環　金銅製金具　弓金具",139.7160389,35.78396575,FALSE,FALSE,FALSE,TRUE,FALSE,FALSE,FALSE,FALSE,FALSE,"green"
13117001000,13117,"10","みたまこふん","ミタマ古墳","北区 赤羽台一丁目","[古墳時代]","古墳","円墳?　[古墳時代]石棺?","直刀?",139.7149684,35.7790944,FALSE,FALSE,FALSE,TRUE,FALSE,FALSE,FALSE,FALSE,FALSE,"green"
13117001100,13117,"11","てんのうづかこふん","天王塚古墳","北区 赤羽台一丁目","[古墳時代]","古墳","[古墳時代]石棺?","人骨",139.7153461,35.77789671,FALSE,FALSE,FALSE,TRUE,FALSE,FALSE,FALSE,FALSE,FALSE,"green"
13117001400,13117,"14","おおつかこふん","大塚古墳","北区 赤羽西五丁目","[古墳時代]","古墳","円墳","",139.7085483,35.77483277,FALSE,FALSE,FALSE,TRUE,FALSE,FALSE,FALSE,FALSE,FALSE,"green"
13117002000,13117,"20","ふじづかこふん","富士塚古墳","北区 中十条二丁目","[古墳時代]","古墳","円墳","",139.725307,35.76289895,FALSE,FALSE,FALSE,TRUE,FALSE,FALSE,FALSE,FALSE,FALSE,"green"
13117002200,13117,"22","おうじいなりうらこふん","王子稲荷裏古墳","北区 王子本町二丁目","[古墳時代]","古墳","","人骨",139.7328975,35.75601366,FALSE,FALSE,FALSE,TRUE,FALSE,FALSE,FALSE,FALSE,FALSE,"green"
13117002400,13117,"24","よもとぎいなりこふん","四本木稲荷古墳","北区 滝野川三丁目","[古墳時代]","古墳","円墳","",139.7291601,35.74960878,FALSE,FALSE,FALSE,TRUE,FALSE,FALSE,FALSE,FALSE,FALSE,"green"
13117002600,13117,"26","たきのがわこふん","滝野川古墳","北区 滝野川三丁目","[古墳時代]","古墳","円墳","土師器　陶磁器",139.7302587,35.74782551,FALSE,FALSE,FALSE,TRUE,FALSE,FALSE,FALSE,FALSE,FALSE,"green"
13117002800,13117,"28","かっちゅうづかこふん","甲胄塚古墳","北区 上中里一丁目","[古墳時代]","古墳","","",139.7459307,35.74667603,FALSE,FALSE,FALSE,TRUE,FALSE,FALSE,FALSE,FALSE,FALSE,"green"
13117004100,13117,"41","たばたにしだいどおりいせき","田端西台通遺跡","北区 田端二丁目　 田端三丁目　 田端四丁目　 田端五丁目　 田端六丁目","[縄文時代][弥生時代][古墳時代][奈良時代][平安時代][中世][近世]","集落・貝塚・古墳","[縄文時代]堅穴建物址　土坑　[弥生時代]堅穴建物址　方形周溝墓　[古墳時代]堅穴建物址　円墳　住居址　[奈良時代][平安時代]堅穴建物址　掘立柱建物址　住居址　[平安時代]土坑　溝　畝[中世]溝址","縄文土器　弥生土器　土師器　須恵器　灰釉陶器　金属製品　石製品　土製器　銭貨　陶磁器　ガラス製品　石器　鉄製品　帯金具　ガラス小玉　鉄釧",139.7576637,35.73804458,FALSE,TRUE,TRUE,TRUE,TRUE,TRUE,TRUE,TRUE,FALSE,"green"
13117004102,13117,"41-2","たばたにしだいどおり1ごうこふん","田端西台通1号古墳","北区 田端三丁目","[古墳時代]","古墳","[古墳時代]周溝","土師器",139.7558398,35.73777288,FALSE,FALSE,FALSE,TRUE,FALSE,FALSE,FALSE,FALSE,FALSE,"green"
13117004103,13117,"41-3","たばたにしだいどおり2ごうこふん","田端西台通2号古墳","北区 田端三丁目","[古墳時代]","古墳","[古墳時代]周溝","",139.7557883,35.73759174,FALSE,FALSE,FALSE,TRUE,FALSE,FALSE,FALSE,FALSE,FALSE,"green"
13117004104,13117,"41-4","たばたにしだいどおり3ごうこふん","田端西台通3号古墳","北区 田端三丁目","[古墳時代]","古墳","[古墳時代]周溝","",139.7559428,35.73742453,FALSE,FALSE,FALSE,TRUE,FALSE,FALSE,FALSE,FALSE,FALSE,"green"
13117004105,13117,"41-5","たばたにしだいどおり4ごうこふん","田端西台通4号古墳","北区 田端三丁目","[古墳時代]","古墳","[古墳時代]周溝","",139.7560286,35.73722946,FALSE,FALSE,FALSE,TRUE,FALSE,FALSE,FALSE,FALSE,FALSE,"green"
13117004500,13117,"45","じゅうじょうだいこふんぐん","十条台古墳群","北区 中十条二丁目　 中十条三丁目","[古墳時代]","古墳群","円墳　[古墳時代]周溝","土師器　須恵器　円筒埴輪",139.725513,35.76342827,FALSE,FALSE,FALSE,TRUE,FALSE,FALSE,FALSE,FALSE,FALSE,"green"
13117004600,13117,"46","あすかやまこふんぐん","飛鳥山古墳群","北区 西ヶ原二丁目　 王子一丁目","[古墳時代]","古墳群","円墳　[古墳時代]主体部　周溝","縄文土器　弥生土器　土師器　須恵器",139.7391672,35.75018686,FALSE,FALSE,FALSE,TRUE,FALSE,FALSE,FALSE,FALSE,FALSE,"green"
13119000700,13119,"7","すがわらじんじゃだいちうえいせき","菅原神社台地上遺跡","板橋区 成増四丁目　 成増五丁目","[旧石器時代][縄文時代（前期）][弥生時代（後期）][古墳時代][平安時代][近世]","集落・古墳","[旧石器時代]ブロック　礫群　[縄文時代]住居　炉穴　焼土　土坑　墓壙　[弥生時代]住居　掘立柱建物　ピット　焼土　土坑　[古墳時代]円墳　方形周溝墓　[平安時代]住居　[近世]土坑　溝状遺構","ナイフ形石器　台形様石器　剥片　礫　縄文土器　磨斧　石鏃　石皿　台石　弥生土器　土師器　須恵器　土製玉類　ガラス小玉　けつ状耳飾　陶磁器　鉄製品　ガラス製品",139.6316049,35.78356942,TRUE,TRUE,TRUE,TRUE,FALSE,TRUE,FALSE,TRUE,FALSE,"green"
13119014100,13119,"141","","板橋区No.141遺跡","板橋区 赤塚八丁目","［古墳時代］","古墳","","",139.647578,35.78014711,FALSE,FALSE,FALSE,TRUE,FALSE,FALSE,FALSE,FALSE,FALSE,"green"
13119015100,13119,"151","","板橋区No.151遺跡","板橋区 中台三丁目","[古墳時代]","古墳","","円筒埴輪",139.6782541,35.77124659,FALSE,FALSE,FALSE,TRUE,FALSE,FALSE,FALSE,FALSE,FALSE,"green"
13119015800,13119,"158","おいせづかこふん","お伊勢塚古墳","板橋区 志村二丁目","[古墳時代]","古墳","","",139.6855427,35.77603154,FALSE,FALSE,FALSE,TRUE,FALSE,FALSE,FALSE,FALSE,FALSE,"green"
13121000400,13121,"4","いりやこふん","入谷古墳","足立区 入谷二丁目　 舎人六丁目","[古墳時代]","古墳","円墳","土師器　須恵器　土錘",139.7649973,35.81133801,FALSE,FALSE,FALSE,TRUE,FALSE,FALSE,FALSE,FALSE,FALSE,"green"
13121000500,13121,"5","ひじりづかこふん","聖塚古墳","足立区 東伊興一丁目","[古墳時代]","古墳","円墳","土師器　須恵器　土錘　石製模造品",139.7840174,35.80502144,FALSE,FALSE,FALSE,TRUE,FALSE,FALSE,FALSE,FALSE,FALSE,"green"
13121001001,13121,"10-1","しらはたづかこふんぐんしらはたづかこふん","白旗塚古墳群・白旗塚古墳","足立区 東伊興三丁目","[古墳時代]","古墳","※遺跡範囲のすべてが、東京都指定史跡白幡塚古墳となっています。","",139.7927035,35.80117889,FALSE,FALSE,FALSE,TRUE,FALSE,FALSE,FALSE,FALSE,FALSE,"green"
13121001002,13121,"10-2","しらはたづかこふんぐん・かぶとづかこふん","白旗塚古墳群・甲塚古墳","足立区 東伊興三丁目","[古墳時代]","古墳","円墳","",139.7918108,35.8014295,FALSE,FALSE,FALSE,TRUE,FALSE,FALSE,FALSE,FALSE,FALSE,"green"
13121001003,13121,"10-3","しらはたづかこふんぐん・すりばちづかこふん","白旗塚古墳群・摺鉢塚古墳","足立区 東伊興三丁目","[古墳時代]","古墳","円墳","円筒埴輪　形象埴輪（人物・馬）　鋸歯文鏡　直刀　銅釧",139.7927035,35.8017358,FALSE,FALSE,FALSE,TRUE,FALSE,FALSE,FALSE,FALSE,FALSE,"green"
13121001100,13121,"11","かねづかこふん","金塚古墳","足立区 東伊興二丁目","[古墳時代]","古墳","円墳?","",139.7884806,35.80524419,FALSE,FALSE,FALSE,TRUE,FALSE,FALSE,FALSE,FALSE,FALSE,"green"
13121001200,13121,"12","ふなやまづかこふん","船山塚古墳","足立区 東伊興二丁目","[古墳時代]","古墳","円墳","",139.785219,35.80571754,FALSE,FALSE,FALSE,TRUE,FALSE,FALSE,FALSE,FALSE,FALSE,"green"
13121002100,13121,"21","はくさんづかこふん","白山塚古墳","足立区 花畑五丁目","[古墳時代]","古墳","円墳","",139.8114489,35.80761089,FALSE,FALSE,FALSE,TRUE,FALSE,FALSE,FALSE,FALSE,FALSE,"green"
13121002200,13121,"22","いっぽんまつこふん","一本松古墳","足立区 花畑五丁目","[古墳時代]","古墳","円墳","土師器　円筒埴輪",139.8127535,35.80788932,FALSE,FALSE,FALSE,TRUE,FALSE,FALSE,FALSE,FALSE,FALSE,"green"
13121002400,13121,"24","おおやたこふん","大谷田古墳","足立区 大谷田一丁目","[古墳時代]","古墳","","",139.848298,35.77906669,FALSE,FALSE,FALSE,TRUE,FALSE,FALSE,FALSE,FALSE,FALSE,"green"
13122000600,13122,"6","しばまたはちまんじんじゃこふん","柴又八幡神社古墳","葛飾区 柴又三丁目","[古墳時代]","古墳","※遺跡範囲のすべてが、葛飾区指定史跡柴又八幡神社の古墳石槨となっています。　 円墳　[古墳時代]横穴式石室　周溝","土師器　須恵器　鉄鏃　刀子　円筒埴輪　直刀　馬具　朱塊　人骨",139.8751712,35.75831794,FALSE,FALSE,FALSE,TRUE,FALSE,FALSE,FALSE,FALSE,FALSE,"green"
13122001100,13122,"11","たていしさまいせき","立石様遺跡","葛飾区 立石八丁目","[古墳時代？]","古墳？","","",139.8567598,35.73976267,FALSE,FALSE,FALSE,TRUE,FALSE,FALSE,FALSE,FALSE,FALSE,"green"
13122001200,13122,"12","なんぞういんうらこふん","南蔵院裏古墳","葛飾区 立石八丁目","[古墳時代]","古墳","","土師器　須恵器　円筒埴輪　人物埴輪",139.8573262,35.7394004,FALSE,FALSE,FALSE,TRUE,FALSE,FALSE,FALSE,FALSE,FALSE,"green"
13122001300,13122,"13","くまのじんじゃこふん","熊野神社古墳","葛飾区 立石八丁目","[古墳時代]","古墳","円墳　[古墳時代]周溝","土師器　須恵器　陶器　鉄製品　鋤先",139.8576352,35.73979054,FALSE,FALSE,FALSE,TRUE,FALSE,FALSE,FALSE,FALSE,FALSE,"green"
13201002900,13201,"29","ととのいこふん","調井古墳","八王子市 川口町","[古墳時代][奈良時代]","古墳","","",139.2883443,35.68761891,FALSE,FALSE,FALSE,TRUE,TRUE,FALSE,FALSE,FALSE,FALSE,"green"
13201008900,13201,"89","ひよどりやまこふん","鵯山古墳","八王子市 暁町二丁目","[古墳時代]","古墳","[古墳時代]竪穴式石室","",139.3371218,35.67205704,FALSE,FALSE,FALSE,TRUE,FALSE,FALSE,FALSE,FALSE,FALSE,"green"
13201010400,13201,"104","きたおおやこふん","北大谷古墳","八王子市 大谷町","[古墳時代]","古墳","円墳　[古墳時代]横穴式石室","",139.3486231,35.67272641,FALSE,FALSE,FALSE,TRUE,FALSE,FALSE,FALSE,FALSE,FALSE,"green"
13201102500,13201,"1025","いっぽんまつこふん","一本松古墳","八王子市 楢原町","[古墳時代]","古墳","","",139.3073147,35.67917264,FALSE,FALSE,FALSE,TRUE,FALSE,FALSE,FALSE,FALSE,FALSE,"green"
13201102600,13201,"1026","かしまきたこふん","鹿島北古墳","八王子市 楢原町","[古墳時代]","古墳","","",139.3088542,35.6757689,FALSE,FALSE,FALSE,TRUE,FALSE,FALSE,FALSE,FALSE,FALSE,"green"
13202001200,13202,"12","","立川市No.12遺跡","立川市 柴崎町二丁目","[古墳時代]","古墳","","",139.4078046,35.69540865,FALSE,FALSE,FALSE,TRUE,FALSE,FALSE,FALSE,FALSE,FALSE,"green"
13202001300,13202,"13","","立川市No.13遺跡","立川市 柴崎町四丁目","[古墳時代]","古墳","","",139.4054696,35.68993898,FALSE,FALSE,FALSE,TRUE,FALSE,FALSE,FALSE,FALSE,FALSE,"green"
13202001600,13202,"16","","立川市No.16遺跡","立川市 柴崎町四丁目","[古墳時代]","古墳","","",139.404577,35.68968802,FALSE,FALSE,FALSE,TRUE,FALSE,FALSE,FALSE,FALSE,FALSE,"green"
13204001300,13204,"13","てんもんだいこうないこふん","天文台構内古墳","三鷹市 大沢二丁目","[古墳時代][奈良時代]","古墳","","",139.5389942,35.67418323,FALSE,FALSE,FALSE,TRUE,TRUE,FALSE,FALSE,FALSE,FALSE,"green"
13206000401,13206,"04-1","たかくらこふんぐん1ごうふん","高倉古墳群1号墳","府中市 分梅町一丁目","[古墳時代]","古墳","円墳　[古墳時代]周溝","",139.4664047,35.66767101,FALSE,FALSE,FALSE,TRUE,FALSE,FALSE,FALSE,FALSE,FALSE,"green"
13206000402,13206,"04-2","たかくらこふんぐん2ごうふん","高倉古墳群2号墳","府中市 美好町三丁目","[古墳時代]","古墳","円墳　[古墳時代]周溝","土師器",139.4674728,35.66994331,FALSE,FALSE,FALSE,TRUE,FALSE,FALSE,FALSE,FALSE,FALSE,"green"
13206000403,13206,"04-3","たかくらこふんぐん3ごうふん","高倉古墳群3号墳","府中市 美好町三丁目","[古墳時代]","古墳","円墳　[古墳時代]周溝","土師器　須恵器",139.4654823,35.66918099,FALSE,FALSE,FALSE,TRUE,FALSE,FALSE,FALSE,FALSE,FALSE,"green"
13206000404,13206,"04-4","たかくらこふんぐん4ごうふん","高倉古墳群4号墳","府中市 美好町三丁目","[古墳時代]","古墳","円墳　[古墳時代]周溝","",139.4670391,35.66970076,FALSE,FALSE,FALSE,TRUE,FALSE,FALSE,FALSE,FALSE,FALSE,"green"
13206000405,13206,"04-5","たかくらこふんぐん5ごうふん","高倉古墳群5号墳","府中市 片町二丁目","[古墳時代]","古墳","円墳　[古墳時代]周溝","土師器　土器",139.4689057,35.67005159,FALSE,FALSE,FALSE,TRUE,FALSE,FALSE,FALSE,FALSE,FALSE,"green"
13206000406,13206,"04-6","たかくらこふんぐん6ごうふん","高倉古墳群6号墳","府中市 分梅町一丁目","[古墳時代]","古墳","円墳　[古墳時代]周溝　石室","鉄鏃　砥石　臼玉　直刀　短刀　耳環　刀子",139.4669734,35.66843915,FALSE,FALSE,FALSE,TRUE,FALSE,FALSE,FALSE,FALSE,FALSE,"green"
13206000407,13206,"04-7","たかくらこふんぐん7ごうふん","高倉古墳群7号墳","府中市 分梅町一丁目","[古墳時代]","古墳","円墳　[古墳時代]周溝　石室","鉄鏃　刀子",139.4671582,35.66868743,FALSE,FALSE,FALSE,TRUE,FALSE,FALSE,FALSE,FALSE,FALSE,"green"
13206000408,13206,"04-8","たかくらこふんぐん8ごうふん","高倉古墳群8号墳","府中市 分梅町一丁目","[古墳時代]","古墳","円墳　[古墳時代]周溝","",139.4667246,35.6685431,FALSE,FALSE,FALSE,TRUE,FALSE,FALSE,FALSE,FALSE,FALSE,"green"
13206000409,13206,"04-9","たかくらこふんぐん9ごうふん","高倉古墳群9号墳","府中市 分梅町一丁目","[古墳時代]","古墳","円墳　[古墳時代]周溝　石室","鉄鏃　銅製品　小玉　はばき　耳環",139.4667531,35.66836457,FALSE,FALSE,FALSE,TRUE,FALSE,FALSE,FALSE,FALSE,FALSE,"green"
13206000410,13206,"04-10","たかくらこふんぐん10ごうふん","高倉古墳群10号墳","府中市 分梅町一丁目","[古墳時代]","古墳","円墳　[古墳時代]周溝　石室","刀子　丸玉　切子玉　算盤玉　直刀　短刀　耳環",139.4664688,35.66853202,FALSE,FALSE,FALSE,TRUE,FALSE,FALSE,FALSE,FALSE,FALSE,"green"
13206000411,13206,"04-11","たかくらこふんぐん11ごうふん","高倉古墳群11号墳","府中市 分梅町一丁目","[古墳時代]","古墳","円墳　[古墳時代]周溝","土師器",139.4665398,35.66836457,FALSE,FALSE,FALSE,TRUE,FALSE,FALSE,FALSE,FALSE,FALSE,"green"
13206000412,13206,"04-12","たかくらこふんぐん12ごうふん","高倉古墳群12号墳","府中市 分梅町一丁目","[古墳時代]","古墳","円墳　[古墳時代]周溝","",139.4663764,35.66870528,FALSE,FALSE,FALSE,TRUE,FALSE,FALSE,FALSE,FALSE,FALSE,"green"
13206000413,13206,"04-13","たかくらこふんぐん13ごうふん","高倉古墳群13号墳","府中市 分梅町一丁目","[古墳時代]","古墳","円墳　[古墳時代]周溝　石室","",139.4663479,35.66828946,FALSE,FALSE,FALSE,TRUE,FALSE,FALSE,FALSE,FALSE,FALSE,"green"
13206000414,13206,"04-14","たかくらこふんぐん14ごうふん","高倉古墳群14号墳","府中市 分梅町一丁目","[古墳時代]","古墳","円墳　[古墳時代]周溝","",139.4661489,35.66828374,FALSE,FALSE,FALSE,TRUE,FALSE,FALSE,FALSE,FALSE,FALSE,"green"
13206000415,13206,"04-15","たかくらこふんぐん15ごうふん","高倉古墳群15号墳","府中市 分梅町一丁目","[古墳時代]","古墳","円墳　[古墳時代]周溝","",139.4667744,35.66785631,FALSE,FALSE,FALSE,TRUE,FALSE,FALSE,FALSE,FALSE,FALSE,"green"
13206000416,13206,"04-16","たかくらこふんぐん16ごうふん","高倉古墳群16号墳","府中市 分梅町一丁目","[古墳時代]","古墳","円墳　[古墳時代]周溝","",139.4668029,35.66801805,FALSE,FALSE,FALSE,TRUE,FALSE,FALSE,FALSE,FALSE,FALSE,"green"
13206000417,13206,"04-17","たかくらこふんぐん17ごうふん","高倉古墳群17号墳","府中市 分梅町一丁目","[古墳時代]","古墳","円墳　[古墳時代]周溝","土師器",139.4664545,35.66794294,FALSE,FALSE,FALSE,TRUE,FALSE,FALSE,FALSE,FALSE,FALSE,"green"
13206000419,13206,"04-19","たかくらこふんぐん19ごうふん","高倉古墳群19号墳","府中市 美好町三丁目","[古墳時代]","古墳","円墳　[古墳時代]周溝","",139.4655321,35.66955635,FALSE,FALSE,FALSE,TRUE,FALSE,FALSE,FALSE,FALSE,FALSE,"green"
13206000420,13206,"04-20","たかくらこふんぐん20ごうふん","高倉古墳群20号墳","府中市 美好町三丁目","[古墳時代]","古墳","円墳　[古墳時代]周溝","土師器",139.4636625,35.67035912,FALSE,FALSE,FALSE,TRUE,FALSE,FALSE,FALSE,FALSE,FALSE,"green"
13206000422,13206,"04-22","たかくらこふんぐん22ごうふん","高倉古墳群22号墳","府中市片町二丁目","[古墳時代]","古墳","円墳","",139.4695013,35.669296,FALSE,FALSE,FALSE,TRUE,FALSE,FALSE,FALSE,FALSE,FALSE,"green"
13206000423,13206,"04-23","たかくらこふんぐん23ごうふん","高倉古墳群23号墳","府中市片町二丁目","[古墳時代]","古墳","円墳","",139.4695854,35.66959118,FALSE,FALSE,FALSE,TRUE,FALSE,FALSE,FALSE,FALSE,FALSE,"green"
13206000424,13206,"04-24","たかくらこふんぐん24ごうふん","高倉古墳群24号墳","府中市分梅町一丁目","[古墳時代]","古墳","円墳","",139.4652734,35.66843735,FALSE,FALSE,FALSE,TRUE,FALSE,FALSE,FALSE,FALSE,FALSE,"green"
13206000425,13206,"04-25","たかくらこふんぐん25ごうふん","高倉古墳群25号墳","府中市 美好町三丁目","[古墳時代]","古墳","円墳","",139.4681483,35.66905561,FALSE,FALSE,FALSE,TRUE,FALSE,FALSE,FALSE,FALSE,FALSE,"green"
13206000426,13206,"04-26","たかくらこふんぐん26ごうふん","高倉古墳群26号墳","府中市分梅町一丁目","[古墳時代]","古墳","円墳 竪穴建物跡　土坑　その他遺構","須恵器",139.4658296,35.66739574,FALSE,FALSE,FALSE,TRUE,FALSE,FALSE,FALSE,FALSE,FALSE,"green"
13206000427,13206,"04-27","たかくらこふんぐん27ごうふん","高倉古墳群27号墳","府中市 美好町三丁目","[古墳時代]","古墳","円墳　[古墳時代]木棺","銅製品",139.4663231,35.66988855,FALSE,FALSE,FALSE,TRUE,FALSE,FALSE,FALSE,FALSE,FALSE,"green"
13206000428,13206,"04-28","たかくらこふんぐん28ごうふん","高倉古墳群28号墳","府中市 美好町三丁目","[古墳時代]","古墳","円墳","",139.4629757,35.66750033,FALSE,FALSE,FALSE,TRUE,FALSE,FALSE,FALSE,FALSE,FALSE,"green"
13206000429,13206,"04-29","たかくらこふんぐん29ごうふん","高倉古墳群29号墳","府中市分梅町一丁目","[古墳時代]","古墳","円墳","",139.4643704,35.66831965,FALSE,FALSE,FALSE,TRUE,FALSE,FALSE,FALSE,FALSE,FALSE,"green"
13206000461,13206,"04-A","","府中市No.4-A遺跡","府中市分梅町一丁目","[古墳時代]","古墳","円墳　[古墳時代]石室?","",139.4673745,35.66831965,FALSE,FALSE,FALSE,TRUE,FALSE,FALSE,FALSE,FALSE,FALSE,"green"
13206000462,13206,"04-G","","府中市No.4-G遺跡","府中市 美好町三丁目","[古墳時代?]","古墳?","[古墳時代]石室?","",139.4680397,35.66901695,FALSE,FALSE,FALSE,TRUE,FALSE,FALSE,FALSE,FALSE,FALSE,"green"
13206000463,13206,"04-H","","府中市No.4-H遺跡","府中市 美好町三丁目","[古墳時代?]","古墳?","円墳?","",139.4648211,35.66950505,FALSE,FALSE,FALSE,TRUE,FALSE,FALSE,FALSE,FALSE,FALSE,"green"
13206000464,13206,"04-I","みみづか","耳塚","府中市 美好町三丁目","[古墳時代?]","古墳?","円墳?　2基","",139.4636783,35.66985156,FALSE,FALSE,FALSE,TRUE,FALSE,FALSE,FALSE,FALSE,FALSE,"green"
13206000465,13206,"04-K","おおつか","大塚","府中市 美好町三丁目","[古墳時代?]","古墳?","円墳","",139.4633501,35.66907244,FALSE,FALSE,FALSE,TRUE,FALSE,FALSE,FALSE,FALSE,FALSE,"green"
13206000421,13206,"04-21","たかくらこふんぐん21ごうふん","高倉古墳群21号墳","府中市 美好町三丁目","[古墳時代]","古墳","円墳　[古墳時代]周溝","",139.4634424,35.66980022,FALSE,FALSE,FALSE,TRUE,FALSE,FALSE,FALSE,FALSE,FALSE,"green"
13206002300,13206,"23","しらいとだいこふんぐん","白糸台古墳群","府中市 白糸台四丁目 白糸台五丁目","[古墳時代]","古墳","1号墳：所在地-五丁目20 検出遺構-周溝 出土遺物-土師器・鉄鏃 2号墳：所在地-五丁目16 検出遺構-周溝 出土遺物-土師器 3号墳：所在地-五丁目21 検出遺構-周溝 4号墳：所在地-五丁目19 検出遺構-横穴式石室 5号墳：所在地-五丁目19 検出遺構-横穴式石室 6号墳（瘧塚）：所在地-六丁目40 検出遺構-周溝","土師器 鉄鏃",139.5124749,35.66363144,FALSE,FALSE,FALSE,TRUE,FALSE,FALSE,FALSE,FALSE,FALSE,"green"
13206002400,13206,"24","","府中市No.24古墳","府中市","[古墳時代]","古墳","3基","",139.5045166,35.66421917,FALSE,FALSE,FALSE,TRUE,FALSE,FALSE,FALSE,FALSE,FALSE,"green"
13206003600,13206,"36","むさしふちゅうくまのじんじゃこふん","武蔵府中熊野神社古墳","府中市 西府町二丁目","[古墳時代]","古墳","上円下方墳 ※遺跡範囲のすべてが国指定史跡武蔵府中熊野神社古墳となっています。","鞘尻金具 刀子 鉄釘 玉類 土師器 須恵器 陶磁器",139.4569602,35.67534549,FALSE,FALSE,FALSE,TRUE,FALSE,FALSE,FALSE,FALSE,FALSE,"green"
13206003701,13206,"37-1","みたけづかこぐふんぐん１ごうふん","御嶽塚古墳群１号墳","府中市 本宿町一丁目","[古墳時代]","古墳","円墳 周溝","石製紡錘車",139.4590545,35.66870756,FALSE,FALSE,FALSE,TRUE,FALSE,FALSE,FALSE,FALSE,FALSE,"green"
13207002100,13207,"21","","昭島市No.21遺跡","昭島市 福島町二丁目","[古墳時代]","古墳","[古墳時代]横穴式石室","土師器 鉄刀",139.3789227,35.6988614,FALSE,FALSE,FALSE,TRUE,FALSE,FALSE,FALSE,FALSE,FALSE,"green"
13207004300,13207,"43","じょうどこふんぐんいせき","浄土古墳群","昭島市 田中町二丁目","[古墳時代]","古墳","※遺跡範囲のすべてが昭島市指定史跡浄土古墳となっています。","縄文土器 打斧 耳環 素焼土器",139.3558592,35.69961695,FALSE,FALSE,FALSE,TRUE,FALSE,FALSE,FALSE,FALSE,FALSE,"green"
13207004400,13207,"44","","昭島市No.44遺跡","昭島市 大神町三丁目","[古墳時代][奈良時代]","古墳","[古墳時代]横穴式石室","直刀",139.3627552,35.69930957,FALSE,FALSE,FALSE,TRUE,TRUE,FALSE,FALSE,FALSE,FALSE,"green"
13207004600,13207,"46","きょうづかしたこふん","経塚下古墳","昭島市 宮沢町","[古墳時代][奈良時代]","古墳","[古墳時代]竪穴式石室","鉄鏃 刀子",139.3650898,35.70053632,FALSE,FALSE,FALSE,TRUE,TRUE,FALSE,FALSE,FALSE,FALSE,"green"
13208004600,13208,"46","しもふだいせき","下布田遺跡","調布市 布田三丁目 布田六丁目","[縄文時代（早期〜晩期）][古墳時代][奈良時代][平安時代][近世]","包蔵地・集落・古墳","[縄文時代]陥し穴 甕棺墓 土壙墓 埋甕 配石 [平安時代]住居 掘立柱建物 土坑 [奈良時代][平安時代][中世]土坑 土壙墓","縄文土器 石器 耳飾 石剣 石刀 石冠 土偶 土版 土師器 須恵器 墨書土器 石製品 鉄製品 紡錘車 陶磁器 板碑 五輪塔 鉄滓 獣骨",139.5495276,35.64537974,FALSE,TRUE,FALSE,TRUE,TRUE,TRUE,FALSE,TRUE,FALSE,"green"
13208005101,13208,"51-1","とびたきゅう1ごうふん","飛田給1号墳","調布市 飛田給二丁目","[古墳時代]","古墳","[古墳時代]周溝","土師器",139.5199084,35.65960051,FALSE,FALSE,FALSE,TRUE,FALSE,FALSE,FALSE,FALSE,FALSE,"green"
13208005102,13208,"51-2","とびたきゅう2ごうふん","飛田給2号墳","調布市 飛田給二丁目","[古墳時代]","古墳","[古墳時代]周溝","土師器",139.5197901,35.65949224,FALSE,FALSE,FALSE,TRUE,FALSE,FALSE,FALSE,FALSE,FALSE,"green"
13208005103,13208,"51-3","とびたきゅう3ごうふん","飛田給3号墳","調布市 飛田給二丁目","[古墳時代]","古墳","[古墳時代]周溝","土師器",139.5193283,35.65962784,FALSE,FALSE,FALSE,TRUE,FALSE,FALSE,FALSE,FALSE,FALSE,"green"
13208005104,13208,"51-4","とびたきゅう4ごうふん","飛田給4号墳","調布市 飛田給二丁目","[古墳時代]","古墳","[古墳時代]周溝","土師器　青銅製品",139.5191167,35.65957043,FALSE,FALSE,FALSE,TRUE,FALSE,FALSE,FALSE,FALSE,FALSE,"green"
13208005105,13208,"51-5","とびたきゅう5ごうふん","飛田給5号墳","調布市 飛田給二丁目","[古墳時代]","古墳","[古墳時代]周溝","",139.5202279,35.65927492,FALSE,FALSE,FALSE,TRUE,FALSE,FALSE,FALSE,FALSE,FALSE,"green"
13208005106,13208,"51-6","さくらづか1ごうこふん","桜塚1号古墳","調布市 飛田給二丁目","[古墳時代]","古墳","","",139.5199443,35.65879903,FALSE,FALSE,FALSE,TRUE,FALSE,FALSE,FALSE,FALSE,FALSE,"green"
13208005107,13208,"51-7","さくらづか2ごうこふん","桜塚2号古墳","調布市 飛田給二丁目","[古墳時代]","古墳","[古墳時代]横穴式石室","鉄鏃　刀子　玉類　金環　銀環　陶磁器",139.5219643,35.65781005,FALSE,FALSE,FALSE,TRUE,FALSE,FALSE,FALSE,FALSE,FALSE,"green"
13208005108,13208,"51-8","さくらづか3ごうこふん","桜塚3号古墳","調布市 飛田給二丁目","[古墳時代]","古墳","[古墳時代]横穴式石室","刀子　棗玉　鍔　人骨",139.5224726,35.65715878,FALSE,FALSE,FALSE,TRUE,FALSE,FALSE,FALSE,FALSE,FALSE,"green"
13208005109,13208,"51-9","さくらづか4ごうこふん","桜塚4号古墳","調布市 飛田給二丁目","[古墳時代]","古墳","","",139.520949,35.65888988,FALSE,FALSE,FALSE,TRUE,FALSE,FALSE,FALSE,FALSE,FALSE,"green"
13208005100,13208,"51-0","さくらづか5ごうこふん","桜塚5号古墳","調布市 飛田給二丁目","[古墳時代]","古墳","[古墳時代]横穴式石室","須恵器",139.5223719,35.65734574,FALSE,FALSE,FALSE,TRUE,FALSE,FALSE,FALSE,FALSE,FALSE,"green"
13208005111,13208,"51-1","さくらづか6ごうこふん","桜塚6号古墳","調布市 飛田給二丁目","[古墳時代]","古墳","[古墳時代]横穴式石室","鉄鏃",139.52045,35.65863669,FALSE,FALSE,FALSE,TRUE,FALSE,FALSE,FALSE,FALSE,FALSE,"green"
13208005112,13208,"51-2","さくらづか7ごうこふん","桜塚7号古墳","調布市 飛田給二丁目","[古墳時代]","古墳","","",139.5213167,35.65864062,FALSE,FALSE,FALSE,TRUE,FALSE,FALSE,FALSE,FALSE,FALSE,"green"
13208005113,13208,"51-3","さくらづか8ごうこふん","桜塚8号古墳","調布市 飛田給二丁目","[古墳時代]","古墳","","",139.5228838,35.65724595,FALSE,FALSE,FALSE,TRUE,FALSE,FALSE,FALSE,FALSE,FALSE,"green"
13208005114,13208,"51-4","さくらづか9ごうこふん","桜塚9号古墳","調布市 飛田給二丁目","[古墳時代]","古墳","","",139.5234387,35.65688523,FALSE,FALSE,FALSE,TRUE,FALSE,FALSE,FALSE,FALSE,FALSE,"green"
13208005201,13208,"52-1","しもいしはら1ごうこふん","下石原1号古墳","調布市 下石原三丁目","[古墳時代]","古墳","[古墳時代]横穴式石室","",139.5346863,35.64775163,FALSE,FALSE,FALSE,TRUE,FALSE,FALSE,FALSE,FALSE,FALSE,"green"
13208005202,13208,"52-2","しもいしはら2ごうこふん","下石原2号古墳","調布市 下石原三丁目","[古墳時代]","古墳","[古墳時代]横穴式石室","",139.5345456,35.64756532,FALSE,FALSE,FALSE,TRUE,FALSE,FALSE,FALSE,FALSE,FALSE,"green"
13208005301,13208,"53-1","かみふだ1ごうふん","上布田古墳1号墳","調布市 布田六丁目","[古墳時代]","古墳","[古墳時代]周溝　横穴式石室","ガラス玉",139.546303,35.64532781,FALSE,FALSE,FALSE,TRUE,FALSE,FALSE,FALSE,FALSE,FALSE,"green"
13208005302,13208,"53-2","かみふだ2ごうふん","上布田古墳2号墳","調布市 布田六丁目","[古墳時代]","古墳","[古墳時代]横穴式石室","",139.5459479,35.64522562,FALSE,FALSE,FALSE,TRUE,FALSE,FALSE,FALSE,FALSE,FALSE,"green"
13208005303,13208,"53-3","ふるてんじん1ごうふん","古天神1号墳","調布市 布田五丁目","[古墳時代]","古墳","円墳　[古墳時代]周溝　ブリッジ","土師器",139.543817,35.64474461,FALSE,FALSE,FALSE,TRUE,FALSE,FALSE,FALSE,FALSE,FALSE,"green"
13208005304,13208,"53-4","ふるてんじん2ごうふん","古天神2号墳","調布市 布田五丁目","[古墳時代]","古墳","円墳 [古墳時代]周溝","",139.5435215,35.64480752,FALSE,FALSE,FALSE,TRUE,FALSE,FALSE,FALSE,FALSE,FALSE,"green"
13208005305,13208,"53-5","かみふだこふん3ごうふん（いいもりづか）","上布田古墳3号墳（飯盛塚）","調布市 布田五丁目","[古墳時代]","古墳","","",139.5427661,35.64565846,FALSE,FALSE,FALSE,TRUE,FALSE,FALSE,FALSE,FALSE,FALSE,"green"
13208005306,13208,"53-6","かみふだこふん4ごうふん（こうづか）","上布田古墳4号墳(庚塚)","調布市 布田五丁目","[古墳時代]","古墳","","",139.5437789,35.64775091,FALSE,FALSE,FALSE,TRUE,FALSE,FALSE,FALSE,FALSE,FALSE,"green"
13208005401,13208,"54-1","しもふだ1ごうこふん","下布田1号古墳","調布市 布田六丁目","[古墳時代]","古墳","","",139.5498043,35.64398446,FALSE,FALSE,FALSE,TRUE,FALSE,FALSE,FALSE,FALSE,FALSE,"green"
13208005402,13208,"54-2","しもふだ2ごうふん","下布田2号墳","調布市 布田六丁目","[古墳時代]","古墳","円墳 [古墳時代]周溝 礫槨","土師器 紡錘車",139.5493579,35.64392866,FALSE,FALSE,FALSE,TRUE,FALSE,FALSE,FALSE,FALSE,FALSE,"green"
13208005403,13208,"54-3","しもふだ3ごうふん","下布田3号古墳","調布市 布田六丁目","[古墳時代]","古墳","円墳 [古墳時代]周溝","土師器 円筒埴輪",139.5495639,35.64447272,FALSE,FALSE,FALSE,TRUE,FALSE,FALSE,FALSE,FALSE,FALSE,"green"
13208005404,13208,"54-4","しもふだ4ごうこふん","下布田4号古墳","調布市 布田六丁目","[古墳時代]","古墳","円墳 [古墳時代]周溝 土坑","土師器",139.5494438,35.64482147,FALSE,FALSE,FALSE,TRUE,FALSE,FALSE,FALSE,FALSE,FALSE,"green"
13208005405,13208,"54-5","しもふだ5ごうこふん","下布田5号古墳","調布市 布田六丁目","[古墳時代]","古墳","円墳 [古墳時代]周溝","土師器",139.5484825,35.64583981,FALSE,FALSE,FALSE,TRUE,FALSE,FALSE,FALSE,FALSE,FALSE,"green"
13208005406,13208,"54-6","しもふだ6ごうふんきつねづかこふん","下布田6号墳狐塚古墳","調布市 布田六丁目","[古墳時代]","古墳","円墳 [古墳時代]横穴式石室","土師器",139.548019,35.64543526,FALSE,FALSE,FALSE,TRUE,FALSE,FALSE,FALSE,FALSE,FALSE,"green"
13208005407,13208,"54-7","しもふだ7ごうふん","下布田7号墳","調布市 布田六丁目","[古墳時代]","古墳","","",139.5487915,35.64498887,FALSE,FALSE,FALSE,TRUE,FALSE,FALSE,FALSE,FALSE,FALSE,"green"
13208005408,13208,"54-8","しもふだ8ごうふん","下布田8号墳","調布市 布田六丁目","[古墳時代]","古墳","","",139.548946,35.64459827,FALSE,FALSE,FALSE,TRUE,FALSE,FALSE,FALSE,FALSE,FALSE,"green"
13208005409,13208,"54-9","しもふだ9ごうふん","下布田9号墳","調布市 布田六丁目","[古墳時代]","古墳","","",139.5491005,35.64515627,FALSE,FALSE,FALSE,TRUE,FALSE,FALSE,FALSE,FALSE,FALSE,"green"
13208005500,13208,"55","こくりょうみなみ1ごうふん","国領南1号墳","調布市 国領町六丁目","[古墳時代]","古墳","円墳　[古墳時代]周溝","土師器",139.5554693,35.64436755,FALSE,FALSE,FALSE,TRUE,FALSE,FALSE,FALSE,FALSE,FALSE,"green"
13208005600,13208,"56","かすみねじんじゃこふん","糟嶺神社古墳","調布市 入間町二丁目","[古墳時代]","古墳","","",139.5828963,35.64979448,FALSE,FALSE,FALSE,TRUE,FALSE,FALSE,FALSE,FALSE,FALSE,"green"
13209021400,13209,"214","まがけこふん","馬駈古墳","町田市 図師町","[古墳時代]","古墳","","",139.4148229,35.58110064,FALSE,FALSE,FALSE,TRUE,FALSE,FALSE,FALSE,FALSE,FALSE,"green"
13209025900,13209,"259","","町田市No.259遺跡","町田市 小野路町","[縄文時代（早期〜中期）][古墳時代]","包蔵地･古墳?","","縄文土器　土師器",139.441767,35.60018434,FALSE,TRUE,FALSE,TRUE,FALSE,FALSE,FALSE,FALSE,FALSE,"green"
13209044700,13209,"447","","町田市No.447遺跡","町田市 三輪緑山三丁目","[古墳時代]","古墳","","",139.4847515,35.57454159,FALSE,FALSE,FALSE,TRUE,FALSE,FALSE,FALSE,FALSE,FALSE,"green"
13209069000,13209,"690","","町田市No.690遺跡","町田市 つくし野四丁目","[古墳時代]","古墳","","直刀",139.4862015,35.52618565,FALSE,FALSE,FALSE,TRUE,FALSE,FALSE,FALSE,FALSE,FALSE,"green"
13209069100,13209,"691","","町田市No.691遺跡","町田市 つくし野四丁目","[古墳時代]","古墳","","",139.4869224,35.52509593,FALSE,FALSE,FALSE,TRUE,FALSE,FALSE,FALSE,FALSE,FALSE,"green"
13209092900,13209,"929","のうがやかごやまこふんぐん","能ヶ谷香山古墳群","町田市 能ヶ谷二丁目","[縄文時代（早期〜中期）][弥生時代][古墳時代][奈良時代][中世]","古墳・横穴墓・包蔵地","円墳2基　横穴墓20基　[縄文時代？]床状硬化面　焼土　竪穴状プラン　[古墳時代]円墳","縄文土器　土師器　須恵器　耳環　勾玉　玉類　直刀　鉄製品　灰釉陶器　板碑　古銭",139.4825824,35.58564458,FALSE,TRUE,TRUE,TRUE,TRUE,FALSE,TRUE,FALSE,FALSE,"green"
13212000200,13212,"2","ななつづかこふんぐん","七ツ塚古墳群","日野市 新町五丁目","[古墳時代]［奈良時代］","古墳","市指定史跡 指定名称：七ツ塚古墳群 指定年月日：昭和36年10月1日 所有者：日野市教育委員会他 円墳[古墳時代]横穴式石室","鉄鏃 刀子 埴輪 管玉 勾玉 直刀",139.3779072,35.68152369,FALSE,FALSE,FALSE,TRUE,TRUE,FALSE,FALSE,FALSE,FALSE,"green"
13212000900,13212,"9","","日野市No.9遺跡","日野市 神明一丁目","[古墳時代]","古墳","[古墳時代]横穴式石室","",139.3981051,35.66889005,FALSE,FALSE,FALSE,TRUE,FALSE,FALSE,FALSE,FALSE,FALSE,"green"
13212001900,13212,"19","","日野市No.19遺跡","日野市 東豊田二丁目","[古墳時代]","古墳","円墳 [古墳時代]周溝","土師器",139.38618,35.66165521,FALSE,FALSE,FALSE,TRUE,FALSE,FALSE,FALSE,FALSE,FALSE,"green"
13212002200,13212,"22","ひらやまいせき","平山遺跡","日野市 東平山二丁目 西平山 豊田","[旧石器時代][縄文時代（早期・中期）][弥生時代（後期）][古墳時代][奈良時代][平安時代][中世]","集落・古墳・墳墓","[旧石器時代]ユニット、[縄文時代]竪穴建物跡、集石、土坑、炉穴、[弥生時代]竪穴建物跡、方形周溝墓、[古墳時代]竪穴建物跡、古墳、[奈良〜平安時代]掘立柱建物跡、柵列（ピット）、[中世]地下式土坑","[旧石器]石器、[縄文]土器、石器、[弥生]土器、[古墳]土師器、須恵器、鉄製刀子、人骨、[平安]土師器、[中世]銭貨、鉄製品",139.3756535,35.65123057,TRUE,TRUE,TRUE,TRUE,TRUE,TRUE,TRUE,FALSE,FALSE,"green"
13212002300,13212,"23","ひらやまこふんぐん","平山古墳群","日野市 東平山一丁目","[古墳時代]","古墳","円墳 [古墳時代]横穴式石室 周溝","土師器 須恵器 鉄鏃 刀子 直刀 耳環",139.3800383,35.65091527,FALSE,FALSE,FALSE,TRUE,FALSE,FALSE,FALSE,FALSE,FALSE,"green"
13212004300,13212,"43","まんぞういんだいこふんぐん","万蔵院台古墳群","日野市 百草","[古墳時代]","古墳","[古墳時代]横穴式石室","土師器 須恵器 鉄鏃 刀子 直刀 金環 人骨 朱",139.4295171,35.64607333,FALSE,FALSE,FALSE,TRUE,FALSE,FALSE,FALSE,FALSE,FALSE,"green"
13212004500,13212,"45","","日野市No.45遺跡","日野市 東平山一丁目","[古墳時代]［奈良時代］","古墳","[古墳時代]横穴式石室","鉄鏃 刀子 勾玉 直刀 馬具",139.377944,35.65060839,FALSE,FALSE,FALSE,TRUE,TRUE,FALSE,FALSE,FALSE,FALSE,"green"
13212004800,13212,"48","にしひらやまこふんぐん","西平山古墳群","日野市 西平山三丁目","[古墳時代]","古墳","[古墳時代]周溝 石組","須恵器",139.368125,35.64826493,FALSE,FALSE,FALSE,TRUE,FALSE,FALSE,FALSE,FALSE,FALSE,"green"
13215001000,13215,"10","あおやぎこふんぐん","青柳古墳群","国立市 谷保 青柳","[古墳時代]","古墳","","",139.4237767,35.68191135,FALSE,FALSE,FALSE,TRUE,FALSE,FALSE,FALSE,FALSE,FALSE,"green"
13215001001,13215,"10-1","あおやぎこふんぐん","青柳古墳","国立市 青柳","[古墳時代][近世]","古墳・その他の墓","[古墳時代]周溝 横穴式石室? [近世]墓壙","土師器 円筒埴輪 人物埴輪 刀 金環 轡 陶磁器 煙管 銭貨 人骨",139.4238271,35.68127692,FALSE,FALSE,FALSE,TRUE,FALSE,FALSE,FALSE,TRUE,FALSE,"green"
13215001002,13215,"10-2","あおやぎ2ごうふん","青柳2号墳","国立市 青柳","[古墳時代]","古墳","","円筒埴輪",139.4249376,35.68107473,FALSE,FALSE,FALSE,TRUE,FALSE,FALSE,FALSE,FALSE,FALSE,"green"
13215001003,13215,"10-3","しけんざけ1ごうふん","四軒在家1号墳","国立市 矢川三丁目","[古墳時代]","古墳","[古墳時代]横穴式石室 周溝","須恵器（長頸瓶） 刀装具（鐔・懸通孔金具等） 刀子 鉄鏃 装飾品（金環）",139.4261274,35.68151396,FALSE,FALSE,FALSE,TRUE,FALSE,FALSE,FALSE,FALSE,FALSE,"green"
13215001004,13215,"10-4","しけんざけ2ごうふん","四軒在家2号墳","国立市 矢川三丁目","[古墳時代]","古墳","[古墳時代]横穴式石室 周溝","須恵器（フラスコ形瓶） 甕 装飾品（丸玉・小玉・臼玉）",139.4264654,35.68153487,FALSE,FALSE,FALSE,TRUE,FALSE,FALSE,FALSE,FALSE,FALSE,"green"
13215001005,13215,"10-5","しけんざけ3ごうふん","四軒在家3号墳","国立市 矢川三丁目","[古墳時代]","古墳","[古墳時代]横穴式石室 周溝","須恵器（甕） 直刀 刀装具（鐔・責金・目釘） 刀子 鉄鏃 釘 装飾品（金環・丸玉・臼玉）",139.4262733,35.68127692,FALSE,FALSE,FALSE,TRUE,FALSE,FALSE,FALSE,FALSE,FALSE,"green"
13215001006,13215,"10-6","しけんざけ4ごうふん","四軒在家4号墳","国立市 矢川三丁目","[古墳時代]","古墳","[古墳時代]横穴式石室 周溝","須恵器（フラスコ形瓶・甕） 土師器（坏） 刀装具（鐔・鞘口金具・責金） 鉄鏃 装飾品（金環・切子玉・管玉・丸玉・小玉・臼玉）",139.4259332,35.68114445,FALSE,FALSE,FALSE,TRUE,FALSE,FALSE,FALSE,FALSE,FALSE,"green"
13215001007,13215,"10-7","しけんざけ5ごうふん","四軒在家5号墳","国立市 矢川三丁目","[古墳時代]","古墳","[古墳時代]横穴式石室 周溝","",139.4263592,35.68101199,FALSE,FALSE,FALSE,TRUE,FALSE,FALSE,FALSE,FALSE,FALSE,"green"
13215001008,13215,"10-8","しけんざけ6ごうふん","四軒在家6号墳","国立市 矢川三丁目","[古墳時代]","古墳","[古墳時代]横穴式石室 周溝","須恵器（フラスコ形瓶） 土師器（坏・甕） 直刀 刀装具（把頭・鐔・鞘口金具・責金） 鉄鏃 釘 装飾品（金環）",139.4266027,35.68106079,FALSE,FALSE,FALSE,TRUE,FALSE,FALSE,FALSE,FALSE,FALSE,"green"
13215001009,13215,"10-9","しけんざけ7ごうふん","四軒在家7号墳","国立市 矢川三丁目","[古墳時代]","古墳","[古墳時代]横穴式石室 周溝","主な出土品",139.4268055,35.68131875,FALSE,FALSE,FALSE,TRUE,FALSE,FALSE,FALSE,FALSE,FALSE,"green"
13215001010,13215,"10-0","しけんざけ8ごうふん","四軒在家8号墳","国立市 矢川三丁目","[古墳時代]","古墳","[古墳時代]横穴式石室 周溝","須恵器（長頸瓶・フラスコ形瓶） 土師器（坏） 刀装具（把頭・鐔・鞘口金具・目釘） 刀子 鉄鏃 両頭金具 装飾品（金環・勾玉・丸玉）",139.4268055,35.68090741,FALSE,FALSE,FALSE,TRUE,FALSE,FALSE,FALSE,FALSE,FALSE,"green"
13215001011,13215,"10-1","しけんざけ9ごうふん","四軒在家9号墳","国立市 矢川三丁目","[古墳時代]","古墳","[古墳時代]横穴式石室 周溝","須恵器（甕） 土師器（坏） 直刀 鉄鏃 装飾品（金環） 毛抜き",139.4260759,35.68096318,FALSE,FALSE,FALSE,TRUE,FALSE,FALSE,FALSE,FALSE,FALSE,"green"
13215001012,13215,"10-2","しけんざけ10ごうふん","四軒在家10号墳","国立市 矢川三丁目","[古墳時代]","古墳","[古墳時代]横穴式石室 周溝","釘",139.4260502,35.68075403,FALSE,FALSE,FALSE,TRUE,FALSE,FALSE,FALSE,FALSE,FALSE,"green"
13215001013,13215,"10-3","しけんざけ11ごうふん","四軒在家11号墳","国立市 青柳","[古墳時代]","古墳","[古墳時代]古墳の周溝","",139.4258356,35.68146516,FALSE,FALSE,FALSE,TRUE,FALSE,FALSE,FALSE,FALSE,FALSE,"green"
13215001100,13215,"11","あおやぎむめいふん","青柳無名墳","国立市 青柳","[古墳時代]","古墳","[古墳時代]石室?","埴輪 直刀 金環",139.424929,35.68186255,FALSE,FALSE,FALSE,TRUE,FALSE,FALSE,FALSE,FALSE,FALSE,"green"
13215001400,13215,"14","なんようじこふん","南養寺古墳","国立市 谷保","[古墳時代]","古墳","[古墳時代]横穴式石室","",139.4323515,35.67950363,FALSE,FALSE,FALSE,TRUE,FALSE,FALSE,FALSE,FALSE,FALSE,"green"
13215001600,13215,"16","しんめいづかこふん","神明塚古墳","国立市 谷保","[古墳時代?]","古墳？","円墳?","",139.4372953,35.67972673,FALSE,FALSE,FALSE,TRUE,FALSE,FALSE,FALSE,FALSE,FALSE,"green"
13215002300,13215,"23","しもやぼこふんぐん","下谷保古墳群","国立市 谷保","[古墳時代]","古墳群","","",139.4470905,35.67877051,FALSE,FALSE,FALSE,TRUE,FALSE,FALSE,FALSE,FALSE,FALSE,"green"
13215002301,13215,"23-1","しもやぼ1ごうふん","下谷保1号墳","国立市 谷保","[古墳時代]","古墳","※遺跡範囲のすべてが国立市指定史跡下谷保1号墳となっています。 [古墳時代]横穴式石室 周溝","鉄鏃 板状鉄製品 直刀 刀装具",139.4483093,35.6775016,FALSE,FALSE,FALSE,TRUE,FALSE,FALSE,FALSE,FALSE,FALSE,"green"
13215002302,13215,"23-2","しもやぼ2ごうふん","下谷保2号墳","国立市 谷保","[古墳時代]","古墳","円墳","",139.4487728,35.67706932,FALSE,FALSE,FALSE,TRUE,FALSE,FALSE,FALSE,FALSE,FALSE,"green"
13215002303,13215,"23-3","しもやぼ3ごうふん","下谷保3号墳","国立市 谷保","[古墳時代]","古墳","円墳","",139.4492191,35.67669283,FALSE,FALSE,FALSE,TRUE,FALSE,FALSE,FALSE,FALSE,FALSE,"green"
13215002304,13215,"23-4","しもやぼ4ごうふん","下谷保4号墳","国立市 谷保","[古墳時代]","古墳","","直刀",139.4483779,35.67831036,FALSE,FALSE,FALSE,TRUE,FALSE,FALSE,FALSE,FALSE,FALSE,"green"
13215002305,13215,"23-5","やぼこふん","谷保古墳","国立市 谷保","[古墳時代]","古墳","円墳?","",139.4453395,35.680639,FALSE,FALSE,FALSE,TRUE,FALSE,FALSE,FALSE,FALSE,FALSE,"green"
13215002306,13215,"23-6","しもやぼ5ごうふん","下谷保5号墳","国立市 谷保","[古墳時代]","古墳","円墳","須恵器",139.4487041,35.67764104,FALSE,FALSE,FALSE,TRUE,FALSE,FALSE,FALSE,FALSE,FALSE,"green"
13215002307,13215,"23-7","","国立市No.23-7遺跡","国立市 谷保","[古墳時代]","古墳","円墳 [古墳時代]周溝","",139.4457172,35.67959321,FALSE,FALSE,FALSE,TRUE,FALSE,FALSE,FALSE,FALSE,FALSE,"green"
13215002308,13215,"23-8","しもやぼ6ごうふん","下谷保6号墳","国立市 谷保","[古墳時代]","古墳","[古墳時代]周溝","",139.4498199,35.6766231,FALSE,FALSE,FALSE,TRUE,FALSE,FALSE,FALSE,FALSE,FALSE,"green"
13215002309,13215,"23-9","しもやぼ7ごうふん","下谷保7号墳","国立市 谷保","[古墳時代]","古墳","[古墳時代]（河原石積）横穴式石室","",139.4492362,35.67634421,FALSE,FALSE,FALSE,TRUE,FALSE,FALSE,FALSE,FALSE,FALSE,"green"
13215002310,13215,"23-0","しもやぼ8ごうふん","下谷保8号墳","国立市 谷保","[古墳時代]","古墳","[古墳時代]周溝","",139.4480003,35.67758526,FALSE,FALSE,FALSE,TRUE,FALSE,FALSE,FALSE,FALSE,FALSE,"green"
13215002311,13215,"23-1","しもやぼ9ごうふん","下谷保9号墳","国立市 谷保","[古墳時代]","古墳","[古墳時代]石室1基","鉄製品 石製品 ガラス製品 直刀 鉄鏃 刀子 毛抜き",139.4477771,35.67779443,FALSE,FALSE,FALSE,TRUE,FALSE,FALSE,FALSE,FALSE,FALSE,"green"
13215002312,13215,"23-2","しもやぼ10ごうふん","下谷保10号墳","国立市 谷保","[古墳時代]","古墳","円墳 [古墳時代]石室1基 L字状墓3基","須恵器",139.4449447,35.67952349,FALSE,FALSE,FALSE,TRUE,FALSE,FALSE,FALSE,FALSE,FALSE,"green"
13215002800,13215,"28","いしづかこふん","石塚古墳","国立市 谷保","[古墳時代]","古墳","[古墳時代]周溝?","",139.4420115,35.68231222,FALSE,FALSE,FALSE,TRUE,FALSE,FALSE,FALSE,FALSE,FALSE,"green"
13219002400,13219,"24","ふるやしきづかこふん","古屋敷塚古墳","狛江市 岩戸北三丁目","[古墳時代]","古墳","円墳","",139.5814931,35.63456801,FALSE,FALSE,FALSE,TRUE,FALSE,FALSE,FALSE,FALSE,FALSE,"green"
13219002500,13219,"25","はしきたづかこふん","橋北塚古墳","狛江市 岩戸北三丁目","[古墳時代]","古墳","円墳 [古墳時代]周溝","",139.5825241,35.63423357,FALSE,FALSE,FALSE,TRUE,FALSE,FALSE,FALSE,FALSE,FALSE,"green"
13219003000,13219,"30","つちやづかこふん","土屋塚古墳","狛江市 岩戸南一丁目","[古墳時代]","古墳","※遺跡範囲のすべてが狛江市指定史跡土屋塚古墳となっています。","円筒埴輪",139.5852881,35.63224173,FALSE,FALSE,FALSE,TRUE,FALSE,FALSE,FALSE,FALSE,FALSE,"green"
13219003300,13219,"33","しみずづか1ごうこふん","清水塚1号古墳","狛江市 猪方一丁目","[古墳時代]","古墳","円墳 [古墳時代]横穴式石室","",139.5814416,35.62960103,FALSE,FALSE,FALSE,TRUE,FALSE,FALSE,FALSE,FALSE,FALSE,"green"
13219003400,13219,"34","しみずづか2ごうこふん","清水塚2号古墳","狛江市 猪方一丁目","[古墳時代]","古墳","円墳","",139.5818536,35.62937779,FALSE,FALSE,FALSE,TRUE,FALSE,FALSE,FALSE,FALSE,FALSE,"green"
13219003500,13219,"35","しみずづか3ごうこふん","清水塚3号古墳","狛江市 猪方一丁目","[古墳時代]","古墳","円墳","",139.5823343,35.62939174,FALSE,FALSE,FALSE,TRUE,FALSE,FALSE,FALSE,FALSE,FALSE,"green"
13219003702,13219,"37-2","くぼ・まえはらこふん","久保・前原古墳","狛江市 猪方三丁目","[古墳時代]","古墳","[古墳時代]周溝","土師器 須恵器",139.5791941,35.62670252,FALSE,FALSE,FALSE,TRUE,FALSE,FALSE,FALSE,FALSE,FALSE,"green"
13219003800,13219,"38","まえはらづかこふん","前原塚古墳","狛江市 猪方三丁目","[古墳時代]","古墳","円墳 [古墳時代]葺石? 横穴式石室?","土師器",139.5777007,35.62728855,FALSE,FALSE,FALSE,TRUE,FALSE,FALSE,FALSE,FALSE,FALSE,"green"
13219003900,13219,"39","いのがたおがわづかこふん","猪方小川塚古墳","狛江市 猪方三丁目","[古墳時代]","古墳","円墳 [古墳時代]横穴式石室","",139.5769282,35.62564207,FALSE,FALSE,FALSE,TRUE,FALSE,FALSE,FALSE,FALSE,FALSE,"green"
13219004100,13219,"41","かめづかこふん","亀塚古墳","狛江市 元和泉一丁目","[古墳時代]","古墳","帆立貝式前方後円墳 [古墳時代]周溝 石棺 木炭槨 組合せ石棺","土師器 須恵器 円筒埴輪 管玉 ガラス玉 神人歌舞画像鏡 直刀 銀環 鈴釧 辻金具 金銅製装飾金具",139.5732061,35.63068772,FALSE,FALSE,FALSE,TRUE,FALSE,FALSE,FALSE,FALSE,FALSE,"green"
13219004202,13219,"42-2","べんてんいけこふん1ごうふん","弁財天池古墳1号墳","狛江市","[古墳時代]","古墳","円墳 [古墳時代]周溝","土師器 須恵器 鉄剣 勾玉 石製模造品",139.576929,35.63293921,FALSE,FALSE,FALSE,TRUE,FALSE,FALSE,FALSE,FALSE,FALSE,"green"
13219004203,13219,"42-3","べんてんいけこふん2ごうふん","弁財天池古墳2号墳","狛江市","[古墳時代]","古墳","円墳 [古墳時代]周溝","土師器",139.5772551,35.63313454,FALSE,FALSE,FALSE,TRUE,FALSE,FALSE,FALSE,FALSE,FALSE,"green"
13219004204,13219,"42-4","べんてんいけこふん3ごうふん","弁財天池古墳3号墳","狛江市","[古墳時代]","古墳","円墳 [古墳時代]周溝","須恵器",139.5774268,35.63281364,FALSE,FALSE,FALSE,TRUE,FALSE,FALSE,FALSE,FALSE,FALSE,"green"
13219004401,13219,"44-1","だぐらづかこふん","駄倉塚古墳","狛江市 中和泉一丁目","[縄文時代（中期）][古墳時代][中世][近世]","包蔵地・古墳","円墳","円筒埴輪",139.5778903,35.63406932,FALSE,TRUE,FALSE,TRUE,FALSE,FALSE,TRUE,TRUE,FALSE,"green"
13219004600,13219,"46","ひがしづかこふん","東塚古墳","狛江市 中和泉一丁目","[古墳時代]［中世］","古墳","円墳 [古墳時代]周溝 葺石","円筒埴輪",139.5767058,35.63531102,FALSE,FALSE,FALSE,TRUE,FALSE,FALSE,TRUE,FALSE,FALSE,"green"
13219004800,13219,"48","まつばらひがしいなりづかこふん","松原東稲荷塚古墳","狛江市 中和泉一丁目","[古墳時代]","古墳","円墳 [古墳時代]葺石 礫槨","鉄鏃 刀子 円筒埴輪 直刀",139.5751597,35.63545389,FALSE,FALSE,FALSE,TRUE,FALSE,FALSE,FALSE,FALSE,FALSE,"green"
13219005100,13219,"51","きょうづかこふん","経塚古墳","狛江市 中和泉一丁目","[古墳時代][中世]","古墳","円墳 [古墳時代]周溝 葺石 石棺","打斧 埴輪 蔵骨器 板碑 陶磁器",139.5748851,35.63350064,FALSE,FALSE,FALSE,TRUE,FALSE,FALSE,TRUE,FALSE,FALSE,"green"
13219005200,13219,"52","まとじめ1ごうふん","真刀自_1号墳","狛江市 中和泉一丁目","[古墳時代]","古墳","円墳","",139.5738047,35.63351124,FALSE,FALSE,FALSE,TRUE,FALSE,FALSE,FALSE,FALSE,FALSE,"green"
13219005300,13219,"53","まとじめ2ごうふん","真刀自_2号墳","狛江市 中和泉一丁目","[古墳時代]","古墳","円墳","",139.5737532,35.63319034,FALSE,FALSE,FALSE,TRUE,FALSE,FALSE,FALSE,FALSE,FALSE,"green"
13219005500,13219,"55","かぶとづかこふん","兜塚古墳","狛江市 中和泉三丁目","[古墳時代]","古墳","※遺跡範囲のすべてが東京都指定史跡兜塚古墳となっています。","円筒埴輪",139.5699584,35.63414243,FALSE,FALSE,FALSE,TRUE,FALSE,FALSE,FALSE,FALSE,FALSE,"green"
13219005700,13219,"57","いいだづかこふん","飯田塚古墳","狛江市 中和泉三丁目","[古墳時代]","古墳","円墳","",139.5724131,35.63559341,FALSE,FALSE,FALSE,TRUE,FALSE,FALSE,FALSE,FALSE,FALSE,"green"
13219005800,13219,"58","しらいづかこふん","白井塚古墳","狛江市 中和泉三丁目","[古墳時代]","古墳","円墳 [時代不明]周溝","",139.5714347,35.63583059,FALSE,FALSE,FALSE,TRUE,FALSE,FALSE,FALSE,FALSE,FALSE,"green"
13219006600,13219,"66","いりうえきょうづかこふん","圦上峡古墳遺跡","狛江市 中和泉四丁目","[古墳時代]","古墳","円墳 [古墳時代]横穴式石室","土師器 管玉 勾玉",139.5648085,35.63587244,FALSE,FALSE,FALSE,TRUE,FALSE,FALSE,FALSE,FALSE,FALSE,"green"
13219006700,13219,"67","けいげんじ7ごうこふん","慶元寺7号古墳","狛江市 岩戸南三丁目","[古墳時代]","古墳","円墳 [古墳時代]横穴式石室?","縄文土器 土師器 陶磁器",139.5938484,35.62710282,FALSE,FALSE,FALSE,TRUE,FALSE,FALSE,FALSE,FALSE,FALSE,"green"
13224000400,13224,"4","うすいづかこふん","臼井塚古墳","多摩市 百草","[古墳時代]","古墳","[古墳時代]石室","刀子",139.4340158,35.6384356,FALSE,FALSE,FALSE,TRUE,FALSE,FALSE,FALSE,FALSE,FALSE,"green"
13224000500,13224,"5","いなりづかこふん","稲荷塚古墳","多摩市 百草","[古墳時代]","古墳","※遺跡範囲のすべてが都指定史跡稲荷塚古墳となっています。","土師器",139.4345651,35.63854721,FALSE,FALSE,FALSE,TRUE,FALSE,FALSE,FALSE,FALSE,FALSE,"green"
13224000600,13224,"6","こうしんづかこふん","庚申塚古墳","多摩市 和田","[古墳時代]","古墳","","",139.4342278,35.64156861,FALSE,FALSE,FALSE,TRUE,FALSE,FALSE,FALSE,FALSE,FALSE,"green"
13224020800,13224,"208","つかっぱらこふんぐん","塚原古墳群","多摩市 和田","[古墳時代]","古墳","","",139.4325155,35.64413547,FALSE,FALSE,FALSE,TRUE,FALSE,FALSE,FALSE,FALSE,FALSE,"green"
13224020801,13224,"08-1","つかっぱら1ごうこふん","塚原1号古墳","多摩市 和田","[古墳時代]","古墳","","",139.4330133,35.64360537,FALSE,FALSE,FALSE,TRUE,FALSE,FALSE,FALSE,FALSE,FALSE,"green"
13224020802,13224,"08-2","つかっぱら2ごうこふん","塚原2号古墳","多摩市 和田","[古墳時代]","古墳","[古墳時代]土壙　周溝　ブリッジ","土師器",139.4324812,35.64368907,FALSE,FALSE,FALSE,TRUE,FALSE,FALSE,FALSE,FALSE,FALSE,"green"
13224020803,13224,"08-3","つかっぱら3ごうこふん","塚原3号古墳","多摩市 和田","[古墳時代]","古墳","[古墳時代]周溝　ブリッジ","土師器",139.4322194,35.64376928,FALSE,FALSE,FALSE,TRUE,FALSE,FALSE,FALSE,FALSE,FALSE,"green"
13224020804,13224,"08-4","つかっぱら4ごうこふん","塚原4号古墳","多摩市 和田","[古墳時代]","古墳","円墳　[古墳時代]周溝　横穴式石室","臼玉",139.4319319,35.64342401,FALSE,FALSE,FALSE,TRUE,FALSE,FALSE,FALSE,FALSE,FALSE,"green"
13224020805,13224,"08-5","つかっぱら5ごうこふん","塚原5号古墳","多摩市 和田","[古墳時代]","古墳","円墳　[古墳時代]周溝　横穴式石室","土師器　須恵器　鉄鏃　刀子　大刀　短刀",139.4324646,35.64348409,FALSE,FALSE,FALSE,TRUE,FALSE,FALSE,FALSE,FALSE,FALSE,"green"
13224020806,13224,"08-6","つかっぱら6ごうこふん","塚原6号古墳","多摩市 和田","[古墳時代]","古墳","[古墳時代]周溝　横穴式石室","土師器　須恵器　刀子　直刀　金環",139.4332027,35.64419555,FALSE,FALSE,FALSE,TRUE,FALSE,FALSE,FALSE,FALSE,FALSE,"green"
13224020807,13224,"08-7","つかっぱら7ごうこふん","塚原7号古墳","多摩市 和田","[古墳時代]","古墳","[古墳時代]石室","",139.4319152,35.64370729,FALSE,FALSE,FALSE,TRUE,FALSE,FALSE,FALSE,FALSE,FALSE,"green"
13224020808,13224,"08-8","つかっぱら8ごうこふん","塚原8号古墳","多摩市 和田","[古墳時代]","古墳","[古墳時代]周溝　ブリッジ","土師器　須恵器",139.4321212,35.64333064,FALSE,FALSE,FALSE,TRUE,FALSE,FALSE,FALSE,FALSE,FALSE,"green"
13224020809,13224,"08-9","つかっぱら9ごうこふん","塚原9号古墳","多摩市 和田","[古墳時代]","古墳","円墳?　[古墳時代]横穴式石室","鉄鏃　刀子",139.4316744,35.6434409,FALSE,FALSE,FALSE,TRUE,FALSE,FALSE,FALSE,FALSE,FALSE,"green"
13228002200,13228,"22","たてやこふんぐん","舘谷古墳群","あきる野市 館谷","[古墳時代]","古墳","円墳3基","",139.2327187,35.72820897,FALSE,FALSE,FALSE,TRUE,FALSE,FALSE,FALSE,FALSE,FALSE,"green"
13228003600,13228,"36","やまだこふん","山田古墳","あきる野市 山田","[古墳時代][奈良時代]","古墳","","",139.2599786,35.72578417,FALSE,FALSE,FALSE,TRUE,TRUE,FALSE,FALSE,FALSE,FALSE,"green"
13228004701,13228,"47-1","みどううえこふんぐん1ごうこふん","御堂上古墳群1号古墳","あきる野市 草花","[古墳時代]","古墳","","",139.2936829,35.74205282,FALSE,FALSE,FALSE,TRUE,FALSE,FALSE,FALSE,FALSE,FALSE,"green"
13228004702,13228,"47-2","みどううえこふんぐん2ごうこふん","御堂上古墳群2号古墳","あきる野市 草花","[古墳時代]","古墳","","鉄鏃　直刀",139.2946099,35.74208068,FALSE,FALSE,FALSE,TRUE,FALSE,FALSE,FALSE,FALSE,FALSE,"green"
13228004703,13228,"47-3","みどううえこふんぐん3ごうこふん","御堂上古墳群3号古墳","あきる野市 草花","[古墳時代]","古墳","[古墳時代]積石","",139.2939747,35.74160696,FALSE,FALSE,FALSE,TRUE,FALSE,FALSE,FALSE,FALSE,FALSE,"green"
13228004704,13228,"47-4","みどううえこふんぐん4ごうこふん","御堂上古墳群4号古墳","あきる野市 草花","[古墳時代]","古墳","円墳　[古墳時代]葺石?","",139.2969102,35.74096604,FALSE,FALSE,FALSE,TRUE,FALSE,FALSE,FALSE,FALSE,FALSE,"green"
13228005000,13228,"50","きたこみやこふん","北小宮古墳","あきる野市 草花","[古墳時代？]","古墳","","",139.3013905,35.74056197,FALSE,FALSE,FALSE,TRUE,FALSE,FALSE,FALSE,FALSE,FALSE,"green"
13228005900,13228,"59","くさばなこふんぐん","草花古墳群","あきる野市 草花","[古墳時代]","古墳","11基","",139.3102547,35.73739035,FALSE,FALSE,FALSE,TRUE,FALSE,FALSE,FALSE,FALSE,FALSE,"green"
13228005901,13228,"59-1","","あきる野市No.59-1古墳","あきる野市 草花","[古墳時代？]","古墳","","",139.3067185,35.74028853,FALSE,FALSE,FALSE,TRUE,FALSE,FALSE,FALSE,FALSE,FALSE,"green"
13228005903,13228,"59-3","","あきる野市No.59-3古墳","あきる野市 草花","[古墳時代？]","古墳","[古墳時代]石組","横瓶",139.3076733,35.73843016,FALSE,FALSE,FALSE,TRUE,FALSE,FALSE,FALSE,FALSE,FALSE,"green"
13228005904,13228,"59-4","","あきる野市No.59-4古墳","あきる野市 草花","[古墳時代？]","古墳","[古墳時代]石組","",139.3076218,35.73787281,FALSE,FALSE,FALSE,TRUE,FALSE,FALSE,FALSE,FALSE,FALSE,"green"
13228005905,13228,"59-5","","あきる野市No.59-5古墳","あきる野市 草花","[古墳時代？]","古墳","","",139.3104886,35.73790068,FALSE,FALSE,FALSE,TRUE,FALSE,FALSE,FALSE,FALSE,FALSE,"green"
13228005906,13228,"59-6","","あきる野市No.59-6古墳","あきる野市 草花","[古墳時代？]","古墳","","鉄鏃　直刀",139.3114499,35.73707859,FALSE,FALSE,FALSE,TRUE,FALSE,FALSE,FALSE,FALSE,FALSE,"green"
13228005907,13228,"59-7","","あきる野市No.59-7古墳","あきる野市 草花","[古墳時代？]","古墳","","",139.3137845,35.7352811,FALSE,FALSE,FALSE,TRUE,FALSE,FALSE,FALSE,FALSE,FALSE,"green"
13228005908,13228,"59-8","","あきる野市No.59-8古墳","あきる野市 草花","[古墳時代？]","古墳","[古墳時代]積石","",139.3142651,35.7348352,FALSE,FALSE,FALSE,TRUE,FALSE,FALSE,FALSE,FALSE,FALSE,"green"
13228005909,13228,"59-9","","あきる野市No.59-9古墳","あきる野市 草花","[古墳時代]","古墳","円墳　[古墳時代]石室","刀子　直刀",139.3079137,35.73815149,FALSE,FALSE,FALSE,TRUE,FALSE,FALSE,FALSE,FALSE,FALSE,"green"
13228005910,13228,"59-0","","あきる野市No.59-10古墳","あきる野市 草花","[古墳時代]","古墳","円墳　[古墳時代]周溝","土師器",139.3119477,35.73734333,FALSE,FALSE,FALSE,TRUE,FALSE,FALSE,FALSE,FALSE,FALSE,"green"
13228005911,13228,"59-1","","あきる野市No.59-11古墳","あきる野市 草花","[古墳時代]","古墳","[古墳時代]周溝","須恵器",139.3112096,35.73771954,FALSE,FALSE,FALSE,TRUE,FALSE,FALSE,FALSE,FALSE,FALSE,"green"
13228006601,13228,"66-1","もりやまこふん3ごうふん","森山古墳3号墳","あきる野市 草花","[古墳時代？]","古墳","[古墳時代]積石","",139.3190373,35.73217372,FALSE,FALSE,FALSE,TRUE,FALSE,FALSE,FALSE,FALSE,FALSE,"green"
13228006602,13228,"66-2","もりやまこふん2ごうふん","森山古墳2号墳","あきる野市 草花","[古墳時代？]","古墳","[古墳時代]積石","",139.3184022,35.73220158,FALSE,FALSE,FALSE,TRUE,FALSE,FALSE,FALSE,FALSE,FALSE,"green"
13228006603,13228,"66-3","もりやまこふん1ごうふん","森山古墳1号墳","あきる野市 草花","[古墳時代？]","古墳","[古墳時代]積石","",139.3185738,35.73302373,FALSE,FALSE,FALSE,TRUE,FALSE,FALSE,FALSE,FALSE,FALSE,"green"
13228006700,13228,"67","せとおかこふんぐん","瀬戸岡古墳群","あきる野市 瀬戸岡","[古墳時代]","古墳","[古墳時代]古墳","",139.2876823,35.73894482,FALSE,FALSE,FALSE,TRUE,FALSE,FALSE,FALSE,FALSE,FALSE,"green"
13228006701,13228,"67-1","せとおかこふんぐん1ごうふん","瀬戸岡古墳群1号墳","あきる野市 瀬戸岡","[古墳時代]","古墳","円墳?","",139.2861132,35.73965325,FALSE,FALSE,FALSE,TRUE,FALSE,FALSE,FALSE,FALSE,FALSE,"green"
13228006702,13228,"67-2","せとおかこふんぐん2ごうふん","瀬戸岡古墳群2号墳","あきる野市 瀬戸岡","[古墳時代]","古墳","円墳?","",139.2864308,35.73971595,FALSE,FALSE,FALSE,TRUE,FALSE,FALSE,FALSE,FALSE,FALSE,"green"
13228006703,13228,"67-3","せとおかこふんぐん3ごうふん","瀬戸岡古墳群3号墳","あきる野市 瀬戸岡","[古墳時代]","古墳","円墳?","",139.2866968,35.73970202,FALSE,FALSE,FALSE,TRUE,FALSE,FALSE,FALSE,FALSE,FALSE,"green"
13228006704,13228,"67-4","せとおかこふんぐん4ごうふん","瀬戸岡古墳群4号墳","あきる野市 瀬戸岡","[古墳時代]","古墳","円墳?","",139.2858844,35.73916493,FALSE,FALSE,FALSE,TRUE,FALSE,FALSE,FALSE,FALSE,FALSE,"green"
13228006705,13228,"67-5","せとおかこふんぐん5ごうふん","瀬戸岡古墳群5号墳","あきる野市 瀬戸岡","[古墳時代]","古墳","円墳?","",139.2857557,35.73908133,FALSE,FALSE,FALSE,TRUE,FALSE,FALSE,FALSE,FALSE,FALSE,"green"
13228006706,13228,"67-6","せとおかこふんぐん6ごうふん","瀬戸岡古墳群6号墳","あきる野市 瀬戸岡","[古墳時代]","古墳","円墳?","",139.2856824,35.73884032,FALSE,FALSE,FALSE,TRUE,FALSE,FALSE,FALSE,FALSE,FALSE,"green"
13228006707,13228,"67-7","せとおかこふんぐん7ごうふん","瀬戸岡古墳群7号墳","あきる野市 瀬戸岡","[古墳時代]","古墳","円墳?　[古墳時代]石室","",139.2856567,35.73842928,FALSE,FALSE,FALSE,TRUE,FALSE,FALSE,FALSE,FALSE,FALSE,"green"
13228006708,13228,"67-8","せとおかこふんぐん8ごうふん","瀬戸岡古墳群8号墳","あきる野市 瀬戸岡","[古墳時代]","古墳","円墳?","",139.2861459,35.73822724,FALSE,FALSE,FALSE,TRUE,FALSE,FALSE,FALSE,FALSE,FALSE,"green"
13228006709,13228,"67-9","せとおかこふんぐん9ごうふん","瀬戸岡古墳群9号墳","あきる野市 瀬戸岡","[古墳時代]","古墳","円墳?","",139.2859743,35.73799037,FALSE,FALSE,FALSE,TRUE,FALSE,FALSE,FALSE,FALSE,FALSE,"green"
13228006710,13228,"67-0","せとおかこふんぐん10ごうふん","瀬戸岡古墳群10号墳","あきる野市 瀬戸岡","[古墳時代]","古墳","円墳?","",139.2873561,35.73978083,FALSE,FALSE,FALSE,TRUE,FALSE,FALSE,FALSE,FALSE,FALSE,"green"
13228006711,13228,"67-1","せとおかこふんぐん11ごうふん","瀬戸岡古墳群11号墳","あきる野市 瀬戸岡","[古墳時代]","古墳","円墳?","",139.2875621,35.73998287,FALSE,FALSE,FALSE,TRUE,FALSE,FALSE,FALSE,FALSE,FALSE,"green"
13228006712,13228,"67-2","せとおかこふんぐん12ごうふん","瀬戸岡古墳群12号墳","あきる野市 瀬戸岡","[古墳時代]","古墳","円墳?","",139.2875793,35.7401222,FALSE,FALSE,FALSE,TRUE,FALSE,FALSE,FALSE,FALSE,FALSE,"green"
13228006713,13228,"67-3","せとおかこふんぐん13ごうふん","瀬戸岡古墳群13号墳","あきる野市 瀬戸岡","[古墳時代]","古墳","円墳?","",139.2877595,35.74015703,FALSE,FALSE,FALSE,TRUE,FALSE,FALSE,FALSE,FALSE,FALSE,"green"
13228006714,13228,"67-4","せとおかこふんぐん14ごうふん","瀬戸岡古墳群14号墳","あきる野市 瀬戸岡","[古墳時代]","古墳","円墳?　[古墳時代]横穴式石室","鉄鏃",139.2881801,35.7402267,FALSE,FALSE,FALSE,TRUE,FALSE,FALSE,FALSE,FALSE,FALSE,"green"
13228006715,13228,"67-5","せとおかこふんぐん15ごうふん","瀬戸岡古墳群15号墳","あきる野市 瀬戸岡","[古墳時代]","古墳","円墳?","",139.2883518,35.7401849,FALSE,FALSE,FALSE,TRUE,FALSE,FALSE,FALSE,FALSE,FALSE,"green"
13228006716,13228,"67-6","せとおかこふんぐん16ごうふん","瀬戸岡古墳群16号墳","あきる野市 瀬戸岡","[古墳時代]","古墳","円墳?　[古墳時代]横穴式石室","小刀",139.288429,35.7402894,FALSE,FALSE,FALSE,TRUE,FALSE,FALSE,FALSE,FALSE,FALSE,"green"
13228006717,13228,"67-7","せとおかこふんぐん17ごうふん","瀬戸岡古墳群17号墳","あきる野市 瀬戸岡","[古墳時代]","古墳","円墳?　[古墳時代]横穴式石室","人骨",139.2885578,35.74024063,FALSE,FALSE,FALSE,TRUE,FALSE,FALSE,FALSE,FALSE,FALSE,"green"
13228006718,13228,"67-8","せとおかこふんぐん18ごうふん","瀬戸岡古墳群18号墳","あきる野市 瀬戸岡","[古墳時代]","古墳","円墳?","",139.2880771,35.7399968,FALSE,FALSE,FALSE,TRUE,FALSE,FALSE,FALSE,FALSE,FALSE,"green"
13228006719,13228,"67-9","せとおかこふんぐん19ごうふん","瀬戸岡古墳群19号墳","あきる野市 瀬戸岡","[古墳時代]","古墳","円墳?","",139.2882917,35.74006646,FALSE,FALSE,FALSE,TRUE,FALSE,FALSE,FALSE,FALSE,FALSE,"green"
13228006720,13228,"67-0","せとおかこふんぐん20ごうふん","瀬戸岡古墳群20号墳","あきる野市 瀬戸岡","[古墳時代]","古墳","円墳?","",139.28795,35.73986225,FALSE,FALSE,FALSE,TRUE,FALSE,FALSE,FALSE,FALSE,FALSE,"green"
13228006721,13228,"67-1","せとおかこふんぐん21ごうふん","瀬戸岡古墳群21号墳","あきる野市 瀬戸岡","[古墳時代]","古墳","円墳?","",139.2881216,35.73986922,FALSE,FALSE,FALSE,TRUE,FALSE,FALSE,FALSE,FALSE,FALSE,"green"
13228006722,13228,"67-2","せとおかこふんぐん22ごうふん","瀬戸岡古墳群22号墳","あきる野市 瀬戸岡","[古墳時代]","古墳","円墳?　[古墳時代]横穴式石室","須恵器",139.2876238,35.73975775,FALSE,FALSE,FALSE,TRUE,FALSE,FALSE,FALSE,FALSE,FALSE,"green"
13228006723,13228,"67-3","せとおかこふんぐん23ごうふん","瀬戸岡古墳群23号墳","あきる野市 瀬戸岡","[古墳時代]","古墳","円墳?　[古墳時代]竪穴式石室","",139.2879071,35.73972989,FALSE,FALSE,FALSE,TRUE,FALSE,FALSE,FALSE,FALSE,FALSE,"green"
13228006724,13228,"67-4","せとおかこふんぐん24ごうふん","瀬戸岡古墳群24号墳","あきる野市 瀬戸岡","[古墳時代]","古墳","円墳?","",139.2882059,35.73971117,FALSE,FALSE,FALSE,TRUE,FALSE,FALSE,FALSE,FALSE,FALSE,"green"
13228006725,13228,"67-5","せとおかこふんぐん25ごうふん","瀬戸岡古墳群25号墳","あきる野市 瀬戸岡","[古墳時代]","古墳","円墳?","",139.2885578,35.73989927,FALSE,FALSE,FALSE,TRUE,FALSE,FALSE,FALSE,FALSE,FALSE,"green"
13228006727,13228,"67-7","せとおかこふんぐん27ごうふん","瀬戸岡古墳群27号墳","あきる野市 瀬戸岡","[古墳時代]","古墳","円墳?","",139.2874677,35.73953003,FALSE,FALSE,FALSE,TRUE,FALSE,FALSE,FALSE,FALSE,FALSE,"green"
13228006728,13228,"67-8","せとおかこふんぐん28ごうふん","瀬戸岡古墳群28号墳","あきる野市 瀬戸岡","[古墳時代]","古墳","円墳?","",139.2876394,35.73957183,FALSE,FALSE,FALSE,TRUE,FALSE,FALSE,FALSE,FALSE,FALSE,"green"
13228006729,13228,"67-9","せとおかこふんぐん29ごうふん","瀬戸岡古墳群29号墳","あきる野市 瀬戸岡","[古墳時代]","古墳","円墳?","",139.2877853,35.73946733,FALSE,FALSE,FALSE,TRUE,FALSE,FALSE,FALSE,FALSE,FALSE,"green"
13228006730,13228,"67-0","せとおかこふんぐん30ごうふん","瀬戸岡古墳群30号墳","あきる野市 瀬戸岡","[古墳時代]","古墳","円墳?","鉄鏃　人骨　土師器　石製品　鉄器",139.2879312,35.739328,FALSE,FALSE,FALSE,TRUE,FALSE,FALSE,FALSE,FALSE,FALSE,"green"
13228006731,13228,"67-1","せとおかこふんぐん31ごうふん","瀬戸岡古墳群31号墳","あきる野市 瀬戸岡","[古墳時代]","古墳","円墳?","",139.2881372,35.7395161,FALSE,FALSE,FALSE,TRUE,FALSE,FALSE,FALSE,FALSE,FALSE,"green"
13228006732,13228,"67-2","せとおかこふんぐん32ごうふん","瀬戸岡古墳群32号墳","あきる野市 瀬戸岡","[古墳時代]","古墳","円墳?　[古墳時代]横穴式石室","土師器　須恵器",139.2883003,35.73943946,FALSE,FALSE,FALSE,TRUE,FALSE,FALSE,FALSE,FALSE,FALSE,"green"
13228006733,13228,"67-3","せとおかこふんぐん33ごうふん","瀬戸岡古墳群33号墳","あきる野市 瀬戸岡","[古墳時代]","古墳","円墳?","",139.2885148,35.7395579,FALSE,FALSE,FALSE,TRUE,FALSE,FALSE,FALSE,FALSE,FALSE,"green"
13228006734,13228,"67-4","せとおかこふんぐん34ごうふん","瀬戸岡古墳群34号墳","あきる野市 瀬戸岡","[古墳時代]","古墳","円墳?　[古墳時代]横穴式石室","",139.2879484,35.73867312,FALSE,FALSE,FALSE,TRUE,FALSE,FALSE,FALSE,FALSE,FALSE,"green"
13228006735,13228,"67-5","せとおかこふんぐん35ごうふん","瀬戸岡古墳群35号墳","あきる野市 瀬戸岡","[古墳時代]","古墳","円墳?","",139.2880514,35.73851288,FALSE,FALSE,FALSE,TRUE,FALSE,FALSE,FALSE,FALSE,FALSE,"green"
13228006737,13228,"67-7","せとおかこふんぐん37ごうふん","瀬戸岡古墳群37号墳","あきる野市 瀬戸岡","[古墳時代]","古墳","円墳?","",139.2879398,35.73941856,FALSE,FALSE,FALSE,TRUE,FALSE,FALSE,FALSE,FALSE,FALSE,"green"
13228006738,13228,"67-8","せとおかこふんぐん38ごうふん","瀬戸岡古墳群38号墳","あきる野市 瀬戸岡","[古墳時代]","古墳","円墳?","鉄製刀子",139.287339,35.73961363,FALSE,FALSE,FALSE,TRUE,FALSE,FALSE,FALSE,FALSE,FALSE,"green"
13228006739,13228,"67-9","せとおかこふんぐん39ごうふん","瀬戸岡古墳群39号墳","あきる野市 瀬戸岡","[古墳時代]","古墳","円墳?","直刀",139.2871072,35.73967633,FALSE,FALSE,FALSE,TRUE,FALSE,FALSE,FALSE,FALSE,FALSE,"green"
13228006740,13228,"67-0","せとおかこふんぐん40ごうふん","瀬戸岡古墳群40号墳","あきる野市 瀬戸岡","[古墳時代]","古墳","","鉄鏃　直刀",139.2878368,35.7395788,FALSE,FALSE,FALSE,TRUE,FALSE,FALSE,FALSE,FALSE,FALSE,"green"
13228006741,13228,"67-1","せとおかこふんぐん41ごうふん","瀬戸岡古墳群41号墳","あきる野市 瀬戸岡","[古墳時代]","古墳","","",139.2892272,35.7396415,FALSE,FALSE,FALSE,TRUE,FALSE,FALSE,FALSE,FALSE,FALSE,"green"
13228006742,13228,"67-2","せとおかこふんぐん42ごうふん","瀬戸岡古墳群42号墳","あきる野市 瀬戸岡","[古墳時代]","古墳","","",139.2856567,35.73869402,FALSE,FALSE,FALSE,TRUE,FALSE,FALSE,FALSE,FALSE,FALSE,"green"
13228006743,13228,"67-3","せとおかこふんぐん43ごうふん","瀬戸岡古墳群43号墳","あきる野市 瀬戸岡","[古墳時代]","古墳","","",139.2859142,35.73880549,FALSE,FALSE,FALSE,TRUE,FALSE,FALSE,FALSE,FALSE,FALSE,"green"
13228006744,13228,"67-4","せとおかこふんぐん44ごうふん","瀬戸岡古墳群44号墳","あきる野市 瀬戸岡","[古墳時代]","古墳","","",139.2877595,35.74000377,FALSE,FALSE,FALSE,TRUE,FALSE,FALSE,FALSE,FALSE,FALSE,"green"
13228006745,13228,"67-5","せとおかこふんぐん45ごうふん","瀬戸岡古墳群45号墳","あきる野市 瀬戸岡","[古墳時代]","古墳","","",139.2874677,35.7397042,FALSE,FALSE,FALSE,TRUE,FALSE,FALSE,FALSE,FALSE,FALSE,"green"
13228006746,13228,"67-6","せとおかこふんぐん46ごうふん","瀬戸岡古墳群46号墳","あきる野市 瀬戸岡","[古墳時代]","古墳","","",139.2886522,35.740373,FALSE,FALSE,FALSE,TRUE,FALSE,FALSE,FALSE,FALSE,FALSE,"green"
13228006747,13228,"67-7","せとおかこふんぐん47ごうふん","瀬戸岡古墳群47号墳","あきる野市 瀬戸岡","[古墳時代]","古墳","","",139.2889268,35.74054716,FALSE,FALSE,FALSE,TRUE,FALSE,FALSE,FALSE,FALSE,FALSE,"green"
13228006905,13228,"69-5","はらこみやこふんぐん5ごうふん","原小宮古墳群5号墳","あきる野市 原小宮","[古墳時代？]","古墳","","",139.3013283,35.7344642,FALSE,FALSE,FALSE,TRUE,FALSE,FALSE,FALSE,FALSE,FALSE,"green"
13228007100,13228,"71","","あきる野市No.71遺跡","あきる野市 平沢","[古墳時代？]","古墳","","",139.30998,35.73117563,FALSE,FALSE,FALSE,TRUE,FALSE,FALSE,FALSE,FALSE,FALSE,"green"
13228007900,13228,"79","おおつかこふん","大塚古墳","あきる野市 雨間","[古墳時代？]［中世］","古墳？・その他","[中世]修法壇　跡？","",139.2929855,35.72783119,FALSE,FALSE,FALSE,TRUE,FALSE,FALSE,TRUE,FALSE,FALSE,"green"
13228010401,13228,"04-1","","あきる野市No.104-1遺跡","あきる野市 牛沼","[古墳時代]","古墳","円墳","",139.2840677,35.72077256,FALSE,FALSE,FALSE,TRUE,FALSE,FALSE,FALSE,FALSE,FALSE,"green"
13228010402,13228,"04-2","","あきる野市No.104-2遺跡","あきる野市 牛沼","[古墳時代]","古墳","円墳","",139.2842051,35.7205217,FALSE,FALSE,FALSE,TRUE,FALSE,FALSE,FALSE,FALSE,FALSE,"green"
13228010403,13228,"04-3","","あきる野市No.104-3遺跡","あきる野市 牛沼","[古墳時代]","古墳","円墳","",139.2845484,35.72053564,FALSE,FALSE,FALSE,TRUE,FALSE,FALSE,FALSE,FALSE,FALSE,"green"
13228010500,13228,"105","","あきる野市No.105遺跡","あきる野市 二宮","[古墳時代]","古墳","","須恵器　鉄製品　鍔",139.3133103,35.72710654,FALSE,FALSE,FALSE,TRUE,FALSE,FALSE,FALSE,FALSE,FALSE,"green"
13228010600,13228,"106","","あきる野市No.106遺跡","あきる野市 引田","[古墳時代][中世][近世]","古墳","","土師器　板碑　宝篋印塔　銭貨　火葬骨",139.2697633,35.71956855,FALSE,FALSE,FALSE,TRUE,FALSE,FALSE,TRUE,TRUE,FALSE,"green"
13305001900,13305,"19","しもひらいこふん","下平井古墳","日の出町 平井","[古墳時代]","古墳","","須恵器　鉄鏃　刀子　直刀",139.2741196,35.74017102,FALSE,FALSE,FALSE,TRUE,FALSE,FALSE,FALSE,FALSE,FALSE,"green"
