"JASID","LGC","Site_no","SiteName_furigana","SiteName_original","Address","Chronology","SiteType","ArchaeologicalFeatures","MajorArtefacts","Lon","Lat","Y"
13101000300,13101,"3","","千代田区No.3遺跡","千代田区 千代田","[弥生時代]","包蔵地","","弥生土器",139.7568012,35.6844541,TRUE
13101000800,13101,"8","うしがふちかいづか","牛ヶ淵貝塚","千代田区 九段南一丁目","[縄文時代（中期）][弥生時代][古墳時代][奈良時代][平安時代]","貝塚","","縄文土器　弥生土器　土師器",139.7510672,35.69479204,TRUE
13101000900,13101,"9","くだんざかうえかいづか","九段坂上貝塚","千代田区 九段北一丁目","[縄文時代（中期）][弥生時代][平安時代]","貝塚","[弥生時代]V字溝　住居","縄文土器　弥生土器　土師器　須恵器",139.7491794,35.69628581,TRUE
13101001000,13101,"10","ながたちょうにちょうめいせき","永田町二丁目遺跡","千代田区 永田町二丁目","[縄文時代（後期）][弥生時代（中期）][近世]","包蔵地・集落・貝塚・屋敷","[弥生時代]住居跡　土坑　環壕　溝　[近世]土坑　井戸　溝　建物址","石器　弥生土器　陶磁器類　金属　木製品　瓦",139.7438231,35.67281761,TRUE
13101002200,13101,"22","とうきょうこくりつきんだいびじゅつかんいせき","東京国立近代美術館遺跡","千代田区 北の丸公園","[旧石器時代][縄文時代（早期〜後期）][弥生時代][古墳時代][中世][近世]","集落・城館","[旧石器時代]礫群　[縄文時代][弥生時代][古墳時代]住居　[中世]井戸　土坑群　地下式土坑　溝状遺構　堀　[近世]井戸　石組遺構","縄文土器　弥生土器　土製勾玉　土師器　須恵器　砥石　土錘　石製カ帯　石製模造品　陶磁器　カワラケ　瓦　鉄鏃　板碑　ガラス製品　焼塩壺　銭貨",139.754735,35.69037522,TRUE
13101004100,13101,"41","ひらかわちょういせき","平河町遺跡","千代田区 平河町二丁目","[縄文時代][弥生時代][古墳時代][中世][近世]","包蔵地","[中世]地下式土坑","陶磁器",139.7401839,35.67928786,TRUE
13101004200,13101,"42","きおいちょういせき","紀尾井町遺跡","千代田区 紀尾井町","[旧石器時代][縄文時代（早期・中期〜後期）][弥生時代（後期）][中世][近世][近代]","包蔵地・集落・屋敷","土坑　盛土　土手　石組溝　土坑　埋桶　柱穴　石垣遺構（紀州和歌山藩屋敷関係）　石垣　溝","縄文土器　弥生土器　陶磁器　瓦　金属製品　泥人形　間知石　石製品",139.7371627,35.68084957,TRUE
13101004500,13101,"45","ひらかわちょう1-4いせき","平河町1-4遺跡","千代田区 平河町一丁目","[弥生時代（後期）][近世]","集落・町人地跡","[弥生時代]住居　[近世]土坑","弥生土器　陶磁器　獣骨",139.7386046,35.68238336,TRUE
13101004900,13101,"49","いちばんちょういせき","一番町遺跡","千代田区 一番町","[縄文時代][弥生時代][近世]","武家屋敷","[縄文時代]土坑　[弥生時代]方形周溝墓　[近世]建物　土坑　地下室　井戸","縄文土器　弥生土器　陶磁器　瓦　金属製品",139.739685,35.68690979,TRUE
13101005600,13101,"56","さんばんちょういせき","三番町遺跡","千代田区 三番町","[縄文時代（前期・後期）][弥生時代（後期）][近世][近代]","集落・貝塚・屋敷","[縄文時代]貝塚　ピット　住居址　[弥生時代]ピット　住居址　[近世]土坑　溝　地下室　井戸　建物跡","縄文土器　石器（縄文）　耳飾り　弥生土器　石器（弥生）　陶磁器　瓦（近世）　石製品　金属製品（近世）",139.7464141,35.69089728,TRUE
13101007100,13101,"71","","千代田区No.71遺跡","千代田区 千代田","[縄文時代（前期・中期・後期）][弥生時代（後期）][平安時代]","包蔵地","","縄文土器　石器　土錘　土製品　弥生土器　土師器　須恵器",139.7500377,35.68272514,TRUE
13101007800,13101,"78","ふじみにちょうめいせき","富士見二丁目遺跡","千代田区 富士見二丁目","[弥生時代（後期）][近世]","集落・屋敷","[弥生時代]住居址　[近世]土坑　溝","弥生土器　陶磁器類",139.7449565,35.70079368,TRUE
13102007700,13102,"77","こでんまちょうろうやしきあといせき","小伝馬町牢屋敷跡遺跡","中央区 日本橋小伝馬町","[縄文時代(中期〜晩期)][弥生時代(後期)][古墳時代][奈良時代][平安時代][中世][近世]","屋敷","[近世]土坑　礎石　道路状遺構　建物址　建物基礎　石積・石組　埋桝　石組下水　植栽痕　上水桝　上水木樋　竹","陶磁器　木製品　人骨　瓦類　金属製品　土製品　木製品　銭貨　石製品　骨角貝製品　ガラス製品　動植物遺体　縄文土器　土師器（古墳時代、奈良時代　平安時代）　中世土器・陶器　他",139.7774141,35.6911266,TRUE
13103000200,13103,"2","","港区No.2遺跡","港区 南青山二丁目","[縄文時代][弥生時代]","包蔵地・貝塚","","縄文土器　石鏃　弥生土器",139.7220303,35.66494895,TRUE
13103000500,13103,"5","あかさかごようちないいせき","赤坂御用地内遺跡","港区 元赤坂二丁目","[縄文時代][弥生時代][古墳時代]","包蔵地","","縄文土器　弥生土器　土錘　土師器　黒曜石剥片",139.7275235,35.67749979,TRUE
13103002700,13103,"27","","港区No.27遺跡","港区 芝公園四丁目","[弥生時代]","包蔵地","","弥生土器",139.7473987,35.65784737,TRUE
13103002900,13103,"29","こうようかんないかいづかいせき","紅葉館内貝塚遺跡","港区 芝公園四丁目","[縄文時代][弥生時代][古墳時代]","集落・貝塚","住居跡","縄文土器　磨斧　石鏃",139.7454246,35.65865633,TRUE
13103003700,13103,"37","","港区No.37遺跡","港区 六本木六丁目","[弥生時代]","包蔵地","","",139.73168,35.65765368,TRUE
13103005600,13103,"56","かめづかこうえんいせき","亀塚公園遺跡","港区 三田四丁目","[弥生時代（中期〜後期）]","集落","土坑","弥生土器",139.7405892,35.64321646,TRUE
13103006000,13103,"60","いさらごかいづかいせき","伊皿子貝塚遺跡","港区 三田四丁目","[縄文時代（後期）][弥生時代][古墳時代][平安時代][近世]","集落・貝塚・社寺","[縄文時代]住居　土坑　[弥生時代]方形周溝墓　[古墳時代]住居　[平安時代]住居 [近世]礎石　溝状遺構　石垣","縄文土器　弥生土器　土師器　土製品　石製品　貝製品　牛骨　魚骨　陶磁器",139.739954,35.64150056,TRUE
13103006400,13103,"64","たかなわみなみまちいせき","高輪南町遺跡","港区 高輪三丁目","[縄文時代（中期）][弥生時代（後期）][奈良時代][平安時代][中世][近世]","包蔵地・集落・屋敷・その他（道路）","住居跡　炉跡　土坑　道路状遺構　竪穴建物跡　方形周溝墓　焼土廃棄土坑　地下室","[縄文時代][弥生時代][古墳時代]土器　[奈良・平安時代]土師器　須恵器　石器　[近世]陶磁器　土器　金属製品",139.7332249,35.63236242,TRUE
13103006900,13103,"69","きゅうしろがねごりょうちないぶけやしきあといせき","旧白金御料地内武家屋敷跡遺跡","港区 白金台五丁目","[旧石器時代][縄文時代][弥生時代][近世]","包蔵地　武家屋敷","[旧石器時代]礫群[近世]建物　礎石　土坑　地下室　ピット群　土坑　井戸　溝　溝状遺構　土壙墓　石組","[旧石器時代]剥片[縄文時代]縄文土器[弥生時代]弥生土器[近世]陶磁器　土器　土製品　瓦　石製品　金属製品　木製品　ガラス製品　骨製品　玩具　銭貨　動植物遺体",139.719772,35.639008,TRUE
13103007400,13103,"74","がんぎざかうえいせき","雁木坂上遺跡","港区 麻布台一丁目","[弥生時代]","集落","[弥生時代]住居","弥生土器",139.7416274,35.66101389,TRUE
13103007500,13103,"75","みただいまちいせき","三田台町遺跡","港区 三田四丁目","[旧石器時代][縄文時代][弥生時代][古墳時代][奈良時代][平安時代]","集落","[弥生時代]?　住居　[古墳時代]住居","石器　縄文土器　弥生土器　土師器　須恵器",139.7391129,35.64187723,TRUE
13103009900,13103,"99","むつはちのへはんなんぶけやしきあとかそういせき","陸奥八戸藩南部家屋敷跡下層遺跡","港区 六本木一丁目","[縄文時代（前期〜中期）][弥生時代][古墳時代]","集落","[弥生時代]住居　溝","縄文土器　けつ状耳飾　弥生土器　土師器",139.7407608,35.66317679,TRUE
13103010000,13103,"100","","港区No.100遺跡","港区 虎ノ門四丁目","[縄文時代（前期〜後期）][弥生時代][古墳時代][奈良時代][平安時代]","包蔵地","","縄文土器　打斧　磨斧　磨石　弥生土器　土師器　須恵器",139.7431641,35.66505958,TRUE
13103015600,13103,"156","いわみつわのはんかめいけやしきあといせき","石見津和野藩亀井家屋敷跡遺跡","港区 南麻布四丁目","[縄文時代][弥生時代][古墳時代][奈良時代][平安時代][中世][近世]","包蔵地・墳墓・屋敷","土坑　礎石　道路状遺構　大型方形区画　井戸　墳墓","[縄文時代]土器　[中世]陶器　[江]陶磁器　土器　瓦",139.7271824,35.65049816,TRUE
13103015900,13103,"159","みょうげんいんあといせき","妙玄院跡遺跡","港区 高輪三丁目","[弥生時代（後期）][古墳時代][近世]","社寺・集落","土坑　住居跡","[弥生時代]〜[古墳時代]土器　[近世]陶磁器　土器　瓦",139.7308388,35.63159505,TRUE
13104000100,13104,"1","くずがやごりょうじんじゃいせき","葛ヶ谷御霊神社遺跡","新宿区 西落合二丁目","[縄文時代][弥生時代（後期）]","包蔵地","","土器　石器",139.6763314,35.72162653,TRUE
13104000200,13104,"2","おちあいいせき","落合遺跡","新宿区 中落合四丁目　 中井一丁目　 中井二丁目","[旧石器時代][縄文時代（早期〜後期）][弥生時代（後期）][古墳時代][奈良時代][平安時代][近世]","包蔵地・集落・屋敷","[旧石器時代]礫群　[縄文時代]竪穴住居　土坑　炉跡　集石　土器焼成坑　ピット　[弥生時代]竪穴住居　掘立柱建物跡　方形周溝墓　[古墳時代]住居　[奈良時代][平安時代]掘立柱建物　竪穴住居跡　土坑　[近世]杭列　焼土　溝状遺構　ピット　[時期不明]建物　住居　ピット　溝","石器　ナイフ形石器　石核　剥片　砕片　縄文土器　打斧　石槍　石鏃　石核　弥生土器　石包丁　土師器　須恵器　鉄製品　陶磁器　刀子　砥石　坏",139.6805457,35.71627471,TRUE
13104001000,13104,"10","とやまがはらうえのだいいせき","戸山ヶ原上ノ台遺跡","新宿区 百人町四丁目　 北新宿四丁目","[旧石器時代][縄文時代（中期〜後期）][弥生時代（後期）][古墳時代][奈良時代][平安時代]","包蔵地・集落","[旧石器時代]集中地点　[縄文時代]竪穴住居跡　土坑　炉穴　集石　ピット　[古墳時代]竪穴住居跡　住居跡　ピット　[近世]土坑　ピット","ナイフ形石器　角錐状石器　リタッチドフレイク　フレイク　チップ　縄文土器　土偶　土製垂飾品　石器　弥生土器　土師器　　灰釉陶器　鉄器　陶磁器類　煙草吸口　銭貨　笄　ガラス瓶類",139.6947029,35.70849936,TRUE
13104001700,13104,"17","いちがやさどはらちょうさんちょうめいせき","市谷砂土原町三丁目遺跡","新宿区 市谷砂土原町三丁目","[縄文時代（前期、中期、後期）][弥生時代（後期）][古墳時代][奈良時代][近世]","包蔵地・集落・屋敷","[近世]ごみ穴 土坑 土取穴 地下室 井戸 植栽痕 溝状遺構 小穴 建物跡 採土坑 井戸跡 厠跡 貝類集中部 石列","磁器 陶器 せっ器 土器 瓦 土製品 金属製品 木製品 骨角製品 ガラス製品 石製品",139.7368646,35.69725793,TRUE
13104001800,13104,"18","うしごめじょうあといせき","牛込城跡","新宿区 袋町 北町 中町 若宮町","[縄文時代][弥生時代（後期）][古墳時代][中世][近世]","集落・城館・屋敷・その他の墓","[弥生時代]住居跡 [近世]地下室 土坑 井戸 甕埋納遺構 小穴 大型土坑 墓 植栽痕 溝状遺構 礎石","磁器 陶器 せっ器 土器 瓦 土製品 金属製品 石製品 貝類 骨角製品 ガラス製品",139.7380147,35.70067335,TRUE
13104003500,13104,"35","みょうしょうじがわNo.1いせき","妙正寺川No.1遺跡","新宿区 西落合二丁目","[旧石器時代][縄文時代（早期〜後期）][弥生時代（後期）][古墳時代][奈良時代][平安時代][中世][近世]","包蔵地","[旧石器時代]礫群　[縄文時代]土坑　[近世]水田址　井戸状遺構","材　縄文土器　石器　木製品　弥生土器　陶器　磁器　埴輪　土製品　石製品　金属製品　土師器",139.6748036,35.72067884,TRUE
13104004300,13104,"43","ひゃくにんちょうさんちょうめいせき","百人町三丁目遺跡","新宿区 百人町二丁目 百人町三丁目 百人町四丁目 大久保三丁目","[旧石器時代][縄文時代（早期・中期〜後期）][弥生時代（後期）][古墳時代][奈良時代][平安時代][近世]","包蔵地・屋敷","[旧石器時代]土坑 [縄文時代]土坑 [奈良時代]ピット [近世]溝 土坑 焼土集中地点 半地下室 土坑 井戸 小穴 溝状遺構 地下室 柱穴 杭穴 胞衣理納遺構・礎石建物跡","石器 礫 縄文土器 石器 弥生土器 土師器 国分寺瓦片 磁器 陶器 土師質土器 金属製品 石製品 動物遺存体 せっ器 近世土器 瓦 土製品 木製品 石製品 自然遺物 ガラス製品 植木鉢 土製品 骨角製品 火縄銃の弾 美濃系陶器志野 内耳付焙烙",139.7008827,35.7061576,TRUE
13104004900,13104,"49","しもとつかいせき","下戸塚遺跡","新宿区 西早稲田一丁目　 西早稲田三丁目","[旧石器時代][縄文時代（草創期〜後期）][弥生時代（後期）][古墳時代][奈良時代][平安時代][中世][近世]","包蔵地・集落・屋敷","[旧石器時代]石器ブロック　礫群　[縄文時代]土坑　集石遺構　土坑　炉穴　陥坑　[弥生時代]竪穴式住居　環壕　方形周溝墓　土坑　[古墳時代]竪穴式住居跡　土坑　方形周溝墓　円墳　[奈良時代]竪穴式住居　土坑　掘立柱建物跡　溝　[中世]掘立柱建物跡　柵列　井戸　地下式坑　土坑　溝　方形周溝状区画溝　[近世]建物跡　柵列　地下室　井戸　土坑　溝状遺構　竪穴状遺構　畝状遺構　ピット","剥片　礫　縄文土器　石器　弥生土器　ガラス製小玉　青銅製品　土製勾玉　蓑玉　炭化米　金属製品　石製有孔円板　滑石製管玉　石製品　鉄製品　ガラス製品　ベンガラ塊　土師器　須恵器　灰釉　緑釉陶器　砥石　土製品　鉄器　墨書土器　磁器　陶器　瓦器　中世土器　埋納銭貨　青磁　土製品　瓦　木製品　近世土器",139.7169465,35.71088671,TRUE
13104005200,13104,"52","とやまいせき","戸山遺跡","新宿区 戸山一丁目","[縄文時代（早期〜後期）][弥生時代（後期）][奈良時代]","集落","[縄文時代]炉穴　[弥生時代]住居跡　[奈良時代]住居跡　[近世]井戸　杭列","縄文土器　石器　弥生土器　ガラス小玉　土製品　土器　磁器　陶器　近世土器　瓦　銭貨",139.7167062,35.70472568,TRUE
13104006000,13104,"60","あなはちまんじんじゃいせき","穴八幡神社遺跡","新宿区 西早稲田一丁目　 西早稲田二丁目","[旧石器時代][縄文時代（早期〜中期）][弥生時代（後期）][近世]","包蔵地・集落・社寺","[縄文時代]礫群　[弥生時代]住居跡","石器　縄文土器　石器　礫　弥生土器　石鏃　棗玉　転用硯　磁器　陶器　銭貨",139.7176675,35.70731839,TRUE
13104006500,13104,"65","たかだのばばさんちょうめいせき","高田馬場三丁目遺跡","新宿区 高田馬場三丁目","[旧石器時代][縄文時代（早期〜後期）][弥生時代（後期）][古墳時代][奈良時代]","包蔵地・集落","[弥生時代]竪穴住居　竪穴住居跡　[古墳時代]竪穴住居跡　[近世]溝　[時期不明]土坑","剥片　砕片　縄文土器　石器　小銅鐸　管状銅製品　ガラス小玉　土師器　鉄製品　青銅製品",139.6956862,35.7132084,TRUE
13104006600,13104,"66","みなみちょういせき","南町遺跡","新宿区 南町 中町 北町 箪笥町","[縄文時代][弥生時代（後期）][古墳時代][近世]","集落・屋敷","[縄文時代]陥し穴 [弥生時代]竪穴住居跡 小穴 [古墳時代]竪穴住居跡 [近世]溝 地割溝 溝状遺構 井戸 地下室 半地下室 礎石 胞衣処理埋納遺構 土坑 小穴 柱穴 生垣 建物跡 段切状遺構","縄文土器 弥生土器 ガラス小玉 炭化米 種子 磁器 陶器 せっ器 近世土器 瓦 土製品 金属製品（銭貨含む） 木製品 骨角製品 ガラス製品 石製品",139.736599,35.69930264,TRUE
13104006800,13104,"68","きたしんじゅくさんちょうめいせき","北新宿三丁目遺跡","新宿区 北新宿三丁目","[旧石器時代][縄文時代（前期〜中期）][弥生時代（後期）][古墳時代][中世][近世]","包蔵地・集落","[弥生時代]竪穴住居跡　[古墳時代]竪穴住居跡　[中世]地下式壙　土坑　小穴　[近世]地下室　土坑　柱穴　溝","石器　尖頭器　石核　剥片　縄文土器　弥生土器　ガラス小玉　炭化米　古墳土器　ガラス小玉　磁器　陶器　せっ器　近世土器　瓦　金属製品",139.689965,35.70440123,TRUE
13104007300,13104,"73","つくどはちまんちょういせき","筑土八幡町遺跡","新宿区 筑土八幡町　 白銀町","[縄文時代（早期〜晩期）][弥生時代（後期）][古墳時代][奈良時代][平安時代][中世][近世]","包蔵地・屋敷","[中世]井戸　土坑　[近世]建物跡　井戸　地下室状遺構　ごみ穴　溝状遺構　杭列　土坑　小穴　柱穴　井戸状遺構　桶埋設遺構　礎石　柱穴列　井戸跡　埋桶　胞衣皿埋納遺構　粘土採掘坑　[江戸時代以前]住居跡　溝状遺構　土坑","縄文土器　石器　弥生土器　土師器　須恵器　板碑　磁器　陶器　せっ器　近世土器　瓦　土製品　金属製品　木製品　骨角製品　ガラス製品　石製品　中世陶磁器",139.739444,35.70358792,TRUE
13104007900,13104,"79","ひゃくにんちょうさんちょうめにしいせき","百人町三丁目西遺跡","新宿区 百人町三丁目 北新宿四丁目","[旧石器時代][縄文時代（草創期〜後期）][弥生時代（後期）][古墳時代][奈良時代][平安時代][近世]","包蔵地・集落","[旧石器時代]土坑 炉穴 土坑 石器・礫集中 [縄文時代]土坑 陥し穴 ピット [古墳時代]住居跡 井戸 土坑 ピット 掘立柱建物跡 土師器焼成坑 [平安時代]住居跡 土師器焼成坑 掘立柱建物跡 [古墳時代]〜[中世]住居跡・土坑 ピット [近世]畝跡 井戸 土坑 溝 ピット [弥生時代]〜[古墳時代]住居跡","礫 石器 縄文土器 弥生土器 土製品 石製品（砥石） ガラス小玉 土師器 須恵器 古墳土器 土師器 土製品（支脚） 鉄製品（刀子・鏃・鉄錐等） 墨書土器 灰釉陶器 磁器 陶器 近世土器 せっ器 金属製品 土製品 土器（台付甕・台付甕小・甕・壷・高杯）",139.6947029,35.70590669,TRUE
13104008000,13104,"80","にしわせださんちょうめいせき","西早稲田三丁目遺跡","新宿区 西早稲田三丁目 高田馬場二丁目","[旧石器時代][縄文時代（早期〜後期）][弥生時代（後期）][古墳時代][近世]","包蔵地・集落・屋敷","[旧石器時代]石器ブロック 礫群 [縄文時代]集石 集石土坑 住居跡 [弥生時代]竪穴住居跡 [弥生時代][古墳時代]住居跡 掘立柱建物跡 方形周溝墓 溝状遺構 土坑 [古墳時代]住居跡 掘立柱建物跡 土坑 竪穴式住居跡 [近世]地下室 溝状遺構 土坑","石器 礫 縄文土器 弥生土器 ガラス製品 壷棺 鉄釧 土師器 須恵器 土製品 石製品 鉄製品 古墳土器 磁器 陶器 金属製品 骨製品 木製品 せっ器 近世土器",139.7115907,35.71294957,TRUE
13104008500,13104,"85","おわりとくがわけしもやしきあといせき","尾張徳川家下屋敷跡","新宿区 戸山一丁目　 戸山二丁目　 戸山三丁目","[旧石器時代][縄文時代（早期〜後期）][弥生時代（後期）][古墳時代][奈良時代][平安時代][近世]","包蔵地・屋敷","[弥生時代]?[平安時代]畦畔状遺構　木道状遺構　流路跡　[中世][近世]水田跡　丸木橋状遺構　[近世]石組遺構　「御泉水」の土手　溝","石器　縄文土器　土器　須恵器　土師器　磁器　陶器　金属製品　銭貨等　磁器　陶器　金属製品　銭貨　木製品　煙管　板状部材　せっ器　近世土器　瓦",139.7134789,35.7040287,TRUE
13104009800,13104,"98","にしわせだいっちょうめいせき","西早稲田一丁目遺跡","新宿区 西早稲田一丁目","[縄文時代][弥生時代（後期）][近世]","包蔵地","","",139.7185258,35.70982738,TRUE
13104010100,13104,"101","ぎょうがんじあと","行元寺跡","新宿区 神楽坂五丁目","[旧石器時代][縄文時代（早期〜後期）][弥生時代（後期）][古墳時代][平安時代][中世][近世]","包蔵地・社寺","[旧石器時代]礫群　[縄文時代]遺物集中部　[古墳時代]竪穴住居跡　[平安時代]竪穴住居跡　[中世]地点貝塚　[中世][近世]土壙墓　板碑集中壙　方形区画溝・溝状遺構　建物跡　竹樋　地下室・室状遺構　井戸・井戸状遺構　水溜状遺構　池跡?　ごみ穴　方形土坑　石列　埋桶　埋甕　胞衣埋納遺構　胎児埋葬遺構　イヌ埋葬遺構","石器　礫　縄文土器　石器　弥生土器　土師器　須恵器　磁器　陶器　せっ器　土器　瓦　土製品　金属製品　木製品　骨角製品　ガラス製品　石製品（板碑等）",139.7391693,35.70264002,TRUE
13104010700,13104,"107","きたしんじゅくにちょうめいせき","北新宿二丁目遺跡","新宿区 北新宿一丁目 北新宿二丁目","[旧石器時代][縄文時代（早期〜後期）][弥生時代（後期）][古墳時代]","包蔵地・集落","[旧石器時代]礫群 石器集中部 [縄文時代]炉穴 埋甕 土坑 竪穴住居跡 柱穴 根穴 [弥生時代]竪穴住居跡 炉穴 柱穴 土坑 方形周溝墓 溝跡 住居跡 [弥生〜古墳時代]竪穴住居跡 掘立柱建物跡 [古墳時代]竪穴住居跡 [近世]柱穴","ナイフ形石器 石核 剥片 石器 自然遺物 縄文土器 石器 弥生土器 土製品 石製品（砥石） 銅製品（銅釧） 土師器 磁器 陶器 せっ器 土器 瓦 金属製品 ガラス玉 銭貨",139.6900837,35.70114116,TRUE
13104013800,13104,"138","しろがねちょうにしいせき","白銀町西遺跡","新宿区 白銀町 赤城元町","[縄文時代][弥生時代（後期）][古墳時代][奈良時代][中世][近世]","集落・屋敷","[弥生時代]〜[古墳時代]住居跡 溝状遺構 方形周溝墓 土坑 [奈良時代]住居跡 [近世]地下室 土坑 井戸 溝 柱穴 甕棺 蔵骨器","弥生土器 土師器 須恵器 磁器 陶器 せっ器 近世土器 瓦 土製品 金属製品 骨角製品 石製品 古墳土器",139.7374699,35.70457764,TRUE
13104015200,13104,"152","たかだのばばさんちょうめみなみいせき","高田馬場三丁目南遺跡","新宿区 高田馬場三丁目","[弥生時代（後期）][近世]","包蔵地・集落","[弥生時代]竪穴住居　[不明]土坑　[近世]溝","弥生土器",139.6955489,35.71175883,TRUE
13104015800,13104,"158","しもおちあいにちょうめいせき","下落合二丁目遺跡","新宿区 下落合二丁目","[旧石器時代][縄文時代][弥生時代][古墳時代]","包蔵地","","",139.7039383,35.71780997,TRUE
13105000900,13105,"9","きたのじんじゃいせき","北野神社遺跡","文京区 春日一丁目","[弥生時代][近世]","包蔵地","","墓石　陶磁器類",139.74685,35.70742747,TRUE
13105001000,13105,"10","かすがにちょうめいせき","春日二丁目遺跡","文京区 春日二丁目","[弥生時代][近世]","包蔵地・屋敷","[近世]地下室　土坑","弥生土器　近世陶磁器",139.7415629,35.71266837,TRUE
13105001100,13105,"11","でんづういんうらかいづか","伝通院裏貝塚","文京区 小石川三丁目","[縄文時代][弥生時代][古墳時代][近世]","包蔵地・集落・貝塚?・社寺・屋敷","[弥生時代]?[古墳時代]堅穴住居跡　土坑　ピット　[近世]地下室　土坑　井戸　溝　焼土集中部　小穴","（縄文〜古代）土器　（古墳）土師器　（近世）陶磁器・せっ器・土器・土製品・瓦・木製品",139.7466784,35.71247324,TRUE
13105001400,13105,"14","どうざかいせき","動坂遺跡","文京区 本駒込三丁目　本駒込四丁目","[旧石器時代][縄文時代（中期〜晩期）][弥生時代][近世]","包蔵地・集落・貝塚・屋敷","[縄文時代]貝塚　堅穴住居跡　集石跡　土坑　溝　[近世]地下室　溝　柱穴","（縄文）土器・石器（打製石器・磨製石器・石鏃・石皿・）　（弥生）土器　（近世）陶磁器・土器・瓦・金属製品・土製品・石製品など",139.7560854,35.72972681,TRUE
13105001600,13105,"16","かみふじまえちょういせき","上富士前町遺跡","文京区 本駒込五丁目　本駒込六丁目","[縄文時代][弥生時代][古墳時代][奈良時代][平安時代][近世]","包蔵地・集落","[縄文時代]陥穴　[弥生時代]竪穴住居跡　[古墳時代]?[古代]住居跡　[近世]植物痕　土坑　地下室　井戸","縄文土器　弥生土器　瓦　金属器　近世陶磁器",139.7500408,35.73322968,TRUE
13105001800,13105,"18","さすがやちょういせき","指ヶ谷町遺跡","文京区 白山二丁目","[縄文時代][弥生時代][近世]","包蔵地・屋敷","[近世]地下坑　地下室　井戸　土坑","磨製石斧　（縄文〜弥生）土器　（近世）磁器・陶器・土器・陶磁器",139.7501116,35.71754657,TRUE
13105002500,13105,"25","せんだぎかいづか","千駄木貝塚","文京区 千駄木一丁目","[旧石器時代][縄文時代][弥生時代（後期）][近世]","集落・貝塚・その他の墓・屋敷","[縄文時代]炉　土坑　住居　集石　炉　廃屋跡　[弥生時代]住居","（縄文）土器・石器・石製品・人骨　（弥生）土器　（近）陶磁器",139.758987,35.722748,TRUE
13105002600,13105,"26","はやしちょういせき","林町遺跡","文京区 千石二丁目","[旧石器時代][縄文時代（中期）][弥生時代][奈良時代][近世]","包蔵地・集落・屋敷","[縄文時代]炉穴 土坑 ピット　[近世]地下室 地下坑 井戸 溝状遺構 土坑 植栽痕 柱穴ピット","（旧石器）石器（剥片）（縄文）縄文土器・石器　（弥生）弥生土器　（近世）陶磁器類・せっ器・土器・土製品・木製品・金属製品・石製品",139.7412882,35.72300979,TRUE
13105002800,13105,"28","やよいちょういせきぐん","弥生町遺跡群","文京区 弥生二丁目　根津一丁目","[縄文時代][弥生時代][近世]","貝塚","","",139.7641535,35.71590195,TRUE
13105002801,13105,"28-1","やよいちょうかいづか","弥生町貝塚","文京区 弥生二丁目","[縄文時代][弥生時代]","貝塚","","縄文土器　打斧　磨斧　石鏃　土製耳飾　石棒　弥生土器",139.7618189,35.7184943,TRUE
13105002803,13105,"28-3","やよいにちょうめいせき","弥生二丁目遺跡","文京区 弥生二丁目","[縄文時代（早期〜晩期）][弥生時代][近世]","貝塚","※一部、国指定史跡弥生二丁目遺跡となっています。 [弥生時代]溝","縄文土器　弥生土器　燈明皿　砥石　灼骨",139.7645655,35.7167382,TRUE
13105002804,13105,"28-4","","文京区No.28-D遺跡","文京区 弥生二丁目","[弥生時代]","包蔵地","","弥生土器",139.7656641,35.71489844,TRUE
13105003200,13105,"32","ほんごうもとまちきたいせき","本郷元町北遺跡","文京区 本郷一丁目","[縄文時代][弥生時代（中期）][近世]","包蔵地・集落・屋敷","","縄文土器",139.7560854,35.70383111,TRUE
13105003300,13105,"33","ゆみちょういせき","弓町遺跡","文京区 本郷一丁目","[旧石器時代][縄文時代][弥生時代（後期）][奈良時代][平安時代][中世][近世]","包蔵地・集落・屋敷","[奈良時代]堅穴住居　[近世]地下室　井戸　土坑","縄文土器・敲石　土器・陶磁器・金属器　（奈良）土師器・須恵器　（近世）陶磁器・土器",139.7564631,35.70617294,TRUE
13105004700,13105,"47","ほんごうだいいせきぐん","本郷台遺跡群","文京区 本郷五丁目　本郷七丁目　弥生二丁目","[旧石器時代][縄文時代][弥生時代][古墳時代][平安時代][近世]","包蔵地・集落・貝塚・その他の墓・社寺・屋敷・その他（町屋）","[旧石器時代]石器ブロック　礫群　[縄文時代]遺物集中部　陥穴　[古墳時代]住居跡　[平安時代]住居跡　井戸　[近（近世）]地下式坑　建物跡　組石遺構　土坑　溝　庭園址　井戸　道路状遺構など","（旧石器）ナイフ形石器・石核・剥片・石屑　砕片　（縄文）土器・石器　（弥生）土器　（古墳）土師器・土製品・須恵器　（奈良）土師器・須恵器　（平安）土師器・須恵器・灰釉陶器・緑釉陶器・土錘　（近世）陶磁器・土器・瓦・土製品・石製品・金属製品・古銭・骨角製品・動物遺存体・せっ器・瓦器・ガラス製品・木製品",139.7634819,35.71205684,TRUE
13105004800,13105,"48","かすがちょう（こいしかわこうらくえん）いせき","春日町（小石川後楽園）遺跡","文京区 後楽一丁目　 春日一丁目","[旧石器時代][縄文時代][弥生時代][古墳時代][平安時代][近世]","包蔵地・集落・屋敷","[弥生～古墳]竪穴建物跡、土坑、ピット、[近世]井戸、道路、木樋、柱穴、上水道、土坑、屋敷跡、地下室、溝、礎石、植栽痕、[近代]煉瓦基礎、堀、石垣、[近代以降]高射砲陣地関連以降","[旧石器]ナイフ形石器、[縄文]土器、[弥生]土器、石器、[古墳～平安]土師器、須恵器、[近世]磁器、陶器、土器、瓦、木製品、金属製品、ガラス製品、石製品、漆製品、銭貨動物遺存体、[近代]煉瓦",139.7507982,35.70558749,TRUE
13105005000,13105,"50","","文京区No.50遺跡","文京区 春日一丁目","[旧石器時代][弥生時代（後期）][近世]","包蔵地・屋敷・その他（町屋）","[近世]井戸跡　地下室　土坑　ピット　胞衣皿埋納遺構　植栽痕　井戸","（旧石器）石器　（弥生）土器　（近世）陶磁器・土器・瓦・金属製品など",139.7468157,35.70915589,TRUE
13105005100,13105,"51","まさごちょう（まさご）いせき","真砂町（真砂）遺跡","文京区 本郷四丁目","[旧石器時代][縄文時代（早期〜後期）][弥生時代][古墳時代][奈良時代][平安時代][中世][近世]","集落・屋敷","[縄文時代]炉穴　[奈良平安時代]住居跡　柱穴　土坑　[近世]上水道　井戸　地下室","縄文土器　土師器　須恵器　陶磁器類",139.7560167,35.70843107,TRUE
13105005800,13105,"58","ほんごうもとまちいせき","本郷元町遺跡","文京区 本郷一丁目","[縄文時代（前期～中期）][弥生時代][古墳時代][奈良時代][平安時代][中世][近世]","包蔵地・集落・屋敷","[近世・近代以降]井戸　地下式坑　土坑　柱穴群　礎石群　溝状遺構　下水施設　池　レンガ遺構　互列遺構　[近世以降]桶　土坑　溝　礎石など　[近世]地下式坑","(旧石器)ナイフ形石器など　(縄文)土器　石器　(弥生)扁平片刃石斧　土器　(古墳)土師器　須恵器　(奈良・平安)土師器　須恵器　(中世)陶器　(近世)磁器　陶器　炻器　土器　互　金属製品　石製品　土製品　木製品　自然遺物　その他",139.7568407,35.70266017,TRUE
13105007300,13105,"73","こひなただいまちみなみいせき","小日向台町南遺跡","文京区 小日向一丁目","[旧石器時代][縄文時代][弥生時代][奈良時代][中世][近世]","包蔵地・集落・屋敷","[縄文時代]陥穴　[弥生時代]竪穴住居跡　[奈良時代]竪穴住居跡　[中世]井戸 土坑墓　[近世]地下室 井戸","(旧石器)石器　(縄文)土器　(弥生)土器　(奈良)土師器 須恵器　(近世)陶磁器 土器",139.7361727,35.71261262,TRUE
13105007400,13105,"74","たつおかちょういせき","龍岡町遺跡","文京区 湯島四丁目　本郷七丁目","[縄文時代（前期・後期）][弥生時代][平安時代][近世]","集落・屋敷","[平安時代]住居　[近世]土坑　地下室　井戸","縄文土器　弥生土器　土師器　須恵器　陶磁器　土器　瓦　土錘",139.7655954,35.70937891,TRUE
13105008400,13105,"84","はくさんごてんまちいせき","白山御殿町遺跡","文京区 白山四丁目","[縄文時代][弥生時代][近世]","集落・屋敷","住居跡　土坑　溝跡","土器　陶磁器類",139.7480173,35.71907965,TRUE
13105008600,13105,"86","おおつかまちいせき","大塚町遺跡","文京区 大塚一丁目　大塚二丁目","[縄文時代][弥生時代][近世]","包蔵地・集落・社寺・屋敷・その他（町屋）","[縄文時代]土坑　[古墳時代]溝　[近世]溝　土坑（一部墓壙）　植栽痕　土坑　溝状遺構　地下室","（縄文）土器・石器　（弥生）土器　（古代）土師器・須恵器　（近世）人骨・陶磁器・せっ器・土器・金属製品・銭貨・瓦・瓦器・土製品・石製品など",139.7316065,35.7184943,TRUE
13105009100,13105,"91","はらまちひがしいせき","原町東遺跡","文京区 白山五丁目","[弥生時代（後期）][古墳時代][近世]","包蔵地・屋敷","竪穴式住居跡","弥生式土器　土師器　近世陶磁器",139.7488931,35.72280939,TRUE
13105009500,13105,"95","かなとみちょうきたいせき","金富町北遺跡","文京区 春日二丁目","[縄文時代（早期・後期）][弥生時代（後期）][近世]","屋敷","[近世]地下室・土坑・井戸","縄文土器　弥生土器　近世陶磁器",139.7420778,35.71194359,TRUE
13105009700,13105,"97","だんござかうえいせき","団子坂上遺跡","文京区 千駄木一丁目　千駄木三丁目　千駄木五丁目","[旧石器時代][縄文時代（中期）][弥生時代（中期）][平安時代][近世]","包蔵地・集落・社寺・屋敷・その他（町屋）","[旧石器時代]遺物集中部　[縄文時代]堅穴住居跡　土坑　溝　埋甕　[弥生時代]堅穴住居跡　溝　溝状遺構　環濠　[平安]竪穴住居跡　溝　[近世]地下室　土坑　礎石　大型土坑　ピット　[近世以降]版築基礎建物跡　掘立柱建物跡　礎石　地下室　土坑　ピット群","（旧石器）ナイフ形石器・石核　（縄文）土器・土製品・石器・炉石　（弥生）土器・石器　（平安）土師器・須恵器・鉄製品・鉄滓　（近世）陶磁器・せっ器・土器・瓦・土製品・銅製品・鉄製品・貝・金属製品・木製品・石製品など",139.7612503,35.72554791,TRUE
13105010100,13105,"101","","文京区No.101遺跡","文京区 春日二丁目","[弥生時代][近世]","包蔵地・屋敷","[近世]地下室　土坑　溝","縄文土器　弥生土器　近世陶磁器",139.7416659,35.71314227,TRUE
13105010200,13105,"102","","文京区No.102遺跡","文京区 本駒込五丁目","[縄文時代][弥生時代][近世]","包蔵地・屋敷","[近世]地下室　土坑","縄文土器　近世陶磁器",139.7498026,35.73220723,TRUE
13105010300,13105,"103","ほんごういっちょうめみなみいせき","本郷一丁目南遺跡","文京区 本郷一丁目","[旧石器時代][縄文時代][弥生時代][古墳時代][奈良時代][平安時代][近世]","包蔵地・集落・屋敷","[縄文時代]住居　[弥生時代]住居　[古墳時代]住居　[近世]地下室　溝　井戸","石器　縄文土器　弥生土器　須恵器　土師器　近世陶磁器",139.7564974,35.70341292,TRUE
13105011500,13105,"115","かすがにちょうめにしいせき","春日二丁目西遺跡","文京区 春日二丁目","[旧石器時代][縄文時代][弥生時代][古墳時代][奈良時代][中世][近世]","包蔵地・集落・屋敷","[旧石器時代]遺物集中部　[縄文時代]炉穴　集石　陥穴　土坑　[弥生時代]土坑　[古墳時代]土坑　[中世]溝　道路状遺構（溝）　土塁状盛土　[近世]谷埋立造成　土手状遺構　溝　砂利敷き　井戸　礎石　礎石跡　地下室　土坑","（旧石器）剥片　（縄文）土器・石製装身具　（弥生）土器　（古墳〜古代）土師器・須恵器　（中世）陶磁器・土器・板碑・銭貨　（近世以降）陶磁器・土器・土製品・金属製品・銭貨・石製品・瓦・ガラス製品",139.7410479,35.71146969,TRUE
13105011700,13105,"117","せんだぎごちょうめいせき","千駄木五丁目遺跡","文京区 千駄木五丁目","[縄文時代（中期）][弥生時代（後期）][近世]","その他（町屋）","[近世]大型土坑　土坑　ピット","（縄文）土器　（弥生）土器　（近世）陶磁器・瓦",139.7595337,35.72526919,TRUE
13105012600,13105,"126","こいしかわしょくぶつえんみなみいせき","小石川植物園南遺跡","文京区 白山三丁目","[旧石器時代][縄文時代][弥生時代][中世][近世]","包蔵地","[近世]地下室　土取り穴　土坑　井戸　溝状遺構","石器　縄文土器　弥生土器　陶器　磁器　近世土器　土製品　瓦　金属製品　石製品",139.747262,35.71802044,TRUE
13105012900,13105,"129","こひなたいっちょうめひがしいせき","小日向一丁目東遺跡","文京区 小日向一丁目","［縄文時代］［弥生時代］［古墳時代］［奈良時代］［平安時代］［中世］［近世］","包蔵地・集落・その他の墓・屋敷","［縄文時代］ファイヤーピット?　［弥生時代］?［古墳時代］竪穴住居跡　［奈良時代］［平安時代］竪穴住居跡　土坑　［近世］地下室　溝状遺構　土坑　柱穴","［縄文時代］土器片　［弥生時代］土器片　［奈良時代］［平安時代］土師器　須恵器　石製品　［近世］陶磁器　土器　瓦　石製品　金属製品　土製品　炉器",139.7382326,35.71367191,TRUE
13105013100,13105,"131","こいしかわさんちょうめひがしいせき","小石川三丁目東遺跡","文京区 小石川三丁目","［縄文時代（早期・中期）］［弥生時代］[古墳時代][奈良時代]［近世］","包蔵地・集落・その他の墓・社寺・町家","[古墳?奈良時代]竪穴建物跡 溝 小穴［近世］埋甕 土坑 溝 井戸 植栽痕 小穴 土坑 根石 杭 埋桶 筏地業木組み","［縄文時代］土器　黒曜石剥片　［弥生時代］土器　［奈良時代］［平安時代］土師器 須恵器 土製品　［近世］陶磁器　土器　炉器 瓦 土製品 金属製品",139.7500773,35.71286351,TRUE
13105013800,13105,"138","こいしかわいっちょうめいせき","小石川一丁目遺跡","文京区 小石川一丁目","[縄文時代][弥生時代][古墳時代][奈良時代][平安時代][中世][近世]","屋敷　その他（水田跡）","[弥生]流路　木組遺構　溝状遺構　[古墳]溝状遺構　土坑　[奈良・平安]溝状遺構　土坑　[中世]流路　溝　水田跡　[近世]土坑　溝状遺構　井戸　上水施設　池跡　ピット　水田跡　区画溝　排水溝","[縄文]土器　[弥生]土器　石器　木製品　加工材　構造物部材　大型植物遺体　[古墳]土師器　木製品　構造物部材　[奈良・平安]土師器　須恵系土師質土器　須恵器　[中世]土器　陶器　[近世]磁器　陶器　炻器　土器　互　土製品　金属製品　木製品(繊維製品)　骨角貝製品　ガラス製品　石製品　自然遺物　土類",139.7524462,35.710494,TRUE
13106000401,13106,"04-1","うえのしのぶがおかいせきぐん","上野忍岡遺跡群","台東区 上野公園　上野二丁目　池之端三丁目","[旧石器時代][縄文時代（早期〜晩期）][弥生時代（後期）][古墳時代][奈良時代][平安時代][中世][近世][近代]","包蔵地・集落・社寺・屋敷・その他の墓・その他（花卉園）","[近世]建物跡　池跡","ナイフ形石器　細石刃　剥片　縄文土器　石器　弥生土器　土師器　須恵器　埴輪　陶器（灰釉）　紡錘車　帯金具　陶磁器　焼塩壺　硯　煙管　木製品　和釘　ガラス製品　瓦塔　瓦　墨書付絹布　簪　笄　数珠玉　小形巻物　甕棺　木棺　墓石　石造物　板碑　人骨",139.7736828,35.71547164,TRUE
13106000407,13106,"04-7","うえのしのぶがおかいせきぐん","上野忍岡遺跡群","台東区 谷中七丁目　上野桜木二丁目","[縄文時代][弥生時代][古墳時代][奈良時代][平安時代][近世]","包蔵地・集落・社寺","[奈良・平安]住居跡　[近世]溝状・道路状遺構　瓦溜　土坑","[縄文・弥生〜古墳]土器　[奈良・平安]土師器、須恵器　[近世]陶磁器、土器、金属製品",139.7724904,35.72336676,TRUE
13106000408,13106,"04-8","うえのしのぶがおかいせきぐん","上野忍岡遺跡群","台東区 上野桜木一丁目","[旧石器時代][縄文時代][弥生時代][古墳時代][奈良時代][平安時代][中世][近世]","包蔵地・集落・社寺","","旧石器時代石器　古墳時代　土師器・石製品（玉類他）　奈良・平安時代　土師器・須恵器　中世陶磁器　近世陶磁器・瓦",139.7754773,35.72326921,TRUE
13106000412,13106,"04-2","うえのしのぶがおかいせきぐん","上野忍岡遺跡群","台東区 谷中七丁目","[縄文時代][弥生時代][奈良時代][平安時代][近世]","包蔵地・集落・社寺","[弥生時代]溝・住居跡","縄文弥生土器・須恵器　近世陶磁器",139.7730448,35.72482681,TRUE
13106000600,13106,"6","しんざかかいづか","新坂貝塚","台東区 上野桜木一丁目　上野公園","[縄文時代（後期）][弥生時代（後期）]","貝塚","","縄文土器　磨斧　貝輪　弥生土器",139.7788419,35.719799,TRUE
13106000801,13106,"08-1","せんそうじいせき","浅草寺遺跡","台東区 浅草一丁目　浅草二丁目","[縄文時代（晩期）][弥生時代][奈良時代][平安時代][中世][近世][近代]","包蔵地・集落・社寺・その他（火除地・公園地）","練塀跡　溝跡　火葬墓　井戸　杭列　池跡　井戸跡　土坑　貝殻廃棄　大型土坑　池跡（護岸・中ノ島・築堤・橋）","縄文式土器　弥生式土器　須恵器　布目瓦　中世軒瓦　陶器　古銭　（奈良）鉄鉢形土器・花瓶　（平安）灰釉水瓶　（鎌倉）灰釉土器　錫杖　光背　観音像　（古代）土師器　須恵器　（中世）瓦・陶磁器・土器・蔵骨器・板碑　（近世）陶磁器・瓦・ガラス絵　（近代）陶磁器、金属　ガラス　革製品",139.794425,35.7116722,TRUE
13106001900,13106,"19","いけのはたしちけんちょういせき","池之端七軒町遺跡","台東区 池之端二丁目","[縄文時代][弥生時代][古墳時代][近世]","包蔵地・社寺・屋敷","建物基礎　基擴　井戸跡　土坑　井戸　基礎桶　植栽痕　竹桶　埋甕　道跡　地下式坑　井戸跡　溝　包衣　埋納遺講　土蔵址　上水施設　石礎　硬化面　石敷　瓦敷","弥生土器　土師　陶器　磁器　土器　木　金属　石製品　石造物　部材　陶磁器　瓦　土器　木製品　金属製品　石製品　ガラス",139.7670473,35.71425123,TRUE
13106003100,13106,"31","やなかしみずちょういせき","谷中清水町遺跡","台東区 池之端四丁目","[弥生時代][古墳時代][奈良時代][平安時代][近世]","包蔵地・集落・屋敷","[古墳時代]大溝　[近世]土坑　建物跡　柱穴　植栽痕　井戸　待避壕","（古代）土師器・須恵器　（近世）陶磁器",139.7688154,35.7186694,TRUE
13106003500,13106,"35","かやちょういせき","茅町遺跡","台東区 池之端一丁目","[縄文時代（早期・後～晩期）][弥生時代(後期)][古墳時代][奈良時代][平安時代][近世][近代]","包蔵地・集落・屋敷・その他（邸宅）","[縄文]炉穴、[古墳]貝、廃棄土坑、[平安]住居跡、[近世]石組、井戸跡、溝、地下式坑、[近代]煉瓦基礎","[縄文]土器、石器、[古墳]土師器、須恵器、貝、[近世]陶磁器、土器、瓦、金属、石製品、木製品、[近代]煉瓦、ガラス製品",139.7674765,35.7095401,TRUE
13106007200,13106,"72","やなかしもさんさきいせき","谷中下三崎遺跡","台東区 谷中五丁目","[縄文時代][弥生時代（後期）][奈良時代][平安時代][中世][近世]","包蔵地・集落・社寺・屋敷","[縄文時代]土坑　溝　[中世]土坑　[近世]土坑　地下式坑　井戸　溝　植栽痕　礎石　基礎","（縄文）土器　（弥生）土器　（古代）須恵器　土師器　（中世末）陶磁器　土器・瓦　金属製品　石製品等　（近世）陶磁器・土器・瓦・木製品・金属製品・石製品等",139.7671911,35.72509159,TRUE
13106007500,13106,"75","かやちょうにちょうめいせき","茅町二丁目遺跡","台東区 池之端一丁目","[縄文時代][弥生時代][古墳時代][奈良時代][平安時代][中世][近世]","包蔵地・社寺・屋敷・その他（町屋）","[近世]土坑　瓦溜　地下式坑　井戸　石組溝　溝　池　埋甕　埋桶　ピット　植栽　石列　敷石","（縄〜中）縄文土器・弥生土器・土師器・中世陶器・板碑等　（近世）陶磁器・土器・瓦・木製品・金属製品・石製品等",139.7676138,35.71128241,TRUE
13106011600,13106,"116","みよしちょういせき","三好町遺跡","台東区 蔵前二丁目","[弥生時代][古墳時代][奈良時代][平安時代][中世][近世]","包蔵地・集落・その他の墓・その他（町屋）","[古墳時代]掘立柱建物　土坑　ピット　[中世]柵列　ピット　土坑　[近世]地下室　土坑　井戸　溝　石組水路　礎石列　ピット","（古）土師器・須恵器・土製品　（中世）陶器・土器・銭　（近世）陶磁器・土器・瓦・土製品・金属製品・木製品・骨角製品・ガラス・石製品・自然遺物等",139.7933607,35.70427062,TRUE
13109000400,13109,"4","いけだやまきたいせき","池田山北遺跡","品川区 東五反田五丁目","[縄文時代（早期〜中期）][弥生時代（後期）]","包蔵地・貝塚・集落","[縄文時代（早期〜前期）]住居址　炉跡　貝層　[縄文時代]住居跡　炉跡　土坑　[縄文時代（前期）]〜[弥生時代（後期）]竪穴式住居　土坑　[弥生時代]住居跡　炉跡　土坑　溝　[古墳時代]住居跡　土坑","縄文土器　打斧　磨斧　石皿　けつ状耳飾　弥生土器　磁器　燈明皿　擂鉢　動物遺体　打製石斧　耳飾　土器　土師器　石製耳飾",139.7229069,35.63109445,TRUE
13109000800,13109,"8","ごてんやまいせき","御殿山遺跡","品川区 北品川五丁目","[縄文時代（前期）][弥生時代][古墳時代][近世]","包蔵地","[弥生]住居跡、土坑、方形周溝墓、[古墳]住居跡、土坑、炉穴、溝、[近世]地下室、ピット、土坑、井戸、用途不明遺構","[縄文]土器、石器、[弥生]土器、[古墳]土師器、須恵器、[近世]陶磁器、土器、瓦",139.7337182,35.62050855,TRUE
13109001000,13109,"10","いるきばしいせき","居木橋遺跡","品川区 大崎二丁目","[縄文時代（早期〜後期）][弥生時代][中世]","集落跡・貝塚","[縄文時代]住居　土坑　ピット　[中世]溝","縄文土器　打斧　磨斧　石皿　耳飾　石棒　骨角製釣針　鯨骨製棒状骨角器　獣魚骨　弥生土器　抉入石斧　陶磁器　動物遺体",139.7245685,35.61720399,TRUE
13110000300,13110,"3","ひかわいせき","氷川遺跡","目黒区 大橋二丁目","［旧石器時代］[縄文時代（早期〜後期）][弥生時代（前期〜後期）][古墳時代][奈良時代][平安時代][中世][近世]［近代］","集落 その他（軍施設）","[縄文時代]土坑　小穴　炉穴　陥穴　[弥生時代〜古墳時代]竪穴住居跡　堀立柱建物跡　土坑　小穴　[平安時代]火葬墓　溝　[近世]溝　土坑　小穴　［近代］煉瓦構造物","縄文土器　剥片　打製石斧　石鏃　スタンプ形石器　磨石　石皿　弥生土器　弥生時代末〜古墳時代初期土器　金属製品　土製品　奈良時代須恵器　平安時代土器　瓦　板状鉄製品　中近世陶磁器　釘　鎹　銭貨　近代陶磁器　ガラス製品　金属製品　銭貨　?　煉瓦",139.6875316,35.65337917,TRUE
13110000800,13110,"8","ひがしやまかいづかいせき","東山貝塚遺跡","目黒区 東山二丁目　東山三丁目","[旧石器時代][縄文時代（早期〜晩期）][弥生時代（後期）][古墳時代][平安時代][中世][近世][近代]","集落　貝塚　その他（軍施設）","[旧石器時代]礫群　石器ブロック　[縄文時代]竪穴住居跡　土坑　土壙　土器埋設遺構　落し穴　木杭列　植物遺存体集中　小穴　柱穴群　[弥生時代]竪穴住居跡　溝　土坑　[古墳時代]土坑　[中世]溝　[近世]溝　土坑　［近代］地下式遺構　煉瓦構造物　溝","縄文土器　土偶　土製円盤　土器片錘　打製石斧　磨製石斧　弥生土器　古墳時代土器　陶磁器　細石刃　尖頭器　剥片　角錐状石器　削器　石鏃　敲石　石皿　垂飾　掻器　凹石　磨石　砥石　スタンプ形石器　石剣　石錐　石棒　土版　土製勾玉　耳栓　土錘　土玉　弭形角製品　ヤス状刺突具　骨針　浮子 （平安時代）　瓦　（近代）陶磁器　ガラス製品　鉄製品",139.6866739,35.64782322,TRUE
13110000900,13110,"9","からすもりいせき","烏森遺跡","目黒区 上目黒三丁目","[縄文時代（中期〜後期）][弥生時代（後期）]","集落","[縄文時代]竪穴住居跡　[弥生時代]環濠","縄文土器　打製石斧　磨製石斧　石槍　石錐　石錘　石槌　石皿　凹石　石鏃　敲石　弥生土器　土製品　軽石　被熱粘土塊",139.6915834,35.64333137,TRUE
13110001100,13110,"11","しょうがくじまえいせき","正覚寺前遺跡","目黒区 中目黒一丁目　中目黒三丁目　上目黒一丁目　上目黒二丁目","[弥生時代（後期）]","包蔵地","","弥生土器",139.7008531,35.64288496,TRUE
13110001200,13110,"12","しんふじいせき","新富士遺跡","目黒区 中目黒一丁目　中目黒二丁目","[縄文時代（早期〜前期）][弥生時代（中期）]［近世］","集落","[弥生時代]住居　[近世]富士講胎内遺構　溝　道路状遺構","縄文土器　弥生土器　面子　銭貨　石製大日如来像　磨製石斧　陶磁器",139.7051446,35.64402888,TRUE
13110002000,13110,"20","めぐろふどういせき","目黒不動遺跡","目黒区 下目黒三丁目　下目黒四丁目","[縄文時代（早期〜後期）][弥生時代（後期）]","集落","[縄文時代]住居　集石　土坑　[弥生時代]住居","縄文土器　土器片錘　打製石斧　石鏃　石錘　土版　弥生土器",139.7075822,35.62857065,TRUE
13110004700,13110,"47","おおはしいせき","大橋遺跡","目黒区 大橋二丁目","[旧石器時代][縄文時代（草創期〜晩期）][弥生時代（後期）][古墳時代][平安時代][中世][近世][近代]","集落　その他（軍施設）","[旧石器時代]石器集中　礫集中部　[縄文時代]住居　集石　炉穴　土坑　小穴　埋甕　土器敷き遺構　[弥生時代][古墳時代]住居　[平安時代]火葬墓　[中世]土坑　[近世]溝　小穴　[近代]煉瓦構造物","ナイフ形石器　角錐状石器　剥片　礫器　縄文土器　打斧　磨斧　耳栓　有舌尖頭器　石鏃　掻器　石匙　石皿　石棒　磨石　敲石　土製円盤　けつ状耳飾　土偶　弥生土器　陶磁器　銭貨　彫刻刀形石器　管状土錘　土師器　中世土器　瓦　（近世）陶磁器　金属製品　銭貨　(近代)陶磁器　金属製品　ガラス製品　煉瓦",139.684373,35.65446715,TRUE
13110005100,13110,"51","えびすいせき","恵比寿遺跡","目黒区 三田一丁目","[旧石器時代][縄文時代（前期〜後期）][弥生時代（後期）][近世]","集落","[弥生時代]住居　[近世]溝状遺構","ナイフ形石器　角錐状石器　剥片　縄文土器　弥生土器　陶磁器",139.713776,35.640392,TRUE
13110005300,13110,"53","かわらけづかいせき","土器塚遺跡","目黒区 大橋二丁目　駒場一丁目　駒場二丁目","[旧石器時代][縄文時代（中期）][弥生時代（後期）][近世][近代]","集落　その他（軍施設）","[縄文時代]土坑　落とし穴　小穴　焼土　[弥生時代]住居　掘立柱建物跡　環濠　道路状遺構　[近世]土壙　溝状遺構　小穴　区画溝　土坑・柱穴列　[近代]煉瓦構造物　地下式遺構","[旧石器時代]石刃　ナイフ形石器　剥片 [縄文時代]縄文土器　打製石斧　土器片錘　石鏃　スタンプ形石器　石錘 [弥生時代]弥生土器　土製品　砥石　土製品　石鏃　双角有孔土製品　土製勾玉　土玉　ガラス小玉　炭化種子 [近世]陶磁器　火打ち石 [近代]陶磁器　ガラス製品　金属製品　銭貨",139.6816957,35.65566243,TRUE
13110005400,13110,"54","はちやまちょう・さるがくちょう17ばんいせき","鉢山町・猿楽町17番遺跡","目黒区 青葉台一丁目","[旧石器時代][縄文時代（早期〜中期・晩期）][弥生時代（後期）][近世]","集落","[旧石器時代]石器集中部　 [縄文時代]住居　土坑　小穴　集石　 [弥生時代]住居　環濠　小穴　 [近世]溝","掻器　ナイフ形石器　角錐状石器　尖頭器　抉入石器　剥片　縄文土器　石鏃　打製石斧　スタンプ形石器　磨石　石皿　弥生土器　土師器　陶磁器　煙管　銭貨",139.6977975,35.64944134,TRUE
13111000200,13111,"2","せんげんじんじゃこふん","浅間神社古墳","大田区 田園調布一丁目","[縄文時代][弥生時代（後期）][古墳時代]","古墳・集落","前方後円墳　[縄文時代]炉穴　[弥生時代]住居　炉　柱穴","縄文土器　打斧　剥片　弥生土器　土師器　円筒埴輪　人物埴輪　動物埴輪",139.6687695,35.58743962,TRUE
13111004800,13111,"48","しもぬまべかいづか","下沼部貝塚","大田区 田園調布本町","[縄文時代（早期〜晩期）][弥生時代][近世]","集落・貝塚","[縄文時代]住居　集石　炉　炉穴　焼土　[弥生時代]住居　[近世]墓壙","縄文土器　打斧　磨斧　礫器　石槍　石鏃　掻器　石箆　石錘　石皿　磨石　凹石　敲石　石核　剥片　梵字形石器　耳飾　石棒　石剣　岩版　土版　昆虫形土製品　筒形土製品　獣骨　弥生土器　須恵器　埴輪　銭貨　人骨",139.6724802,35.58533812,TRUE
13111005700,13111,"57","ゆきがやかいづか","雪ヶ谷貝塚","大田区 南雪谷二丁目　 南雪谷三丁目　 南雪谷四丁目　 南雪谷五丁目","[旧石器時代][縄文時代（早期〜前期）][弥生時代（後期）][古墳時代][平安時代]","集落・貝塚・その他の墓","","縄文土器　縄文石器　石鏃　石槍　弥生土器",139.6844687,35.58976951,TRUE
13111006500,13111,"65","ちょうおんじかいづか","長遠寺貝塚","大田区 南馬込五丁目　 西馬込一丁目","[縄文時代（前期）][弥生時代]","包蔵地・貝塚","","縄文土器　打斧　弥生土器",139.7096019,35.59124845,TRUE
13111006600,13111,"66","かみいけがみ（こやすはちまんじんじゃうら）いせき","上池上（子安八幡神社裏）遺跡","大田区 仲池上一丁目","[弥生時代]","包蔵地","","弥生土器",139.6986138,35.58900204,TRUE
13111007200,13111,"72","くまのじんじゃいせき","熊野神社遺跡","大田区 山王三丁目　山王四丁目","[弥生時代]","包蔵地","","弥生土器",139.7214663,35.58542479,TRUE
13111007300,13111,"73","さんのういせき・さんのういせきないよこあなぼぐん","山王遺跡・山王遺跡内横穴墓群","大田区 山王二丁目　 山王三丁目","[弥生時代（中期〜後期）][古墳時代][奈良時代]","集落・貝塚・横穴墓","[弥生時代]環濠　住居　方形周溝墓　[古墳時代]住居　[奈良時代]横穴墓3基　[時期不明]地下式土坑","弥生土器　石器　土師器　須恵器　鉄鏃　刀子　直刀　人骨",139.7252696,35.58752753,TRUE
13111007400,13111,"74","きりさとまちかいづか","桐里町貝塚","大田区 池上一丁目","[縄文時代（前期）][弥生時代]","貝塚","","縄文土器　弥生土器",139.7069823,35.57945652,TRUE
13111007500,13111,"75","ほんもんじうらいせき","本門寺裏遺跡","大田区 池上二丁目","[弥生時代]","集落","[弥生時代]住居","弥生土器",139.7042143,35.57996262,TRUE
13111008100,13111,"81","くがはらいせき","久ヶ原遺跡","大田区 久が原四丁目　 久が原五丁目　 久が原六丁目　 千鳥一丁目","[弥生時代（中期〜後期）][古墳時代][中世]","集落","竪穴住居跡","弥生土器　縄文土器　磨斧　軽石製品　土錘　勾玉　獣骨　土師器",139.6939146,35.57641986,TRUE
13111008400,13111,"84","みねいせき","嶺遺跡","大田区 南久が原一丁目　 千鳥三丁目","[弥生時代（後期）]","集落","[弥生時代]住居跡","弥生土器",139.6882283,35.57483168,TRUE
13111009001,13111,"90-1","こうみょうじいせき","光明寺遺跡","大田区 鵜の木一丁目","[旧石器時代][縄文時代（早期）][弥生時代][古墳時代][奈良時代][中世][近世]","集落・その他（墓地）","[旧石器時代]石器集中　礫群　[縄文時代]陥し穴　[弥生時代]住居　方形周溝墓　[中世][近世]竪穴状遺構　墓地　集石土坑　集石","石器　礫　縄文土器　弥生土器　陶磁器　蔵骨器　板碑",139.684314,35.57385397,TRUE
13111009300,13111,"93","おなづかかいづか","女塚貝塚","大田区 西蒲田四丁目　 西蒲田五丁目","[弥生時代（後期）][奈良時代][平安時代]","貝塚・その他（祭祀遺構）","井戸","土師器　砥石　鉄器　滑石製紡錘車　石製品",139.717035,35.56813481,TRUE
13111011000,13111,"110","さくらばしふきんいせき","桜橋付近遺跡","大田区 田園調布本町","[縄文時代（草創期〜前期）][弥生時代（後期）][近世]","集落","[縄文時代]住居跡　土坑　[弥生時代]住居跡　土坑　[近世]竪穴状遺構　土坑","縄文土器　縄文石器　弥生土器",139.6744099,35.58633184,TRUE
13111012200,13111,"122","まるやまいせき","丸山遺跡","大田区 田園調布一丁目","[弥生時代（後期）]","集落","[弥生時代]住居","弥生土器",139.6715993,35.58720731,TRUE
13111013400,13111,"134","おおもりほてるいせき","大森ホテル遺跡","大田区 山王三丁目　 山王四丁目","[弥生時代]","包蔵地","","弥生土器",139.7230898,35.58637395,TRUE
13111013500,13111,"135","きりさといせき","桐里遺跡","大田区 中央五丁目　 南馬込六丁目","[縄文時代][弥生時代]","包蔵地","","",139.7088204,35.58256971,TRUE
13111013600,13111,"136","みねいっちょうめいせき","嶺一丁目遺跡","大田区 東嶺町 南久が原二丁目","[弥生時代]","包蔵地","","弥生土器",139.6835514,35.57929885,TRUE
13111013800,13111,"138","しょうぐんづか","将軍塚","大田区 田園調布四丁目","[弥生時代]","包蔵地","","弥生土器",139.6618158,35.5956925,TRUE
13111014300,13111,"143","くがはらしょうがっこうないいせき","久原小学校内遺跡","大田区 久が原四丁目","[弥生時代（後期）]","集落","[旧石器時代]礫群　炉　[縄文時代]住居　建物跡　土坑　[弥生時代]住居　[古墳時代]住居　溝　[奈良・平安時代]火葬墓　土坑","掻器　人骨　敲石　石核　剥片　焼礫　縄文土器　打斧　磨斧　石鏃　石皿　磨石　凹石　弥生土器　土師器　須恵器",139.6936816,35.58045523,TRUE
13111017300,13111,"173","とりつでんえんちょうふこうとうがっこうないいせき","都立田園調布高等学校内遺跡","大田区 田園調布南","[縄文時代（前期][弥生時代（後期）]","集落","[縄文時代]土坑　[弥生時代]住居　集石炉　貯蔵穴　柱穴　配石　方形周溝墓","縄文土器　打斧　磨斧　礫器　石槍　石鏃　石錐　楔形石器　石皿　磨石　土製円板　孔雀石製装飾品　真珠　弥生土器　敲石　玉類",139.6765192,35.58252941,TRUE
13111023300,13111,"233","えいじゅいんふきんいせき","永寿院付近遺跡","大田区 池上一丁目","[弥生時代（中期〜後期）]","集落","","土器　石器",139.7077954,35.5768848,TRUE
13112000300,13112,"3","そしがやおおみちきたいせき","祖師谷大道北遺跡","世田谷区 上祖師谷六丁目　上祖師谷七丁目　給田一丁目","[旧石器時代][縄文時代（中期〜後期）][弥生時代（後期）][古墳時代][奈良時代][平安時代][中世][近世]","集落","[旧石器時代]ブロック　[縄文時代]住居　竪穴　[古墳時代]住居　[中世][近世]井戸　地下式土坑　[時期不明]ピット　溝","ナイフ形石器　削器　縄文土器　石器　土師器　鉄鏃　陶器　カワラケ　土師質土器　羽釜　内耳鍋　鉄片　石臼　板碑　漆器　桶",139.596436,35.659981,TRUE
13112000900,13112,"9","きぬたちゅうがっこういせき","砧中学校遺跡","世田谷区 成城一丁目　 成城三丁目","[旧石器時代][縄文時代（早期〜晩期）][弥生時代][古墳時代][平安時代][近世]","集落","[縄文時代]住居址　土坑　集石　ピット　礫群　[弥生時代]住居址　[古墳時代]住居址　古墳周溝　[古（以降）]集石土坑　土坑　ピット　溝　[近世]竪穴　土坑　ピット　溝","（縄文）縄文土器・石器　（弥生）土器、　（古墳）土師器・須恵器・石器・刀子　（近世）陶器",139.6006734,35.63379948,TRUE
13112001800,13112,"18","しものしんめいいせき","下神明遺跡","世田谷区 成城一丁目　成城三丁目","[旧石器時代][縄文時代（早期・中期〜後期）][弥生時代][古墳時代][奈良時代][平安時代][中世][近世]","集落","[旧石器時代]ブロック　ブロック　礫群　[縄文時代]土坑　ピット　土坑　[古墳時代]住居址　[平安時代]住居址　[近世]溝　土坑　ピット　溝","（旧石器）石器・剥片　（縄文）縄文土器・石器　（古墳）土師器・石器　（平安）土師器・須恵器・砥石　（近世）煙管",139.5990011,35.63509307,TRUE
13112001900,13112,"19","かみのしんめいいせき","上神明遺跡","世田谷区 成城四丁目　 成城五丁目","[旧石器時代][縄文時代（早期〜晩期）][弥生時代][古墳時代][平安時代][中世][近世]","集落","[縄文時代]住居　土坑　[弥生時代][古墳時代]住居　ピット群　方形周溝墓","石器　縄文土器　弥生土器　土師器　須恵器　鉄製品　土製品",139.5923661,35.6414265,TRUE
13112003000,13112,"30","おおくら","大蔵遺跡","世田谷区 大蔵三丁目　 砧五丁目　 砧七丁目","[縄文時代（早期〜後期）][弥生時代（後期）][古墳時代][奈良時代][平安時代][中世][近世]","集落","[縄文時代]住居址　小竪穴　土坑　配石　[弥生時代][古墳時代]住居址　溝　[時期不明]溝状遺構","縄文土器　石器　土偶　土師器　須恵器　陶磁器　土製品　ガラス製品",139.608383,35.633945,TRUE
13112003700,13112,"37","とのやまいせき・おおくらやかたあと","殿山遺跡・大蔵館跡","世田谷区 大蔵五丁目　 大蔵六丁目","[縄文時代（中期）][弥生時代][古墳時代][中世]","集落　城跡","[縄文時代]落し穴　土坑　ピット　[古墳時代]土坑　ピット　[近世]地下式坑　ピット","",139.6083733,35.62732583,TRUE
13112004800,13112,"48","うえのだいいせき","上之台遺跡","世田谷区 砧八丁目　 祖師谷三丁目","[旧石器時代][縄文時代（早期〜中期）][弥生時代（後期）][古墳時代][奈良時代][中世]","集落","[縄文時代]住居　集石　集石土坑　土坑　[古墳時代]住居　[時期不明]溝　段状遺溝","石器　縄文土器　石器　焼礫　弥生土器　土師器　須恵器　鉄鏃　鉄製品　青銅製品　泥人形",139.6035552,35.64107284,TRUE
13112005200,13112,"52","どうがやといせき","堂ヶ谷戸遺跡","世田谷区 岡本一丁目　 岡本二丁目　 岡本三丁目","[旧石器時代][縄文時代（早期〜晩期）][弥生時代（後期）][古墳時代][奈良時代][平安時代][中世][近世]","集落","[縄文時代]住居　集石　集石土坑　土坑　ピット　[弥生時代][古墳時代][奈良時代][平安時代]住居　竪穴　[近世]溝","石器　縄文土器　弥生土器　土製品　土師器　須恵器　鉄製品　銅鏃　玉類　陶磁器　砥石　煙管",139.6176809,35.62386155,TRUE
13112006400,13112,"64","まえやといせき・あかつつみじんやあと","前谷戸遺跡・赤堤陣屋跡","世田谷区 赤堤一丁目　 赤堤二丁目　 豪徳寺一丁目","[旧石器時代][縄文時代（中期）][弥生時代][近世]","包蔵地・その他（陣屋）","","石器　縄文土器　弥生土器",139.646085,35.65595391,TRUE
13112006500,13112,"65","みやまいせき","宮前遺跡","世田谷区 赤堤二丁目","[縄文時代（中期）][弥生時代]","包蔵地","","縄文土器　石器　弥生土器",139.6434071,35.65853426,TRUE
13112006600,13112,"66","うしろやといせき","後谷戸遺跡","世田谷区 赤堤三丁目","[縄文時代（中期）][弥生時代][近世]","集落","[近世]溝","縄文土器　陶磁器　土師質土器　弥生土器",139.6408322,35.65878531,TRUE
13112006700,13112,"67","あかつつみじんやいせき","赤堤陣屋遺跡","世田谷区 赤堤一丁目　 赤堤三丁目","[弥生時代]","包蔵地","","弥生土器",139.6426175,35.65706975,TRUE
13112006800,13112,"68","えんじょういんいせき","円乗院遺跡","世田谷区 代田二丁目","[縄文時代（早期）][弥生時代（後期）][古墳時代]","集落","[弥生時代]住居 竪穴 [弥生時代][古墳時代]住居 溝","縄文土器 弥生土器 石器 土師器",139.6633,35.65531,TRUE
13112007400,13112,"74","まもりやまいせき","守山遺跡","世田谷区 代田六丁目","[縄文時代（中期）][弥生時代]","包蔵地","","縄文土器 石器 弥生土器",139.6617,35.66532,TRUE
13112008600,13112,"86","さくらぎいせき","桜木遺跡","世田谷区 桜一丁目","[旧石器時代][縄文時代（早期〜後期）][弥生時代（中期）][古墳時代][平安][その他（近代）]","集落","","縄文土器 石器 貝斧",139.6412,35.64488,TRUE
13112008900,13112,"89","おおとりやまいせき","大鶏山遺跡","世田谷区 豪徳寺二丁目","[縄文時代（中期）][弥生時代]","包蔵地","","縄文土器 石器 弥生土器",139.6485,35.64927,TRUE
13112010500,13112,"105","せたいせき・せたじょうせき","瀬田遺跡・瀬田城跡","世田谷区 瀬田一丁目 瀬田二丁目","[旧石器時代][縄文時代（早期〜後期）][弥生時代（後期）][古墳時代][奈良時代][平安時代][中世][近世]","集落・城館","[旧石器時代]ブロック 礫群 [縄文時代]住居 土坑 ピット [弥生時代〜古墳時代]住居 [奈良〜平安時代]住居 [近世]ピット 土坑 井戸 溝 配石","石器 縄文土器 石器 礫 けつ状耳飾 弥生土器 土師器 須恵器 陶器 灰釉陶器 土製品 陶磁器",139.6318,35.61599,TRUE
13112010700,13112,"107","しもやまいせき","下山遺跡","世田谷区 瀬田四丁目 瀬田五丁目","[旧石器時代][縄文時代（早期〜晩期）][弥生時代（後期）][古墳時代][奈良時代][平安時代][中世][近世]","集落","[旧石器時代]ブロック 礫群 [縄文時代]住居 集石 炉穴 土坑 ピット [弥生時代]環濠 住居 方形周溝墓 墓壙 甕棺 溝状遺構 [古墳時代]住居 円形周溝墓 [奈良時代][平安時代]住居","ナイフ形石器 尖頭器 礫器 縄文土器 打斧 石鏃 土錘 けつ状耳飾 弥生土器 抉入石斧 石包丁 石皿 土師器 須恵器 土製紡錘車 土製勾玉 ソロバン玉状土製品 石櫃 陶磁器 カワラケ 瓦質土器 煙管 銭貨",139.6244,35.62158,TRUE
13112011200,13112,"112","しもやまきたいせき","下山北遺跡","世田谷区 岡本一丁目","[旧石器時代][縄文時代（早期〜前期）][弥生時代][古墳時代][中世][近世]","集落","[旧石器時代]ブロック [縄文時代]住居 集石 土坑 [弥生時代]住居 溝 [古墳時代]住居 [中世]掘立柱建物 井戸 [近世]建物 門","石器 縄文土器 石器 弥生土器 土師器 ガラス玉",139.6227,35.62252,TRUE
13112011700,13112,"117","かまがやいせき","鎌ヶ谷遺跡","世田谷区 瀬田一丁目","[旧石器時代][縄文時代（早期〜中期）][弥生時代（後期）][古墳時代][奈良時代][平安時代][中世][近世]","集落","[旧石器時代]ブロック 礫群 [縄文時代]土坑 ピット [弥生時代][古墳時代]V字溝 溝状遺構","縄文土器 石器 弥生土器 土師器 須恵器 陶器",139.6336,35.6134,TRUE
13112014300,13112,"143","すわやまいせき","諏訪山遺跡","世田谷区 奥沢一丁目 奥沢三丁目","[旧石器時代][縄文時代（早期〜後期）][弥生時代（後期）][平安時代][中世][近世]","集落","[縄文時代]住居 竪穴 集石 集石土坑 焼土 土坑 ピット [平安時代]土坑 火葬墓 [中世]焼土 溝 [近世]溝","縄文土器 石器 土錘 耳栓 土製品 礫 土師器 須恵器 土師質土器 陶器 陶磁器 鉄板 人骨",139.6748,35.60334,TRUE
13112014500,13112,"145","おくさわだいいせき","奥沢台遺跡","世田谷区 奥沢六丁目 玉川田園調布二丁目","[旧石器時代][縄文時代（前期〜後期）][弥生時代（後期）][古墳時代][近世]","集落","[縄文時代]住居 竪穴 炉 屋外炉 土坑 ピット [弥生時代]住居 [古墳時代]竪穴 [近世]ピット 土坑 井戸 溝","縄文土器 石器 けつ状耳飾 石棒 石製品 土製品 礫 弥生土器 陶磁器",139.6635,35.6037,TRUE
13112015900,13112,"159","きたみじんやいせき","喜多見陣屋遺跡","世田谷区 喜多見一丁目 喜多見三丁目 喜多見四丁目","[旧石器時代][縄文時代（早期〜晩期）][弥生時代（中期〜後期][古墳時代][奈良時代][平安時代][中世][近世]","集落","[旧石器時代]ブロック [縄文時代]住居 炉穴 土坑 [弥生時代]住居 溝 [古墳時代]住居 竪穴 方形周溝墓 周溝 棺 墓壙 [奈良〜平安時代]住居 地下式土坑 [中世〜近世]掘立柱建物 ピット 礎石 土坑 井戸 溝 堀 池","石器 縄文土器 弥生土器 土師器 須恵器 埴輪 臼玉 ガラス玉 灰釉 緑釉 陶磁器 土師質土器 鉄製品 鉄鏃 釘 茶臼 羽口 瓦 板碑 銭貨 胞衣容器 人骨 灰釉陶器 円筒埴輪 土製品 鉱滓",139.5966,35.6261,TRUE
13112016200,13112,"162","しもきたざわほんむらいせき","下北沢本村遺跡","世田谷区 代沢二丁目 代沢三丁目","[弥生時代]","包蔵地","","弥生土器",139.66959,35.6574442,TRUE
13112020000,13112,"200","かわらけづかいせき","土器塚遺跡","世田谷区 代沢一丁目 池尻四丁目","[旧石器時代][縄文時代（中期）][弥生時代（後期）][古墳時代]","集落","[弥生時代]後期住居跡 [近世以降]溝","縄文土器 弥生土器 石器 陶磁器類",139.6803853,35.65597217,TRUE
13112023300,13112,"233","みしまのやしき・しもがくとうみなみいせき","三島野屋敷・下覚東南遺跡","世田谷区 喜多見九丁目","[縄文時代（草創期〜中期）][弥生時代][古墳時代][奈良時代][平安時代][近世]","集落","","縄文土器 弥生土器 土師器 陶磁器",139.585719,35.64107299,TRUE
13112028800,13112,"288","おかもとまえこうちいせき","岡本前耕地遺跡","世田谷区 岡本二丁目","[縄文時代（早期〜晩期）][弥生時代][古墳時代][奈良時代][平安時代][中世][近世]","集落","[縄文時代]集石 杭列 [近世]溝","縄文土器 石器 土製品 石製品 木製品 浮子 弥生土器 土師器 須恵器 灰釉 陶磁器",139.6192162,35.62029178,TRUE
13112029400,13112,"294","ひがしやまいせき","東山遺跡","世田谷区 池尻一丁目 池尻二丁目","[旧石器時代][縄文時代（中期）][弥生時代][古墳時代]","集落","[縄文時代]竪穴 土坑","縄文土器 石器",139.6837499,35.647854,TRUE
13112029600,13112,"296","とどろきはらいせき","等々力原遺跡","世田谷区 等々力一丁目","[旧石器時代][縄文時代（早期〜後期）][弥生時代（後期）][古墳時代][中世][近世]","集落","[縄文時代]住居 土坑 [弥生時代]住居","石器 縄文土器 石器 弥生土器 陶磁器 銭貨",139.6479353,35.60406427,TRUE
13113002600,13113,"26","","渋谷区No.26遺跡","渋谷区 代々木神園町","[縄文時代（中期）][弥生時代][奈良時代][平安時代]","包蔵地","","縄文土器　弥生土器　土師器　須恵器",139.69809,35.66961276,TRUE
13113004200,13113,"42","","渋谷区No.42遺跡","渋谷区 桜丘町","[縄文時代（中期）][弥生時代]","包蔵地","","縄文土器　打斧　石皿　弥生土器",139.7007763,35.65499869,TRUE
13113005200,13113,"52","さるがくいせき","猿楽遺跡","渋谷区 猿楽町","[旧石器時代][弥生時代]","集落","[旧石器時代]礫群　[弥生時代]住居　溝","弥生土器　ナイフ形石器",139.7021153,35.65131628,TRUE
13113005800,13113,"58","とよさわかいづか","豊沢貝塚","渋谷区 恵比寿二丁目","[縄文時代（早期〜晩期）][弥生時代（後期）][古墳時代][平安時代]","集落・貝塚","[縄文時代]住居　土坑　埋甕　陥穴　墓壙　掘立柱建物　[平安時代]掘立柱建物","縄文土器　打製石斧　磨製石斧　石鏃　石皿　磨石　石剣　土偶　砥石　土師器　弥生土器　須恵器　縄文人骨",139.720998,35.64621084,TRUE
13113007500,13113,"75","","渋谷区No.75遺跡","渋谷区 東四丁目","[縄文時代（中期）][弥生時代]","集落","[弥生時代]住居","縄文土器　打斧　弥生土器",139.7125123,35.65360021,TRUE
13113009600,13113,"96","はちやまちょう・さるがくちょう17ばんいせき","鉢山町・猿楽町17番遺跡","渋谷区 鉢山町　 猿楽町","[旧石器時代][縄文時代][弥生時代][中世][近世]","集落","[旧石器時代]土坑　[縄文時代]住居　土坑　[弥生時代]環濠　住居　土坑　[中世]溝　[近世]掘立柱建物　溝","掻器　剥片　縄文土器　打斧　石鏃　削器　弥生土器　陶磁器",139.6984231,35.65017962,TRUE
13113010400,13113,"104","せんだがやきたのわきいせき","千駄ヶ谷北ノ脇遺跡","渋谷区 千駄ヶ谷一丁目　 千駄ヶ谷二丁目","[縄文時代][弥生時代][近世]","包蔵地","[縄文時代]〜[弥生時代]自然流路　[近世]杭跡　土坑","縄文土器　弥生土器　陶磁器",139.7131918,35.67816183,TRUE
13114001000,13114,"10","","中野区No.10遺跡","中野区 若宮二丁目","[弥生時代]","包蔵地","","弥生土器",139.6450046,35.71508925,TRUE
13114001700,13114,"17","きたはらいせき","北原遺跡","中野区 野方三丁目","[弥生時代]","包蔵地","","弥生土器",139.6547564,35.71857042,TRUE
13114001800,13114,"18","","中野区No.18遺跡","中野区 野方五丁目","[縄文時代（中期）][弥生時代]","包蔵地","","縄文土器　弥生土器",139.6532787,35.71835061,TRUE
13114002500,13114,"25","みたけいせき","御嶽遺跡","中野区 江古田一丁目","[縄文時代（前期・後期）][弥生時代][近世]","集落","[時代不明]竪穴住居跡","縄文土器　打製石斧　磨製石斧　石鏃　石皿　弥生土器　石棒　勾玉　寛永通宝",139.6718367,35.72523207,TRUE
13114002700,13114,"27","えごた（ほんたやま・てらやま・きたえごた・てらやまほくぶ・てらやまなんぶ）いせき","江古田（本田山・寺山・北江古田・寺山北部・寺山南部）遺跡","中野区 江古田二丁目　 江古田三丁目","[縄文時代（早期〜後期）][弥生時代]","集落","[縄文時代]竪穴住居址　集石　土坑　ピット状遺構　木道","縄文土器　打製石斧　磨製石斧　石鏃　石匙　石皿　磨石　凹石　敲石　耳飾　石棒　櫂　編籠",139.6661404,35.72901701,TRUE
13114004400,13114,"44","かたやまいせき","片山遺跡","中野区 松が丘二丁目","[縄文時代（早期・後期）][弥生時代][中世][近世]","集落","[弥生時代][古墳時代]竪穴住居跡　土坑　溝状遺構","縄文土器　打製石斧　磨製石斧　礫器　石鏃　砥石　弥生土器",139.6697081,35.72252846,TRUE
13114004700,13114,"47","ぬまぶくろちょうひかわじんじゃふきんいせき","沼袋町氷川神社付近遺跡","中野区 沼袋一丁目","[縄文時代（中期〜後期）][弥生時代][古墳時代][奈良時代]","集落","[時代不明]竪穴住居跡","縄文土器　石器　弥生土器　土師器　須恵器　蔵骨器　鉄滓",139.6667898,35.71985262,TRUE
13114005300,13114,"53","へいわのもりこうえんきたいせき","平和の森公園北遺跡","中野区 新井三丁目　 新井四丁目","[旧石器時代][縄文時代（早期〜後期）][弥生時代][古墳時代][近世]","集落","[縄文時代]竪穴住居跡　土坑　小形円形竪穴　[弥生時代]竪穴住居跡　土坑　[古墳時代]竪穴住居跡　溝　[近世]空堀　方形竪穴","縄文土器　弥生土器　炭化物　土師器　滑石製紡錘車　陶磁器　高田徳利　キセル　燈明皿　擂り鉢　寛永通宝　ミニチュア製品",139.6622065,35.71639621,TRUE
13114007300,13114,"73","とうごうちょういせき","東郷町遺跡","中野区 本町三丁目","[弥生時代]","包蔵地","","弥生土器",139.6771138,35.69492845,TRUE
13114007400,13114,"74","どうげんちょう","道玄町遺跡","中野区 本町三丁目","[弥生時代]","包蔵地","","弥生土器",139.6758092,35.69593221,TRUE
13114007500,13114,"75","みやさとちょうひかわじんじゃ","宮里町氷川神社遺跡","中野区 本町四丁目","[弥生時代][奈良時代][平安時代]","包蔵地","","弥生土器　土師器　須恵器　鈴　鏡破片　刀剣　鉄滓",139.6740239,35.69423138,TRUE
13114007600,13114,"76","みやさとちょう","宮里町遺跡","中野区 本町四丁目","[弥生時代]","包蔵地","","弥生土器",139.6723073,35.69431503,TRUE
13114008300,13114,"83","かわしまちょう","川島町遺跡","中野区 弥生町三丁目　 弥生町四丁目","[縄文時代（後期）][弥生時代][古墳時代]","集落","[弥生時代]竪穴住居跡","縄文土器　石斧　弥生土器　土師器",139.6739896,35.68935176,TRUE
13114008600,13114,"86","ふじみだい（だいごこうとうじょしこう）（とりつふじこうこう）いせき","富士見台（第五高等女子校）（都立富士高校内）遺跡","中野区 弥生町五丁目","[縄文時代（早期〜中期）][弥生時代][古墳時代]","集落","[縄文時代]竪穴住居跡　[古墳時代]環濠　5軒","縄文土器　打製石斧　石鏃　石皿　凹石　石棒　弥生土器　土師器　鉄製品　瑪瑙製勾玉　土製品　紡錘車　砥石　鉄滓",139.6678098,35.68988157,TRUE
13114009300,13114,"93","むかいだい（ひろまち）せき","向田（広町）遺跡","中野区 弥生町六丁目　 南台五丁目","[旧石器時代][縄文時代（後期）][弥生時代][古墳時代]","集落","[古墳時代]竪穴住居跡","土師器　須恵器　支脚形土製品　玉類　縄文土器　石掻　弥生土器　土錘　獣魚骨",139.6613553,35.6853642,TRUE
13115000700,13115,"7","","杉並区No.7遺跡","杉並区 下井草一丁目","[縄文時代（中期）][弥生時代][古墳時代]","包蔵地","","縄文土器　弥生土器　土師器",139.6310869,35.71734835,TRUE
13115000800,13115,"8","","杉並区No.8遺跡","杉並区 下井草二丁目","[縄文時代（後期）][弥生時代]","包蔵地","","縄文土器　弥生土器",139.627791,35.71726473,TRUE
13115002300,13115,"23","","杉並区No.23遺跡","杉並区 本天沼三丁目","[縄文時代（前期）][弥生時代]","包蔵地","","縄文土器　打斧　石錘　けつ状土製品?",139.6214739,35.71361306,TRUE
13115003500,13115,"35","にしだしょうがっこうきたいせき","西田小学校北遺跡","杉並区 荻窪一丁目","[縄文時代（中期）][弥生時代]","集落","[縄文時代]住居跡　土坑　溝状遺構　[弥生時代]住居","縄文土器　打斧　弥生土器　土製品　石鏃",139.6228381,35.69525952,TRUE
13115004500,13115,"45","くまのじんじゃいせき","熊野神社遺跡","杉並区 成田西三丁目","[縄文時代（早期〜後期）][弥生時代][古墳時代]","集落","[縄文時代]住居　[古墳時代]住居","縄文土器　打斧　磨斧　石槍　石鏃　土師器",139.6323745,35.69408399,TRUE
13115004700,13115,"47","やくらだいみなみいせき","矢倉台南遺跡","杉並区 成田西四丁目　 荻窪一丁目","[縄文時代（草創期〜後期）][弥生時代][古墳時代][中世]","集落","[古墳時代]住居　[縄文時代]住居跡　[中世]溝状遺構","縄文土器　打斧　石鏃　石匙　石皿　弥生土器　土錘　土師器　有舌尖頭器　翡翠製石製品　須恵器　陶器　礫石器",139.626538,35.69360999,TRUE
13115005000,13115,"50","","杉並区No.50遺跡","杉並区 成田東二丁目","[縄文時代（中期）][弥生時代]","包蔵地","","縄文土器　弥生土器",139.6340892,35.68802788,TRUE
13115005300,13115,"53","どうかくいせき","道角遺跡","杉並区 大宮二丁目　成田西一丁目","[縄文時代（草創期〜中期）][弥生時代（後期）][近世]","集落","[弥生時代]住居跡　[近世]溝状道構","縄文土器　石斧　尖頭器　スクレイパー",139.6380031,35.68479317,TRUE
13115005400,13115,"54","おおみや（わだぼり）いせき","大宮(和田堀)遺跡","杉並区 大宮二丁目","[旧石器時代][縄文時代（草創期〜後期）][弥生時代]","集落（方形周溝墓）","[弥生時代]方形周溝墓　都指定史跡-大宮遺跡　（昭和54.3.31）","縄文土器　礫器　石鏃　石匙　弥生土器　勾玉　ガラス小玉　土師器",139.6395824,35.68339886,TRUE
13115005900,13115,"59","まつのきいせき","松ノ木遺跡","杉並区 松ノ木一丁目","[縄文時代（中期）][弥生時代][古墳時代]","集落","[不]住居","縄文土器　石斧　石鏃　凹石　土錘　土偶　炭化米　炭化材　弥生土器　土師器　支脚",139.6411273,35.68641055,TRUE
13115006000,13115,"60","ほうなんちょうみねいせきぐん（ほうなんみね・みねみなみ・ほうなん・みね・かまでらひがし・かまでら）いせき","方南町峰遺跡群（方南峰・峰南・方南・峯・釜寺東・釜寺）遺跡","杉並区 堀ノ内一丁目　 方南二丁目","[旧石器時代][縄文時代（早期〜後期）][弥生時代（後期）][古墳時代][奈良時代][近世]","集落","[旧石器時代]ブロック　礫群　[縄文時代]住居　炉穴　遺物集中部　炉跡　[弥生時代]住居　環濠　[古墳時代]住居　[近世]溝状遺構　地下室　地下坑","ナイフ形石器　彫器　スクレイパー　敲石　石核　剥片　縄文土器　土製蓋　ミニチュア土器　土偶　打製石斧　磨製石斧石鏃　石錘　石皿　磨石　凹石　石棒　炭化材　炭化米　弥生土器　ガラス小玉　砥石　土師器　須恵器　支脚　紡錘車　鉄環　磁器　陶器",139.6573439,35.68350464,TRUE
13115006200,13115,"62","せいびだいいせき","済美台遺跡","杉並区 大宮一丁目　 堀ノ内一丁目","[旧石器時代][縄文時代（草創期〜後期）][弥生時代][古墳時代][奈良時代]","集落","[旧石器時代]礫群　[縄文時代]住居　[弥生時代]周溝(方形周溝墓?)　杉並125参照","剥片　縄文土器　打斧　石鏃　石槍　石匙　土錘　土偶　弥生土器　滑石製勾玉　土師器　須恵器　炭化物",139.6471873,35.68778392,TRUE
13115006500,13115,"65","ほりのうちなかどおりいせき","堀ノ内中通遺跡","杉並区 堀ノ内二丁目","[縄文時代（中期）][弥生時代][古墳時代][奈良時代][平安時代]","包蔵地","[縄文時代]住居","縄文土器　土師器　須恵器",139.6512671,35.68721345,TRUE
13115006700,13115,"67","","杉並区No.67遺跡","杉並区 和田一丁目","[縄文時代（後期）][弥生時代]","包蔵地","","縄文土器　弥生土器",139.6606228,35.69093941,TRUE
13115006800,13115,"68","ほんむらはらいせきしーちてん","本村原遺跡C地点","杉並区 和田一丁目","[縄文時代（早期〜後期）][弥生時代（後期）][古墳時代][平安時代][近世]","包蔵地・集落","[縄文時代]陥穴　[弥生時代]住居　[平安時代]住居　[近世]土坑　溝　植栽跡　段切り状遺構","縄文土器　弥生土器　埴輪　土師器　須恵器　陶磁器　炉器　土器　瓦　土製品　石製品　金属製品　銭貨　ガラス製品",139.662614,35.69361621,TRUE
13115007200,13115,"72","ほんじんやまいせき","本陣山遺跡","杉並区 堀ノ内二丁目　和田二丁目","[縄文時代（早期〜中期）][弥生時代（後期）][古墳時代][中世][近世]","集落","[縄文時代]炉穴　集石　土坑　ピット　[弥生時代]住居跡　[中世][近世]掘立柱建物","（旧石器）敲石　剥片類　（縄文）土器　土製円板　（弥生）土器　ガラス小玉　（古墳時代以降）土師器　砥石　鉄環　カワラケ　陶磁器　鉄器など",139.653824,35.685158,TRUE
13115008100,13115,"81","どうのしたいせき","堂の下遺跡","杉並区 高井戸東一丁目","[旧石器時代][縄文時代（早期〜中期）][弥生時代（後期）][近世]","包蔵地・集落","[旧石器時代]礫群　ブロック　[縄文時代]竪穴式遺構　炉穴　ピット　焼土跡　集石　集石土坑　陥し穴　土坑　[弥生時代]方形周溝墓　[近世]溝　炭焼窯　地下室","ナイフ型石器　角錐状石器　スクレイパー　彫器　楔形石器　石斧　敲石　石核　剥片　削石　縄文土器　石鏃　有舌尖頭器　打製石斧　磨製石斧　　礫斧　磨石　スタンプ型石器　石皿　弥生土器　陶磁器",139.6235149,35.67968988,TRUE
13115010800,13115,"108","","杉並区No.108遺跡","杉並区 久我山五丁目","[縄文時代（早期・中期）][弥生時代]","包蔵地","","縄文土器　弥生土器",139.6007526,35.68858558,TRUE
13115012900,13115,"129","にっしょうじいせきびーちてん","日性寺遺跡B地点","杉並区 成田西二丁目","[旧石器時代][縄文時代（中期）][弥生時代][古墳時代][近世]","集落","[縄文時代]土坑　[古墳時代]住居　[不]ピット群","掻器　縄文土器　石皿　磨石　弥生土器　土師器　土玉　陶磁器",139.628926,35.68857844,TRUE
13115013100,13115,"131","","杉並区No.131遺跡","杉並区 下高井戸五丁目","[弥生時代]","包蔵地","","弥生土器",139.6228625,35.67701261,TRUE
13115017400,13115,"174","ほんむらはらいせき","本村原遺跡","杉並区 和田一丁目","[縄文時代（早期〜前期・後期）][弥生時代（後期）][古墳時代][中世][近世]","包蔵地","[縄文時代]ユニット　集石　土坑","縄文土器　打斧　石鏃　磨石　弥生土器　土師器　須恵器　円筒埴輪　陶磁器",139.6624767,35.69272395,TRUE
13115017500,13115,"175","ほんむらはらいせきびーちてん","本村原遺跡B地点","杉並区 和田一丁目","[縄文時代（早期〜中期）][弥生時代（後期）][近世]","集落","[弥生時代]住居","縄文土器　弥生土器",139.662923,35.6919711,TRUE
13115017600,13115,"176","かまくらばしうえいせき","鎌倉橋上遺跡","杉並区 浜田山一丁目　 浜田山二丁目","[旧石器時代][縄文時代（早期〜後期）]　[弥生時代（後期）][古墳時代][中世][近世]","集落","[旧石器時代]礫群　ブロック　[縄文時代]住居　土坑　[弥生時代]住居　環濠","細石器　細石刃　ナイフ形石器　角錐状石器　スクレイパー　石刃　石核　細石核　縄文土器　尖頭器　打製石斧　石匙　磨石　土偶　弥生土器　石器　ミニチュア土器　被熱粘土塊　陶磁器　銭貨　鉄鏃　土師器",139.6274325,35.67714111,TRUE
13115018500,13115,"185","ねがわらいせきびーちてん","根河原遺跡B地点","杉並区 和泉四丁目","[旧石器時代][縄文時代（早期〜後期）][弥生時代][中世][近世]","包蔵地","[縄文時代]礫集中部","縄文土器　弥生土器　土師器　石器　陶器　土製品　ガラス製品",139.6492415,35.67842914,TRUE
13115018700,13115,"187","せいびだいいせきびーちてん","済美台遺跡B地点","杉並区 大宮一丁目","[縄文時代（中期〜晩期）]［弥生時代（後期）］","包蔵地","溝、落ち込み、木列に伴う遺物集中部、ピット、土坑","縄文土器　打製石斧　弥生土器　種子　礫　陶器　不明土器",139.6452815,35.68880866,TRUE
13116000100,13116,"1","ひかわじんじゃうらかいづか","氷川神社裏貝塚","豊島区 池袋本町二丁目　 池袋本町三丁目","[縄文時代（前期～晩期）][弥生時代][平安時代][中世][近世]","包蔵地・貝塚","[縄文]貝塚、包含層、土坑　[中～近世]溝状遺構　[近世]土坑　生垣　溝　道　掘立柱建物　作物貯蔵孔　動物埋葬墓　畝状遺構","縄文土器　石斧　石鏃　玉類　土偶　弥生土器　土師器　須恵器　陶磁器　土器　土製品　石製品　金属製品　渡来銭　硝子製品　動物遺体",139.7105424,35.74290873,TRUE
13116000500,13116,"5","そめいいせき","染井遺跡","豊島区 巣鴨一丁目　 巣鴨二丁目　 巣鴨三丁目　 巣鴨四丁目　 巣鴨五丁目　 駒込一丁目　 駒込二丁目　 駒込三丁目　 駒込四丁目　 駒込五丁目　 駒込六丁目　 駒込七丁目","[縄文時代（早期〜後期）][弥生時代（後期）][古墳時代][中世][近世]","包蔵地・集落・貝塚・屋敷（大名屋敷）・その他（町屋）","[縄]住居　陥し穴　[弥生時代]方形周溝墓　[中世]道路　[近世]掘立柱建物　方形竪穴　土坑　地下室　門　井戸　畝　溝　柵列　地鎮址　ピット　畝状遺構","縄文土器　石器　弥生土器　土師器　須恵器　陶磁器　舶載磁器　土製品　石製品　硝子製品　金属製品",139.7413728,35.73716819,TRUE
13116000600,13116,"6","すがもいせき","巣鴨遺跡","豊島区 巣鴨一丁目　 巣鴨二丁目　 巣鴨三丁目　 巣鴨四丁目","[縄文時代（中期〜後期）][弥生時代（後期）][近世]","包蔵地・集落・屋敷（武家屋敷）・その他（町屋）","[近世]溝状遺構　道路跡　礎石　柱穴列　ピット　土間状遺構　砂利面　埋桶埋設遺構　地下室　焼土整理土坑　ゴミ穴　植栽痕　井戸　土坑　方形竪穴　花壇　掘立柱建物　埋甕　堀　生垣　塀　小穴　硬化面","縄文土器　弥生土器　須恵器　陶磁器　近世土器　近世陶磁器　舶載磁器　国産陶磁器　土製品　石製品　金属製品　木製品　ガラス製品　銭貨　フイゴの羽口　貝　骨角製品　樹脂製品　土器　瓦　磁製品　陶製品　動物遺体",139.735708,35.73549611,TRUE
13116000800,13116,"8","こまごめいっちょうめいせき","駒込一丁目遺跡","豊島区 駒込一丁目","[縄文時代（中期）][弥生時代（後期）][近世]","包蔵地・集落・その他（町屋）","[縄]土坑　[弥生時代]竪穴住居址　[近世]ピット群　塀　生垣　溝状遺構　堀　区画施設　畠畝　ゴミ穴　礎石建物列　廃棄坑　防空壕　雨水処理　溝　鍛冶関係遺構　胞衣埋納遺構　地鎮遺構　地下室　貯蔵穴　池　井戸　埋設管　煉瓦枡　甕埋設遺構","縄文土器　打製石斧　磨製石斧　弥生土器　土師器　須恵器　中世陶器　磁器　陶器　土器　土製品　瓦　石製品　金属製品　銭貨　硝子製品　動物遺体",139.7494409,35.73394593,TRUE
13117000100,13117,"1","うきまいせき","浮間遺跡","北区 浮間四丁目","[弥生時代][平安時代][中世]","包蔵地","[中世]溝","弥生土器　土師器　須恵器　陶磁器",139.6972722,35.78768443,TRUE
13117000200,13117,"2","うきまふそうどうねつないいせき","浮間扶桑動熱内遺跡","北区 浮間四丁目","[弥生時代]","包蔵地","","弥生土器　磨斧　有角石斧",139.6909207,35.78657043,TRUE
13117000400,13117,"4","ふくろていちいせき","袋低地遺跡","北区 赤羽北一丁目　赤羽北二丁目","[縄文時代][弥生時代][古墳時代][奈良時代][平安時代][中世][近世]","包蔵地・貝塚","[縄文時代]集石群　自然流路　貝塚　[古墳時代][奈良時代][平安時代]土坑　溝址　井戸址　[中世][近世]土坑　溝址　井戸址","縄文土器　石錘　土錘　漆塗土器　朱漆木製耳栓　牙製装飾品　石棒　石器　弥生土器　土師器　須恵器　陶磁器類　独木舟　漆器　飾り弓　銭貨",139.7092754,35.78541401,TRUE
13117000500,13117,"5","あかばねだいいせき","赤羽台遺跡","北区 赤羽台四丁目","[旧石器時代][縄文時代][弥生時代][古墳時代][奈良時代][平安時代][中世][近世]","集落","[旧石器時代]石器ブロック　[縄文時代]住居址　集石　炉穴　土坑　[弥生時代]環濠　方形周溝墓　土坑　住居址　[古墳時代]住居址　溝状遺構　[奈良時代][平安時代]住居址　掘立柱建物址　特殊遺構　[平安時代]住居　[中世]土坑　地下式土坑溝　[中世][近世]地下式壙　溝址　[近世]地下室　溝　[近代]近衛工兵隊関連施設","旧石器　石器　縄文土器　石斧　礫器　有舌尖頭器　石鏃　敲石　弥生土器　ガラス玉　土師器　須恵器　鉄器　蔵骨器　板碑　陶磁器類",139.712228,35.7839379,TRUE
13117000800,13117,"8","きりがおかいせき","桐ヶ丘遺跡","北区 赤羽北三丁目　桐ヶ丘一丁目　桐ヶ丘二丁目","[旧石器時代][縄文時代（早期・中期〜後期）][弥生時代][古墳時代][奈良時代][平安時代]","集落","[旧石器時代]礫群　[縄文時代][弥生時代][古墳時代][奈良時代][平安時代]住居","石器　縄文土器　弥生土器　土師器　須恵器　鎌　刀子　砥石　鉄滓",139.7056019,35.77984366,TRUE
13117000900,13117,"9","あかばねうえのだいいせき","赤羽上ノ台遺跡","北区 赤羽台一丁目","[縄文時代（早期）][弥生時代][奈良時代][平安時代]","集落","[縄文時代]炉穴　[奈良時代]住居　掘立柱建物　溝","縄文土器　弥生土器　石器　土師器　須恵器",139.7171313,35.77942863,TRUE
13117001300,13117,"13","しましたいせき","島下遺跡","北区 赤羽西五丁目　赤羽西六丁目","[縄文時代（早期・後期）][弥生時代]","包蔵地","","縄文土器　弥生土器",139.7079303,35.77360717,TRUE
13117001700,13117,"17","うめのきいせき","梅ノ木遺跡","北区 西が丘一丁目　西が丘二丁目","[縄文時代][弥生時代]","包蔵地","[縄文時代]土坑　ピット","縄文土器　石器　土製品",139.7145954,35.76835906,TRUE
13117001800,13117,"18","しみずざかいせき","清水坂遺跡","北区 中十条四丁目　十条仲原四丁目","[縄文時代（早期〜前期）][弥生時代]","集落・貝塚","[弥生時代][古墳時代]堅穴建物址","弥生土器　土師器",139.7220455,35.76866549,TRUE
13117001900,13117,"19","じゅうじょうだいいせきぐん","十条台遺跡群","北区 中十条一丁目　 中十条二丁目　 中十条三丁目　 王子本町一丁目　 王子本町二丁目　 王子本町三丁目","[旧石器時代][縄文時代][弥生時代][古墳時代][奈良時代][平安時代][近世]","集落・その他の墓","[縄文時代]住居　[弥生時代][古墳時代]住居址　方形周溝墓　[弥生時代]環濠　方形周溝墓　[古墳時代]周溝　溝址　[奈良時代]住居址　[近世]溝","縄文土器　石斧　弥生土器　土師器　須恵器　人骨　鉄製品　土製品",139.7293239,35.7586086,TRUE
13117002700,13117,"27","にしがはらいせきぐん","西ヶ原遺跡群","北区 西ヶ原一丁目　 西ヶ原二丁目　 西ヶ原三丁目　 上中里一丁目　 王子一丁目","[旧石器時代][縄文時代][弥生時代][古墳時代][奈良時代][平安時代][中世][近世]","集落・貝塚・その他の墓・城館","[縄文時代]住居址　土坑　ピット群　土壙墓　墓壙　貝塚　[弥生時代]住居址　土坑　溝址　方形周溝墓　環濠　[弥生時代][古墳時代]方形周溝墓　[古墳時代]住居址　土坑　溝址　古墳　[奈良時代][平安時代]住居址　掘立柱建物址　ピット　土坑　溝　正倉大溝　溝址　[中世][近世]溝址　土坑　[近世]建物　ピット土坑　地下式土坑　井戸　溝　区画溝　道路　土壙墓群　柵列　集石　特殊埋葬遺構","掻器　彫器　縄文土器　打斧　磨斧　石鏃　抉入石器　石器　ヤス状鹿角製品　耳飾　土板　埋葬人骨　動物遺存体　石皿　磨石　凹石　敲石　石核　大珠　骨角器　弥生土器　石皿　磨石　敲石　滑石製玉　土師器　須恵器　支脚　砥石　紡錘車　土錘　羽口　土玉　鉄製品　陶磁器類　土製品　鉄製品　銭貨　鳥獣魚骨　貝　剥片石器",139.7428408,35.74611874,TRUE
13117003000,13117,"30","なかざといせき","中里遺跡","北区 上中里二丁目　東田端一丁目　東田端二丁目","[縄文時代（早期〜後期）][弥生時代][古墳時代][奈良時代][平安時代][中世][近世]","包蔵地・貝塚","[縄文時代]集石　貝塚　木枠付土坑　杭列　炉址　木道　焚き火跡　波食台　[奈良時代][平安時代][中世]掘立柱建物　土坑　道路状遺構　杭列　[近世]旧河道","縄文土器　石斧　石皿　石棒　独木舟　石器　貝製品　耳栓　弥生土器　土師器　須恵器　埴輪　瓦　陶磁器　煙管　木簡　木製品　銭貨",139.7547197,35.74386169,TRUE
13117003100,13117,"31","たばたちょういせき","田端町遺跡","北区 中里一丁目　 中里二丁目　 中里三丁目　 田端三丁目　 田端四丁目","[弥生時代][古墳時代][奈良時代][平安時代][中世]","集落","[弥生時代]住居　[古墳時代]土坑　溝　土師器焼成遺構　[奈良時代]井戸","弥生土器　土師器　須恵器　陶器　板碑",139.7523851,35.73773108,TRUE
13117003200,13117,"32","たばたふどうさかいせき","田端不動坂遺跡","北区 田端一丁目","[縄文時代（前期）][弥生時代（中期〜後期）][古墳時代][奈良時代][平安時代][中世][近世][近代]","集落","[縄文時代]住居址　[弥生時代][古墳時代]住居址　方形周溝墓　掘立柱建物址　土坑　[奈良時代][平安時代]住居址　掘立柱建物址　ピット　道路状遺構　溝址　[平安時代]住居址　柵列　[中世][近世]道路址　溝址　[近代]胞衣埋納遺構　[時代不明]住居　土坑　溝","縄文土器　弥生土器　土師器　須恵器　陶器（灰釉）　支脚　石皿　鉄器　帯金具　青銅鏡　銅鏃　玉類",139.7624359,35.73559222,TRUE
13117003300,13117,"33","くまのじんじゃほっぽういせき","熊野神社北方遺跡","北区 志茂五丁目","[弥生時代]","包蔵地","","弥生土器",139.7321573,35.78544019,TRUE
13117003400,13117,"34","くまのじんじゃいせき","熊野神社遺跡","北区 志茂四丁目","[弥生時代]","包蔵地","","弥生土器　獣骨　埋れ木",139.7322603,35.78374128,TRUE
13117003500,13117,"35","しもいせき","志茂遺跡","北区 志茂三丁目　 志茂四丁目","[弥生時代][古墳時代][奈良時代][平安時代]","集落","[弥生時代][古墳時代]方形周溝墓　土坑　溝址　[奈良時代][平安時代]溝址","弥生土器　土師器 須恵器",139.7345606,35.7798977,TRUE
13117004000,13117,"40","なかざとはけうえ","中里峽上遺跡","北区 中里三丁目　 田端六丁目　 上中里一丁目　 西ケ原一丁目","[縄文時代][弥生時代][古墳時代][奈良時代][平安時代][近世]","集落・貝塚","[弥生時代]住居址　[古墳時代][奈良時代]住居址　掘立柱建物　溝址　特殊遺構　[平安時代]掘立柱建物　住居址　土坑","弥生土器　土師器　須恵器　砥石　鉄製品　瓦　鉄滓",139.7518616,35.74189019,TRUE
13117004100,13117,"41","たばたにしだいどおりいせき","田端西台通遺跡","北区 田端二丁目　 田端三丁目　 田端四丁目　 田端五丁目　 田端六丁目","[縄文時代][弥生時代][古墳時代][奈良時代][平安時代][中世][近世]","集落・貝塚・古墳","[縄文時代]堅穴建物址　土坑　[弥生時代]堅穴建物址　方形周溝墓　[古墳時代]堅穴建物址　円墳　住居址　[奈良時代][平安時代]堅穴建物址　掘立柱建物址　住居址　[平安時代]土坑　溝　畝[中世]溝址","縄文土器　弥生土器　土師器　須恵器　灰釉陶器　金属製品　石製品　土製器　銭貨　陶磁器　ガラス製品　石器　鉄製品　帯金具　ガラス小玉　鉄釧",139.7576637,35.73804458,TRUE
13117004200,13117,"42","としまばんばいせき","豊島馬場遺跡","北区 豊島八丁目　 王子五丁目","[弥生時代（後期）][古墳時代][奈良時代][平安時代][中世][近世]","集落","[弥生時代][古墳時代]住居　掘立柱建物　土坑　溝　方形周溝墓　ピット　[古墳時代]井戸","弥生土器　土師器　須恵器　土製品　管玉　勾玉　ガラス小玉鋳型　陶磁器　木製品　石臼",139.7394357,35.76833798,TRUE
13117004400,13117,"44","ひがしやといせき","東谷戸遺跡","北区 西ケ原一丁目","[縄文時代（早期・中期〜後期）][弥生時代][近世]","集落","[縄文時代]住居　土坑　ピット　[近世]井戸　溝","縄文土器　打斧　磨斧　石鏃　石錘　石皿　磨石　敲石　土偶　陶器　板碑",139.7449007,35.74205042,TRUE
13117004700,13117,"47","じゅうじょうくぼいせき","十条久保遺跡","北区 十条台一丁目","[縄文時代（後期）][弥生時代（後期）][奈良時代][平安時代][中世][近世]","集落","[縄文時代]土坑　[弥生時代]井戸址　土坑　[奈良時代]住居址　[奈良時代][平安時代]住居址　掘立柱建物址　井戸址　土坑　[弥生時代]〜[近世]ピット群　土坑　[奈良時代]〜[近世]溝址　[平安時代]〜[近世]道路址　[中世]井戸址　[近世]畝","縄文土器　弥生土器　木製品　土師器　須恵器　陶磁器　銭貨　中世陶器　近世陶磁器　石器",139.7275011,35.75690203,TRUE
13117004900,13117,"49","みちあいいせき","道合遺跡","北区 赤羽台一丁目　 赤羽台二丁目","[縄文時代（早期〜前期・後期）][弥生時代][古墳時代][奈良時代][平安時代][近世]","集落","[縄文時代]土坑　ピット　小貝塚　[弥生時代][古墳時代]住居址　土坑　ピット　[奈良時代][平安時代]住居址　土坑　溝址　[近世]溝址","縄文土器　石器　弥生土器　土師器　須恵器　陶磁器類",139.7145221,35.77628119,TRUE
13118000400,13118,"4","どうかんやまいせき","道灌山遺跡","荒川区 西日暮里四丁目　 西日暮里五丁目","[旧石器時代][縄文時代（前期〜後期）][弥生時代][奈良時代][平安時代][中世][近世]","集落","[弥生時代]環濠　住居　[平安時代]住居　掘立柱建物　土坑　柵状遺構　[平安時代〜近世]溝状遺構","ナイフ形石器　縄文土器　石鏃　敲石　石器　弥生土器　土師器　須恵器　鞴　紡錘車　人形　銭貨　陶磁器片",139.7651699,35.73318334,TRUE
13118001100,13118,"11","まちやよんちょうめみあがりいせき","町屋四丁目実揚遺跡","荒川区 町屋四丁目","[縄文時代][弥生時代][奈良時代][平安時代][中世][近世]","包蔵地","[古墳時代]周溝　井戸址　溝址　土杭　ピット","縄文土器　弥生土器　土師器　須恵器　陶磁器　瓦　板碑　木製品",139.7781131,35.74651757,TRUE
13119000100,13119,"1","なりますいっちょうめいせき","成増一丁目遺跡","板橋区 成増一丁目","[縄文時代（早期〜中期）][弥生時代（後期）][古墳時代]","包蔵地・集落","[縄文時代]住居　土坑　埋甕　[弥生時代][古墳時代]住居　倉庫","縄文土器　石器　弥生土器　土師器　土製勾玉",139.6267984,35.77824962,TRUE
13119000200,13119,"2","なりますずうこう／なりますしんでんばらいせき","成増百向／成増新田原遺跡","板橋区 成増二丁目　 成増三丁目","[旧石器時代][縄文時代（早期〜中期）][弥生時代（後期）]","包蔵地・集落","[縄文時代]住居　竪穴状遺構　集石　[弥生時代]住居","縄文土器　石器　弥生土器",139.6277597,35.78089564,TRUE
13119000300,13119,"3","なりますとのやまいせき","成増との山遺跡","板橋区 成増三丁目","[旧石器時代][縄文時代（早期〜後期）][弥生時代（中期〜後期）]","包蔵地・集落","[旧石器時代]ブロック　礫群　[縄文時代]土坑　[弥生時代]住居","ナイフ形石器　角錐状石器　台形様石器　楔形石器　掻器　彫器　敲石　石核　剥片　焼礫　縄文土器　石器　弥生土器",139.6312273,35.78042215,TRUE
13119000500,13119,"5","","板橋区No.5遺跡","板橋区 成増四丁目","[弥生時代（後期）][古墳時代]","包蔵地","","弥生土器　土師器",139.6352098,35.78585321,TRUE
13119000600,13119,"6","","板橋区No.6遺跡","板橋区 成増四丁目","[縄文時代][弥生時代][古墳時代]","包蔵地","","縄文土器　磨斧　弥生土器　土師器　須恵器",139.6367891,35.78624312,TRUE
13119000700,13119,"7","すがわらじんじゃだいちうえいせき","菅原神社台地上遺跡","板橋区 成増四丁目　 成増五丁目","[旧石器時代][縄文時代（前期）][弥生時代（後期）][古墳時代][平安時代][近世]","集落・古墳","[旧石器時代]ブロック　礫群　[縄文時代]住居　炉穴　焼土　土坑　墓壙　[弥生時代]住居　掘立柱建物　ピット　焼土　土坑　[古墳時代]円墳　方形周溝墓　[平安時代]住居　[近世]土坑　溝状遺構","ナイフ形石器　台形様石器　剥片　礫　縄文土器　磨斧　石鏃　石皿　台石　弥生土器　土師器　須恵器　土製玉類　ガラス小玉　けつ状耳飾　陶磁器　鉄製品　ガラス製品",139.6316049,35.78356942,TRUE
13119000800,13119,"8","なりますてんじんわきいせき","成増天神脇遺跡","板橋区 成増四丁目　 成増五丁目","[旧石器時代][縄文時代（早期・中期〜後期）][弥生時代（後期）][古墳時代][奈良時代][近世]","包蔵地","","縄文土器　弥生土器",139.6324976,35.78490628,TRUE
13119001200,13119,"12","あかつかかみやつみなみいせき","赤塚上谷津南遺跡","板橋区 赤塚二丁目","[縄文時代][弥生時代（後期）][古墳時代]","集落","[弥生時代]住居","",139.6414926,35.77331944,TRUE
13119001400,13119,"14","あかつかはらいせき","赤塚原遺跡","板橋区 赤塚三丁目","[縄文時代（早期）][弥生時代（後期）][奈良時代][平安時代][近世]","包蔵地・集落","[縄文時代]炉穴　土坑　陥穴　[奈良時代][平安時代]住居跡　掘立柱建物跡　ピット列　ピット　[近世]溝状遺構　井戸","土師器　須恵器　石器　縄文土器　須恵系土師質土器　陶磁器　近世土器",139.639364,35.77794324,TRUE
13119001800,13119,"18","","板橋区No.18遺跡","板橋区 赤塚四丁目","[縄文時代][弥生時代][古墳時代]","包蔵地","","縄文土器　弥生土器",139.6399477,35.78334661,TRUE
13119001900,13119,"19","あかつかかぶらがやとみなみいせき","赤塚蕪ヶ谷戸南遺跡","板橋区 赤塚四丁目","[弥生時代]","包蔵地","[弥生時代]住居","弥生土器",139.638746,35.78376438,TRUE
13119002100,13119,"21","あかつかかぶらがやときたいせき","赤塚蕪ヶ谷戸北遺跡","板橋区 赤塚四丁目","[弥生時代（後期）][古墳時代]","包蔵地","[弥生時代]住居","弥生土器　土師器",139.6386087,35.78479488,TRUE
13119002200,13119,"22","あかつかひかわじんじゃほっぽういせき","赤塚氷川神社北方遺跡","板橋区 赤塚四丁目","[旧石器時代][縄文時代（晩期）][弥生時代（中期〜後期）][古墳時代][奈良時代][近世]","包蔵地・集落","[弥生時代][古墳時代]住居","ナイフ形石器　縄文土器　石器　弥生土器　土師器　須恵器",139.6390894,35.78652162,TRUE
13119002400,13119,"24","（抹消）","板橋区No.24遺跡","板橋区 赤塚四丁目　 赤塚五丁目","[縄文時代（後期）][弥生時代][古墳時代]","包蔵地","","",139.6415956,35.78136913,TRUE
13119002600,13119,"26","（抹消）","赤塚城址貝塚","板橋区 赤塚五丁目","[縄文時代（前期・後期〜晩期）][弥生時代（後期）][古墳時代]","包蔵地・貝塚","[古墳時代？]木道","縄文土器　石器　石棒　土偶　牙玉　貝輪　弥生土器　土師器　加工木材",139.6433122,35.78432141,TRUE
13119002800,13119,"28","あかつかじょうし","赤塚城址","板橋区 赤塚四丁目　 赤塚五丁目","[縄文時代（早期〜晩期）][弥生時代（後期）][古墳時代][中世]","包蔵地・城館","[古墳時代]木道　[中世]堀　曲輪","縄文土器　石器　加工木材土師器",139.6433122,35.78259462,TRUE
13119002900,13119,"29","あかつかしのがやといせき","赤塚篠ヶ谷戸遺跡","板橋区 赤塚二丁目　 赤塚六丁目","[縄文時代（後期）][弥生時代（後期）][古墳時代]","集落","[弥生時代]住居","弥生土器",139.6442735,35.7745172,TRUE
13119003100,13119,"31","","板橋区No.31遺跡","板橋区 赤塚七丁目","[縄文時代（前期）][弥生時代][古墳時代]","包蔵地・集落","","縄文土器　石器　弥生土器　土師器",139.6484707,35.77630335,TRUE
13119003300,13119,"33","しょうげついんけいだい・だいもん・あかつかしもじけばんじょうめんいせき","松月院境内・大門・赤塚下寺家番匠免遺跡","板橋区 赤塚五丁目　 赤塚六丁目　 赤塚七丁目　 赤塚八丁目　 大門","[旧石器時代][縄文時代（早期〜晩期）][弥生時代（中期〜後期）][古墳時代][奈良時代][平安時代][中世][近世]","包蔵地・集落","[旧石器時代]ブロック　礫群　[縄文時代]住居　炉穴　[弥生時代]住居　方形周溝墓　[古墳時代]住居　方形周溝墓　[奈良時代][平安時代]住居　[中世]土坑　地下式土壙　ピット　[近世]土坑","ナイフ形石器　石刃　角錐状石器　掻器　縄文土器　石器　弥生土器　土師器　須恵器　紡錘車　青銅環　陶磁器　カワラケ　板碑　五輪塔",139.6476467,35.78156758,TRUE
13119003400,13119,"34","","板橋区No.34遺跡","板橋区 赤塚八丁目","[縄文時代][弥生時代][古墳時代][中世]","包蔵地","","縄文土器　石器　弥生土器　土師器　須恵器",139.6455524,35.78424134,TRUE
13119003500,13119,"35","","板橋区No.35遺跡","板橋区 大門","[縄文時代][弥生時代（後期）][古墳時代][平安時代]","包蔵地・集落","[弥生時代]住居","縄文土器　弥生土器　土師器　須恵器",139.6482647,35.78399068,TRUE
13119003800,13119,"38","よつばみやまえいせき","四葉宮前遺跡","板橋区 四葉一丁目","[縄文時代（早期〜晩期）][弥生時代（後期）][古墳時代][平安時代][近世]","包蔵地・集落","[古墳時代]住居","土師器　須恵器",139.652082,35.7793101,TRUE
13119003900,13119,"39","よつばちくいせき","四葉地区遺跡","板橋区 四葉二丁目","[縄文時代（早期〜晩期）][弥生時代（後期）][古墳時代][奈良時代][平安時代][中世][近世]","包蔵地","[縄文時代]住居　[弥生時代][古墳時代]住居　焼土　[奈良時代][平安時代]住居　竪穴状遺構　[中世][近世]地下式土坑　溝　道路","縄文土器　有舌尖頭器　弥生土器　土師器　須恵器　土玉　臼玉",139.6513027,35.78112479,TRUE
13119004000,13119,"40","よつばちくいせき","四葉地区遺跡","板橋区 四葉二丁目","[旧石器時代][縄文時代（早期〜中期）][弥生時代（後期）][古墳時代][奈良時代][平安時代][中世][近世]","包蔵地","[弥生時代]環濠　住居　[平安時代]住居　土坑　溝　井戸　[近世]土壙墓　[時代不明]ピット","弥生土器　土師器　須恵器　釘　金銅製観音立像　銭貨",139.653294,35.78173754,TRUE
13119004100,13119,"41","おきやま・よつばちくいせき","沖山・四葉地区遺跡","板橋区 四葉二丁目","[縄文時代][弥生時代（中期〜後期）][古墳時代][平安時代][中世][近世]","包蔵地・集落","[弥生時代]環濠　住居　ピット　土坑　[古墳時代]住居　[奈良時代][平安時代]住居　[中世]段切り　溝状遺構　[近世]畝　土壙墓","縄文土器　打斧　弥生土器　土師器　須恵器　銅製?帯　板碑　陶磁器　くし　簪　人形　銭貨　胞衣壺",139.6520237,35.78315798,TRUE
13119004200,13119,"42","よつばちくいせき","四葉地区遺跡","板橋区 四葉二丁目　 徳丸八丁目","[旧石器時代][縄文時代（早期〜晩期）][弥生時代（後期）][古墳時代][奈良時代][平安時代][中世][近世]","包蔵地・集落","[旧石器時代]ブロック　炭化物集中　[縄文時代]住居　陥し穴　[弥生時代][古墳時代]環濠　住居　方形周溝墓　円形周溝墓　[古墳時代]土坑　[奈良時代][平安時代]住居　土坑　地下式土坑　[中世][近世]段切り　溝　[近世]地下室　ゴミ穴　溝　[時代不明]井戸　火葬墓","ナイフ形石器　細石刃　掻器　抉入石器　敲石　石核　縄文土器　打斧　磨斧　局部磨斧　有舌尖頭器　石鏃　楔形石器　石皿　磨石　スタンプ形石器　敲石　土製品　弥生土器　磨斧　石包丁　石皿　台石　土師器　須恵器　鉄鏃　陶磁器　銭貨　獣骨",139.6548046,35.7812362,TRUE
13119004300,13119,"43","","板橋区No.43遺跡","板橋区 徳丸一丁目","[縄文時代][弥生時代][古墳時代]","包蔵地・集落","[縄文時代]住居　[古墳時代]住居","弥生土器　土師器",139.6661239,35.77142733,TRUE
13119004500,13119,"45","","板橋区No.45遺跡","板橋区 徳丸一丁目","[弥生時代][古墳時代]","包蔵地","","土師器",139.6652656,35.77346077,TRUE
13119004600,13119,"46","","板橋区No.46遺跡","板橋区 徳丸二丁目","[縄文時代][弥生時代][古墳時代]","包蔵地・集落","","縄文土器　弥生土器　土師器",139.661489,35.77298723,TRUE
13119004700,13119,"47","","板橋区No.47遺跡","板橋区 徳丸二丁目　 徳丸三丁目","[縄文時代][弥生時代][古墳時代]","包蔵地","[時代不明]住居","縄文土器　石鏃　弥生土器　土師器　須恵器",139.6594291,35.77354434,TRUE
13119004900,13119,"49","とくまるきょうむねいせき","徳丸京宗遺跡","板橋区 徳丸四丁目","[縄文時代][弥生時代][古墳時代]","包蔵地","","縄文土器　弥生土器　土師器",139.6539359,35.77298723,TRUE
13119005000,13119,"50","","板橋区No.50遺跡","板橋区 徳丸三丁目　 徳丸四丁目","[縄文時代][弥生時代][古墳時代]","包蔵地・集落","[縄文時代]住居　[弥生時代]住居　[古墳時代]住居","縄文土器　弥生土器　土師器",139.6557212,35.77451925,TRUE
13119005100,13119,"51","とくまるもりのきいせき","徳丸森木遺跡","板橋区 徳丸五丁目　 四葉一丁目","[旧石器時代][縄文時代（早期〜中期・晩期）][弥生時代（後期）][古墳時代]","包蔵地・集落","[旧石器時代]ブロック　[縄文時代]土坑　[弥生時代]住居　[古墳時代]方形周溝墓　[時代不明]土坑　溝","剥片　縄文土器　石鏃　弥生土器　石器　土師器",139.6539016,35.77900372,TRUE
13119005200,13119,"52","とくまるいしかわ／とくまるみつわいせき","徳丸石川／徳丸三ツ和遺跡","板橋区 徳丸五丁目","[縄文時代（早期〜晩期）][弥生時代（後期）][古墳時代][中世][近世]","包蔵地・集落・城館","[縄文時代]土坑　[弥生時代]住居　円形周溝墓　特殊遺構　[古墳時代]住居　[中世]堀","角錐状石器　縄文土器　石器　耳飾　弥生土器　土師器　陶磁器",139.6565108,35.77864163,TRUE
13119005300,13119,"53","とくまるたかやまかいづか","徳丸高山貝塚","板橋区 徳丸六丁目","[縄文時代（早期〜後期）][弥生時代（後期）][古墳時代][奈良時代][平安時代][近世]","包蔵地・集落","[旧石器時代]礫群　[縄文時代]住居　[古墳時代][平安時代]住居","角錐状石器　縄文土器　石器　石包丁",139.6624846,35.77861377,TRUE
13119005400,13119,"54","とくまるひがし／とくまるきたのじんじゃいせき","徳丸東／徳丸北野神社遺跡","板橋区 徳丸六丁目","[縄文時代（早期〜晩期）][弥生時代（後期）][古墳時代][奈良時代][平安時代][近世]","包蔵地・集落","[縄文時代]土坑　埋甕　[弥生時代]住居　方形周溝墓　壺棺　[古墳時代]住居　[奈良時代]住居　[時代不明]住居　掘立柱建物　ピット","ナイフ形石器　楔形石器　彫器　石核　縄文土器　打斧　磨斧　礫器　石鏃　削器　磨石　抉入石器　凹石　敲石　土製品　弥生土器　砥石　土師器　須恵器　土錘　土玉　支脚　鞴口　土製鏡　青銅環　石製品",139.6597037,35.77872518,TRUE
13119005500,13119,"55","","板橋区No.55遺跡","板橋区 徳丸六丁目　 徳丸七丁目","[縄文時代][弥生時代][古墳時代]","包蔵地","[時代不明]住居","縄文土器　石器　弥生土器　土師器　砥石",139.660871,35.78003427,TRUE
13119005600,13119,"56","つじやまかいづか","辻山貝塚","板橋区 徳丸七丁目","[縄文時代（後期）][弥生時代][古墳時代][平安時代]","包蔵地・集落・貝塚","[時代不明]住居","縄文土器　弥生土器　土師器",139.6626906,35.78098126,TRUE
13119005700,13119,"57","","板橋区No.57遺跡","板橋区 徳丸七丁目　 徳丸八丁目","[縄文時代（中期）][弥生時代（後期）][古墳時代][奈良時代][平安時代][中世][近世]","包蔵地・集落","","縄文土器　弥生土器　土師器",139.6586051,35.78073058,TRUE
13119005800,13119,"58","にしだいごとうだいせき","西台後藤田遺跡","板橋区 西台一丁目　 西台三丁目　 西台四丁目　 若木二丁目","[旧石器時代][縄文時代（早期〜後期）][弥生時代（後期）][古墳時代][奈良時代][平安時代][近世]","包蔵地・集落・貝塚","","縄文土器",139.670392,35.77291791,TRUE
13119005900,13119,"59","","板橋区No.59遺跡","板橋区 西台一丁目","[縄文時代（前期）][弥生時代][古墳時代]","包蔵地","","縄文土器　弥生土器　土師器",139.6728982,35.77634402,TRUE
13119006200,13119,"62","にしだいいせき","西台遺跡","板橋区 西台二丁目　 西台三丁目","[縄文時代（早期〜後期）][弥生時代（後期）]","包蔵地・集落","[縄文時代]土坑　ピット　[弥生時代]住居　[古墳時代]住居　土坑","縄文土器　石皿　磨石　弥生土器　土師器",139.6682181,35.77755534,TRUE
13119006300,13119,"63","ごたんだいせき","五段田遺跡","板橋区 西台三丁目","[旧石器時代][縄文時代（中期〜晩期）][弥生時代（後期）][古墳時代][奈良時代][平安時代][中世][近世]","包蔵地・集落・墳墓","[旧石器時代]ブロック　[縄文時代]住居　炉穴　土坑　[弥生時代]住居　方形周溝墓　土坑　溝　[奈良時代][平安時代]溝　[中世]掘立柱建物　竪穴状遺構　地下式土壙　段切状遺構　[近世]土坑　井戸　畝状遺構　道路状遺構","ナイフ形石器　石刃　剥片　縄文土器　石器　弥生土器　土師器　埴輪　陶磁器　土師質土器　金属製品　銭貨",139.6682525,35.77443569,TRUE
13119006400,13119,"64","","板橋区No.64遺跡","板橋区 西台三丁目","[縄文時代][弥生時代][古墳時代]","包蔵地","","縄文土器　弥生土器　土師器",139.6700721,35.77566128,TRUE
13119006600,13119,"66","","板橋区No.66遺跡","板橋区 若木二丁目","[縄文時代][弥生時代][古墳時代][平安時代]","包蔵地","","",139.6725892,35.77080089,TRUE
13119006700,13119,"67","","板橋区No.67遺跡","板橋区 若木一丁目　 若木二丁目","[縄文時代（後期）][弥生時代][古墳時代]","包蔵地","","",139.6718683,35.76876739,TRUE
13119007100,13119,"71","なかだいばばさきかいづか","中台馬場崎貝塚","板橋区 若木三丁目","[縄文時代（早期〜晩期）][弥生時代（後期）][奈良時代]","包蔵地・集落・貝塚","[縄文時代]住居　炉穴　[弥生時代]住居","縄文土器　石器　弥生土器",139.6767434,35.77419924,TRUE
13119007400,13119,"74","","板橋区No.74遺跡","板橋区 中台一丁目","[縄文時代（早期）][弥生時代][古墳時代]","包蔵地","","",139.6803988,35.76675995,TRUE
13119007700,13119,"77","","板橋区No.77遺跡","板橋区 中台二丁目","[縄文時代（前期）][弥生時代][古墳時代]","包蔵地","","",139.680314,35.7701602,TRUE
13119007800,13119,"78","","板橋区No.78遺跡","板橋区 中台二丁目　 中台三丁目","[縄文時代（前期）][弥生時代（中期〜後期）][古墳時代]","包蔵地","","縄文土器　弥生土器　土師器",139.6822709,35.77227724,TRUE
13119007900,13119,"79","なかだいさんちょうめひがしきゅうりょう／なかだいはたなかいせき","中台三丁目東丘陵／中台畠中遺跡","板橋区 中台二丁目　 中台三丁目","[旧石器時代][縄文時代（早期〜晩期）][弥生時代（中期〜後期）][古墳時代][奈良時代][平安時代]","包蔵地・集落","[縄文時代]住居　土坑　[弥生時代]住居　[古墳時代]住居　[平安時代]住居","ナイフ形石器　掻器　縄文土器　石器　弥生土器　土師器　須恵器　鉄鎌　土製勾玉　金環",139.6824426,35.77380927,TRUE
13119008100,13119,"81","","板橋区No.81遺跡","板橋区 中台三丁目","[縄文時代（前期〜中期）][弥生時代][古墳時代]","包蔵地","","縄文土器　弥生土器　須恵器　円筒植輪",139.6773958,35.77091232,TRUE
13119008300,13119,"83","なかだいさんちょうめみなみ／なかだいさんちょうめみなみのおかいせき","中台三丁目南／中台三丁目南の丘遺跡","板橋区 中台三丁目","[旧石器時代][縄文時代（早期〜後期）][弥生時代（後期）][古墳時代][奈良時代][平安時代]","集落","[縄文時代]炉穴　土坑　[弥生時代]住居　[古墳時代]住居　[奈良時代][平安時代]住居　[時代不明]土坑","ナイフ形石器　縄文土器　石器　弥生土器　土師器　須恵器　土玉",139.6780481,35.77322432,TRUE
13119008400,13119,"84","","板橋区No.84遺跡","板橋区 中台三丁目","[弥生時代][古墳時代]","包蔵地","[時代不明]住居","縄文土器　弥生土器　土師器　須恵器",139.678872,35.77464491,TRUE
13119008500,13119,"85","","板橋区No.85遺跡","板橋区 前野町三丁目","[弥生時代][古墳時代]","包蔵地・集落","[弥生時代]住居","弥生土器",139.6911674,35.76872194,TRUE
13119008700,13119,"87","","板橋区No.87遺跡","板橋区 大原町　 前野町三丁目","[弥生時代]","包蔵地","[時代不明]住居","",139.6944977,35.76941835,TRUE
13119008800,13119,"88","まえのくまのきたいせき","前野熊野北遺跡","板橋区 前野町三丁目　 前野町四丁目","[縄文時代（後期）][弥生時代（後期）][古墳時代]","包蔵地・集落","[弥生時代]住居","弥生土器",139.6929871,35.77156327,TRUE
13119008900,13119,"89","","板橋区No.89遺跡","板橋区 前野町四丁目　 前野町五丁目","[縄文時代（後期）][弥生時代（後期）][古墳時代]","包蔵地・集落","","",139.6886612,35.7705326,TRUE
13119009000,13119,"90","まえのうさぎやつひがしいせき","前野兎谷東遺跡","板橋区 前野町四丁目","[弥生時代]","集落","","弥生土器",139.6894852,35.77164683,TRUE
13119009100,13119,"91","","板橋区No.91遺跡","板橋区 前野町四丁目","[弥生時代][古墳時代]","包蔵地","","弥生土器　土師器",139.6915794,35.77108972,TRUE
13119009200,13119,"92","","板橋区No.92遺跡","板橋区 前野町四丁目","[弥生時代][古墳時代]","包蔵地","","弥生土器",139.6887642,35.77256606,TRUE
13119009300,13119,"93","","板橋区No.93遺跡","板橋区 前野町四丁目","[縄文時代][弥生時代]","包蔵地","","縄文土器　弥生土器",139.6898628,35.77356885,TRUE
13119009400,13119,"94","まえのひぐらしくぼ／まえのうさぎやついせき","前野日暮久保／前野兎谷遺跡","板橋区 前野町五丁目","[旧石器時代][縄文時代（早期〜後期）][弥生時代][古墳時代][奈良時代][平安時代][近世]","包蔵地・集落","[縄文時代]小竪穴　[弥生時代]住居","縄文土器　石器　弥生土器　土師器",139.6853711,35.77037696,TRUE
13119009500,13119,"95","","板橋区No.95遺跡","板橋区 前野町五丁目","[弥生時代]","包蔵地","","",139.6867443,35.77274469,TRUE
13119009600,13119,"96","でいみなみいせき","出井南遺跡","板橋区 泉町　 前野町一丁目　 大原町","[縄文時代（前期）][弥生時代]","包蔵地","","縄文土器　石器",139.6984116,35.7656298,TRUE
13119009900,13119,"99","しまいはた／しむら／しむらさかうえいせき","四枚畑／志村／志村坂上遺跡","板橋区 前野町三丁目　 前野町四丁目　 志村一丁目","[旧石器時代][縄文時代（早期〜晩期）][弥生時代（後期）][古墳時代][奈良時代][平安時代][中世][近世]","包蔵地・集落・貝塚","[旧石器時代]ブロック　礫群　[縄文時代]住居　土坑　ピット　[弥生時代]住居　[古墳時代]住居　[奈良時代][平安時代]溝　[近世]溝　道路","ナイフ形石器　掻器　縄文土器　石器　けつ状耳飾　土偶　骨角器　弥生土器　土師器　須恵器",139.6953217,35.7739031,TRUE
13119010000,13119,"100","しむらさかうえさいほういせき","志村坂上西方遺跡","板橋区 志村一丁目","[縄文時代（中期）][弥生時代（後期）][古墳時代][奈良時代][平安時代]","包蔵地","","土師器",139.6902405,35.775073,TRUE
13119010100,13119,"101","しむらしろやまいせき・しむらじょうし","志村城山遺跡・志村城址","板橋区 志村二丁目","[旧石器時代][縄文時代（早期〜後期）][弥生時代（中期〜後期）][古墳時代][奈良時代][平安時代][中世][近世]","包蔵地・集落・城館","[弥生時代]環濠　[古墳時代]方形周溝墓　[奈良時代][平安時代]住居　掘立柱建物　柵列　[中世]土壙　溝　堀","縄文土器　打斧　磨斧　石鏃　掻器　磨石　弥生土器　土師器　須恵器　支脚　羽口　鉄針　陶磁器",139.6877743,35.7758087,TRUE
13119010400,13119,"104","あずさわかいづか／あずさわみやのまえみなみいせき","小豆沢貝塚／小豆沢宮ノ前南遺跡","板橋区 小豆沢二丁目　 小豆沢四丁目","[縄文時代（早・前・中・後・晩期）][弥生時代（中・後期）][古墳時代][奈良時代][平安時代][中世][近世]","包蔵地・集落・貝塚","[縄文]住居　土坑　埋甕　焼土範囲　貝層　[弥生時代]方形周溝墓　[奈良・平安]竪穴建物跡　掘立柱建物跡　ピット　[近世]溝　[時代不明]小穴　","縄文土器　石器　礫　石製品　土製品　貝製品　弥生土器　ガラス小玉　土師器　須恵器　灰釉陶器　鉄鏃　銅製巡方　石製丸鞆　陶磁器",139.7000938,35.77888896,TRUE
13119010500,13119,"105","あずさわひがしはら／あずさわみやのまえいせき","小豆沢東原／小豆沢宮ノ前遺跡","板橋区 小豆沢一丁目　 小豆沢二丁目　 小豆沢四丁目","[縄文時代（後期）][弥生時代][古墳時代][奈良時代][平安時代]","集落","[奈良時代][平安時代]住居","",139.7027031,35.77788624,TRUE
13119010600,13119,"106","くりはらいせき","栗原遺跡","板橋区 桜川一丁目","[旧石器時代][縄文時代（早期・後期）][弥生時代][古墳時代][平安時代]","集落","[旧石器時代]礫群　[弥生時代]住居　[奈良時代]住居","掻器　礫　剥片　縄文土器　打斧　磨斧　弥生土器　土師器　須恵器　紡錘車　砥石　鎌　手斧　刀子　鑿　鉄鏃　鋸　鎖　金具",139.6739624,35.75658133,TRUE
13119010700,13119,"107","","板橋区No.107遺跡","板橋区 桜川二丁目　 東新町一丁目　 東新町二丁目","[縄文時代（後期）][弥生時代]","包蔵地","","弥生土器",139.6789257,35.75750808,TRUE
13119010900,13119,"109","むかいやしきいせき","向屋敷遺跡","板橋区 南常盤台一丁目　 常盤台一丁目","[弥生時代][古墳時代]","集落","[弥生時代]住居　[古墳時代]住居","弥生土器　土師器",139.6895343,35.75806529,TRUE
13119011200,13119,"112","かがいっちょうめいせき","加賀一丁目遺跡","板橋区 加賀一丁目　 板橋四丁目","[旧石器][縄文時代(早・前)][弥生時代][古墳時代][奈良時代][近世]その他（近代）","集落　包蔵地　屋敷　その他（陸軍火薬製造所跡、庭園）","[旧石器]石器ブロック　炭化物集中く　[縄文時代]土坑　ピット　包含層　[古墳時代][奈良時代]竪穴建物跡　[中世・近世]地下式坑　土坑　[近代]建物基礎、土塁、三和土、擁壁","ナイフ形石器　角錐状石器　スクレイパー　縄文土器　弥生土器　土師器　須恵器　陶磁器　土師質土器　土製品　ガラス製品　鉄製品　石製品　敷瓦　コンクリート煉瓦　U字溝、石製品　煉瓦　耐火煉瓦",139.7201931,35.75469412,TRUE
13119011300,13119,"113","ねのかみいせき","根ノ上遺跡","板橋区 小茂根一丁目　 小茂根二丁目","[旧石器時代][縄文時代（早期）][弥生時代][平安時代]","包蔵地・集落","[縄文時代]住居　[弥生時代]住居　溝状遺構　[平安時代]住居","ナイフ形石器　細石刃核　角錐状石器　縄文土器　石器　弥生土器　土師器　須恵器　　炭化米",139.6818858,35.74661532,TRUE
13119011400,13119,"114","","板橋区No.114遺跡","板橋区 小茂根一丁目　 小茂根二丁目","[弥生時代]","包蔵地","","弥生土器",139.6800319,35.74750697,TRUE
13119011500,13119,"115","ねのかみせいほういせき","根ノ上西方遺跡","板橋区 小茂根一丁目　 小茂根四丁目","[弥生時代][古墳時代]","包蔵地","","弥生土器　土師器",139.6778346,35.74714474,TRUE
13119011800,13119,"118","こやまだい／こもねこやまいせき","小山台／小茂根小山遺跡","板橋区 小茂根二丁目　 小茂根三丁目","[旧石器時代][弥生時代]","集落","[弥生時代]住居","剥片　弥生土器",139.6816798,35.7500147,TRUE
13119012100,13119,"121","","板橋区No.121遺跡","板橋区 小茂根五丁目","[弥生時代][古墳時代]","包蔵地","","",139.6771823,35.75029333,TRUE
13119012200,13119,"122","もろいせき","茂呂遺跡","板橋区 小茂根五丁目","[旧石器時代][縄文時代（早期〜中期）][弥生時代（後期）][奈良時代][平安時代]","包蔵地・集落","[旧石器時代]礫群　[平安時代]住居","ナイフ形石器　角錐状石器　掻器　石核　剥片　縄文土器　弥生土器　土師器　須恵器",139.6764957,35.75316317,TRUE
13119012400,13119,"124","むかいはらいせき","向原遺跡","板橋区 向原一丁目　 大谷口二丁目","[旧石器時代][縄文時代（草創期・前期）][弥生時代（後期）][近世]","包蔵地・集落","[旧石器時代]ブロック　[縄文時代]炉　ピット　[弥生時代]住居　ピット　[近世]土坑　溝状遺構","ナイフ形石器　尖頭器　石核　縄文土器　打斧　有舌尖頭器　石鏃　石錐　楔形石器　磨石　スタンプ形石器　土製けつ状耳飾　土製耳飾　土製品　弥生土器　土師器　紡錘車　陶磁器　瓦　砥石　金属製品　銭貨",139.686966,35.740913,TRUE
13119013300,13119,"133","はやせまえ／とくまるがはらおおはしいせき","早瀬前／徳丸原大橋遺跡","板橋区 高島平六丁目　 新河岸三丁目","[縄文時代（早期・中期〜後期）][弥生時代（後期）][古墳時代][奈良時代][平安時代][中世][近世]","包蔵地・集落","[弥生時代]溝　[古墳時代]方形周溝墓　[平安時代]掘立柱建物　井戸　水田　[平安時代][中世][近世]溝","弥生土器　土師器　須恵器　石器　勾玉　石製模造品　木製品　木材　柱根　植物遺体　動物遺体　陶磁器　銭貨",139.6506256,35.79304784,TRUE
13119013400,13119,"134","ふなどいせき","舟渡遺跡","板橋区 舟渡一丁目　 舟渡二丁目　 舟渡三丁目","[縄文時代（前期〜中期）][弥生時代（後期）][古墳時代][平安時代][中世][近世]","包蔵地・集落","[平安時代]住居　溝　[中世]柱穴　井戸　大溝　掘立柱建物跡　[古墳時代]方形周溝墓　溝","縄文土器（縄文前〜中期）　弥生土器（弥生後期）　土師器　須恵器　木製品　陶磁器　根碑　石製品　木製品　土製品　石器　鉄製品　　土器　古銭　金属製品",139.6876999,35.79456869,TRUE
13119017100,13119,"171","にしはらいせき","西原遺跡","板橋区 双葉町","[旧石器時代][縄文時代（早期〜後期）][弥生時代（後期）]","包蔵地・集落","[旧石器時代]ブロック　礫群　[縄文時代]住居　土坑　[弥生時代]住居　土坑","ナイフ形石器　石核　弥生土器",139.6984951,35.7582046,TRUE
13119017200,13119,"172","くぼたいせき","久保田遺跡","板橋区 栄町　 中板橋","[旧石器時代][縄文時代（草創・前期〜後期）][弥生時代（前期・後期）][奈良時代][平安時代][中世][近世]","包蔵地・集落","[弥生時代][中世][近世]土坑　[中世]掘立柱建物　[近世]溝　[時代不明]井戸","縄文土器　弥生土器",139.7003833,35.7555021,TRUE
13119017500,13119,"175","さかしたさんちょうめいせき","坂下三丁目遺跡","板橋区 坂下三丁目","[縄文時代（前期〜後期）][弥生時代（後期）][古墳時代][奈良時代][平安時代][中世][近世]","包蔵地・集落","[弥生時代（後期）]〜［古墳時代（前期）］土坑　井戸跡　溝跡","縄文土器　弥生土器　[古墳時代（前期）]土師器　[奈良・平安時代]土師器・須恵器　[中世]土器・陶器",139.6807991,35.78582407,TRUE
13120000600,13120,"6","びくにばしいせきびーちてん","比丘尼橋遺跡Ｂ地点","練馬区 大泉町二丁目","[旧石器時代][縄文時代（草創期〜晩期）][弥生時代（後期）][近世]","包蔵地・集落","[旧石器時代]石器ブロック　礫群　[縄文時代]炉穴　竪穴住居跡　土坑　ピット　陥穴　集石土坑","ナイフ型石器　彫器　縄文土器　石鏃　打製石斧　けつ状耳飾　陶磁器　近世陶磁器",139.5997269,35.7575946,TRUE
13120000700,13120,"7","おおいずみうちこしいせき","大泉打越遺跡","練馬区 大泉町六丁目","[縄文時代（早期〜前期・中期・後期）][弥生時代][平安時代]","集落","[縄文時代]土坑、竪穴住居跡、貯蔵穴、土坑、集石土坑","縄文土器　打製石斧　石棒　弥生土器　土師器",139.5919678,35.75564398,TRUE
13120000800,13120,"8","","練馬区No.8遺跡","練馬区 大泉町五丁目","[弥生時代][古墳時代][奈良時代][平安時代]","包蔵地","","弥生土器　土師器",139.5951607,35.75851399,TRUE
13120001000,13120,"10","がいかんどうろかんれん","外かん道路関連遺跡","練馬区 大泉町三丁目　 大泉町四丁目","[旧石器時代][縄文時代（草創期〜後期）][弥生時代（中期〜後期）][古墳時代][奈良時代][平安時代][中世][近世]","包蔵地・集落・その他（低湿地）","[縄文時代]石器製作址（石鏃）　[弥生時代]方形周溝墓　[古墳時代]竪穴住居跡","（旧石器）尖頭器　ナイフ型石器　（縄文）縄文土器　打製石斧　石鏃　垂飾り　（弥生〜古墳）土器　木器（段梯子　農耕具）　ガラス玉　（奈良・平安）土師器　須恵器",139.5996239,35.76386297,TRUE
13120001100,13120,"11","えちごやまいせき","越後山遺跡","練馬区 大泉町一丁目","[縄文時代（早期〜後期）][弥生時代（後期）][古墳時代]","集落","[弥生時代]住居　方形周溝墓","縄文土器　弥生土器　土師器",139.6099236,35.76971265,TRUE
13120001300,13120,"13","えちごやまにしいせき","越後山西遺跡","練馬区 大泉町一 丁目","[旧石器時代][縄文時代（中期）][弥生時代（後期）]","集落","[弥生時代]竪穴住居跡","石器　縄文土器　弥生土器",139.6026108,35.76826411,TRUE
13120001800,13120,"18","","練馬区No.18遺跡","練馬区 大泉町一丁目","[旧石器時代][縄文時代（早期・中期）][弥生時代]","包蔵地","ピット","（旧石器）細部調整剥片　（縄文）土器（早期撚糸文）　（弥生）土器",139.6059067,35.76787411,TRUE
13120002000,13120,"20","まるやまいせき","丸山遺跡","練馬区 大泉町三丁目","[旧石器時代][縄文時代（早期〜後期）][弥生時代][奈良時代][平安時代][中世]","集落","[旧石器時代]礫群　[弥生時代]住居　[中世]地下式土坑　[時代不明]溝状遺構","石器　縄文土器　弥生土器　土師器　須恵器",139.5983193,35.7636401,TRUE
13120002800,13120,"28","","練馬区No.28遺跡","練馬区 東大泉二丁目","[縄文時代（早期〜後期）][弥生時代]","包蔵地","","縄文土器　弥生土器　土師器",139.5967744,35.75441808,TRUE
13120003100,13120,"31","","練馬区No.31遺跡","練馬区 南大泉四丁目","[縄文時代（前期〜晩期）][弥生時代]","包蔵地","","縄文土器",139.5752548,35.74727066,TRUE
13120004500,13120,"45","しろやまいせき・あたごやまるい","城山遺跡・愛宕山塁","練馬区 上石神井三丁目","[旧石器時代][縄文時代（早期〜晩期）][弥生時代][中世]","集落・城館","[旧石器時代]礫群　[縄文時代]住居　石器集中部　礫群　炉穴　集石土坑　濠状遺構　住居址　[中世]堀","石器　縄文土器　弥生土器　ナイフ形石器　尖頭器　細石刃　細石刃核　石鏃　扶入磨石　鉄製品",139.5927615,35.732401,TRUE
13120006400,13120,"64","いけぶちいせき","池淵遺跡","練馬区 石神井町五丁目","[旧石器時代][縄文時代（草創期〜後期）][弥生時代（後期）][古墳時代][中世]","集落","[旧石器時代]礫群　[縄文時代]住居　土坑　ピット　[中世]溝状遺構","石器（打製石斧　石皿　石鏃）　縄文土器　弥生土器　土師器　須恵器　陶磁器",139.6020365,35.73797788,TRUE
13120008900,13120,"89","なかむらばしいせき","中村橋遺跡","練馬区 貫井二丁目","[旧石器時代][縄文時代（中期〜後期）][弥生時代（後期）][古墳時代][奈良時代][平安時代]","集落","[縄文時代]住居　炉　集石土坑　土坑　[平安時代]住居址","縄文土器　石器　土偶　弥生土器　土師器　打製石斧　石匙　掻器　須恵器坏（墨書土器）",139.6368036,35.73993539,TRUE
13120009100,13120,"91","ぬくいにちょうめいせき","貫井二丁目遺跡","練馬区 貫井二丁目","[旧石器時代][縄文時代（中期〜後期）][弥生時代（後期）][奈良時代][平安時代][近世]","集落・その他の墓","[縄文時代]住居　土坑　[弥生時代]住居　[奈良時代][平安時代]住居　土師器焼成坑　[近世]墓壙　溝状遺構","石器　縄文土器　弥生土器　土師器　須恵器　馬具　家牛骨　人骨",139.633851,35.74043699,TRUE
13120009300,13120,"93","","練馬区No.93遺跡","練馬区 貫井三丁目","[弥生時代]","包蔵地","","弥生土器",139.6295595,35.73642411,TRUE
13120009400,13120,"94","たじまいせき","田島遺跡","練馬区 貫井四丁目","[旧石器時代][縄文時代（草創期〜中期）][弥生時代（後期）]","集落","[旧石器時代]石器ブロック　[縄文時代]集石　[弥生時代]住居","縄文土器　石器　弥生土器",139.6271906,35.74341865,TRUE
13120009800,13120,"98","おさきいせき","尾崎遺跡","練馬区 春日町五丁目","[旧石器時代][縄文時代（早期〜晩期）][弥生時代][奈良時代][平安時代][中世][近世]","集落・墓地","[旧石器時代]礫群　[縄文時代]焼土　[弥生時代]土坑　溝状遺構　[平安時代]住居　井戸　[中世]柱穴群　井戸　土坑　溝状遺構　[近世]溝状遺構","石器　縄文土器　弥生土器　土師器　須恵器　陶磁器　木器",139.6398092,35.74706462,TRUE
13120010000,13120,"100","","練馬区No.100遺跡","練馬区 早宮一丁目","[旧石器時代][縄文時代（中期）][弥生時代]","集落","[弥生時代]住居址","縄文土器　弥生土器",139.661941,35.75106414,TRUE
13120010100,13120,"101","なかみやいせき","中宮遺跡","練馬区 早宮三丁目","[縄文時代（早期）][弥生時代（後期）][古墳時代]","集落","[縄文時代]住居　土坑　陥穴　ピット　[古墳時代]住居","縄文土器　石器　弥生土器　土師器",139.6525683,35.74844499,TRUE
13120010300,13120,"103","","練馬区No.103遺跡","練馬区 平和台一丁目","[縄文時代（中期）][弥生時代（後期）]","包蔵地","","縄文土器　弥生土器",139.6658902,35.75998138,TRUE
13120010700,13120,"107","もろえーちてんいせき","茂呂A地点遺跡","練馬区 羽沢三丁目","[縄文時代（早期〜前期・後期）][弥生時代][近世]","包蔵地","溝","縄文土器　石器　弥生土器　土師器　緑釉陶器",139.6733736,35.75315674,TRUE
13120010800,13120,"108","くりやま・うまのかみやしきあといせき","栗山・右馬頭屋敷跡遺跡","練馬区 練馬二丁目","[旧石器時代][縄文時代（草創期〜後期）][弥生時代（後期）][古墳時代][平安時代][中世]","集落","[旧石器時代]石器ブロック　礫群　[縄文時代]住居　炉穴　陥穴　土坑　ピット　[平安時代]住居　[時代不明]溝状遺構","縄文土器　石器　弥生土器　土師器　須恵器",139.6531301,35.74299634,TRUE
13120011400,13120,"114","たかいなりいせき","高稲荷遺跡","練馬区 桜台六丁目","[旧石器時代][縄文時代（早期・中期）][弥生時代]","集落","[縄文時代]土坑　[弥生時代]溝状遺構","",139.6583018,35.74844499,TRUE
13120012900,13120,"129","くりはらいせき","栗原遺跡","練馬区 氷川台一丁目","[旧石器時代][縄文時代（早期〜後期）][弥生時代（後期）][奈良時代][平安時代]","集落","[旧石器時代]礫群　[弥生時代][奈良時代][平安時代]住居","石器　縄文土器　弥生土器　土師器　須恵器　砥石　石製紡錘車",139.6725153,35.75546926,TRUE
13120013000,13120,"130","ねりまじょうあと","練馬城跡","練馬区 向山三丁目","[旧石器時代][縄文時代（早期〜中期）][弥生時代][古墳時代][奈良時代][平安時代][中世]","集落・城館","[旧石器時代]石器ブロック　[縄文時代]炉穴　集石　土坑　[古墳時代]住居[中世]堀切り","縄文土器　石器　土師器　須恵器",139.6458275,35.74255871,TRUE
13120014300,13120,"143","ひがしはやぶちいせき","東早淵遺跡","練馬区 早宮一丁目","[旧石器時代][縄文時代（早期〜前期）][弥生時代][古墳時代][平安時代]","集落","[縄文時代]住居　炉穴　土坑　ピット　[弥生時代]方形周溝墓　[古墳時代]住居","縄文土器　石器　弥生土器",139.6597437,35.75106414,TRUE
13120015000,13120,"150","あたごしたいせき","愛宕下遺跡","練馬区 大泉町四丁目","[旧石器時代][縄文時代（草創期〜後期）][弥生時代（後期）][近世]","集落","[旧石器時代]礫群　石器ブロック　[縄文時代]住居　陥穴　集石　竪穴住居","縄文土器　石器　陶磁器",139.5999673,35.75929407,TRUE
13121000100,13121,"1","とみんごるふじょういせき","都民ゴルフ場遺跡","足立区 江北二丁目","[弥生時代][古墳時代]","包蔵地","[古墳時代]祭祀遺構","弥生土器　土師器　須恵器",139.7608857,35.76843606,TRUE
13121002300,13121,"23","おおとりじんじゃけいだいいせき","大鷲神社境内遺跡","足立区 花畑七丁目","[縄文時代（前期・後期）][弥生時代][古墳時代]","包蔵地","","縄文土器　弥生土器　土師器　須恵器　砥石",139.8196735,35.8096434,TRUE
13122000100,13122,"1","みずもといいづかいせき","水元飯塚遺跡","葛飾区 西水元一丁目","[弥生時代][奈良時代][平安時代]","包蔵地","","弥生土器　土師器　須恵器　ニホンウマ下顎骨",139.8501105,35.78187029,TRUE
13122000400,13122,"4","ころくてんひがしいせき","古録天東遺跡","葛飾区 柴又一丁目　 柴又三丁目","[弥生時代][古墳時代][奈良時代][平安時代][中世]","集落","[古墳時代]住居　[奈良時代][平安時代]住居　生産遺構","弥生土器　土師器　須恵器　支脚　砥石　土錘　陶磁器",139.8720469,35.75711587,TRUE
13122000800,13122,"8","ごてんやま・かさいじょうし","御殿山・葛西城址","葛飾区 青戸六丁目　 青戸七丁目　 青戸八丁目","[弥生時代][奈良時代][平安時代][中世][近世]","集落・城館","[古墳時代]住居　ピット　土坑　溝　[中世]掘立柱建物　土坑　ピット　井戸　溝　堀　[近世]水田","弥生土器　土師器　須恵器　土錘　砥石　陶磁器　カワラケ　瓦器　茶臼　瓦　板碑　鉄製品　鉄塊　漆椀　下駄　くし　銭貨　炭化物",139.855644,35.75541297,TRUE
13122001500,13122,"15","しばまたかせんじきいせき","柴又河川敷遺跡","葛飾区 柴又五丁目　 柴又六丁目","[縄文時代][弥生時代][古墳時代][奈良時代][平安時代][中世][近世]","包蔵地","[時代不明]溝　土坑","縄文土器　弥生土器　土師器　須恵器　土錘　陶磁器　カワラケ　素焼土器　土製品",139.8833385,35.75546786,TRUE
13123000100,13123,"1","かみこいわいせき","上小岩遺跡","江戸川区 北小岩六丁目 北小岩七丁目","[弥生時代][古墳時代][奈良時代][平安時代][中世][近世]","集落","[古墳時代]住居　土坑　[奈良時代][平安時代][中世]井戸　溝状遺構　[近世]水田　溝状遺構　[時代不明]土坑","弥生土器　土師器　須恵器　土錘　陶磁器　羽釜　板碑　加工木材　銭貨",139.8887425,35.74357206,TRUE
13123000900,13123,"9","せますやまいせき","勢増山遺跡","江戸川区 上篠崎四丁目","[弥生時代][時代不明]","包蔵地","","弥生土器　磨石　土師器　須恵器　土錘",139.9007662,35.70897315,TRUE
13123001000,13123,"10","つばきちょういせき","椿町遺跡","江戸川区 春江町二丁目","[弥生時代][古墳時代][奈良時代][平安時代]","包蔵地","","弥生土器　土師器　須恵器　土錘　陶磁器",139.8916586,35.69987061,TRUE
13201002700,13201,"27","かわぐちょうととのいだいいせき・かわぐちし（かわぐち）たてあと","川口町調井台遺跡・川口氏（川口）館跡","八王子市 川口町","[縄文時代（早期〜後期）][弥生時代][古墳時代][平安時代][近世]","集落","[縄文時代]住居　[弥生時代]住居","縄文土器　打斧　石鏃　磨石　弥生土器　土師器　須恵器",139.2830657,35.68929199,TRUE
13201003400,13201,"34","いぬめこうのはらいせき","犬目甲の原遺跡","八王子市 犬目町　 中野町","[縄文時代（早期〜中期）][弥生時代（後期）][古墳時代][平安時代]","集落","[弥生時代]住居　方形周溝墓　[古墳時代]住居　[平安時代]住居","縄文土器　弥生土器　鏃形石製品　鉄製有孔円板　ガラス小玉　土師器　須恵器　鉄釘　鉄鏃　鉄製工具　土錘　火打金　鉄滓　炭化種子",139.314106,35.68406912,TRUE
13201004100,13201,"41","ふかざわいせき","深沢遺跡","八王子市 下恩方町　 西寺方町","[縄文時代（早期〜後期）][弥生時代][平安時代][近世]","集落","[縄文時代]敷石住居　集石土坑　焼土　土坑　[平安時代]住居　土坑","縄文土器　打斧　磨斧　石槍　石鏃　掻器　石錐　石錘　石皿　磨石　凹石　剥片　土製円板　石棒　土版　弥生土器　土師器　陶磁器",139.2624362,35.67040911,TRUE
13201007000,13201,"70","うつぎむこうはらいせき","宇津木向原遺跡","八王子市 宇津木町　 尾崎町","[縄文時代（前期〜中期）][弥生時代][古墳時代]","集落","[縄文時代]住居　土坑　配石　[弥生時代]住居　方形周溝墓　円形周溝　[古墳時代]住居","縄文土器　打斧　弥生土器　土師器　炭化米籾　炭化物",139.3455499,35.67810322,TRUE
13201007303,13201,"73-3","うつぎだいいせきぐんしーちく","宇津木台遺跡群C地区","八王子市 平町 宇津木町","[縄文時代（早期〜中期）][弥生時代（前期〜中期）][古墳時代][奈良時代][平安時代][近世]","集落・塚（経塚）","[縄文時代]住居　集石　炉穴　陥し穴　土坑　遺物集中　[弥生時代]焼土　[古墳時代]住居　集石　土坑　[平安時代]住居　[近世]住居　土坑","縄文土器　打斧　礫器　石皿　磨石　ピエス・エスキーユ　抉入磨石　剥片石器　弥生土器　土師器　須恵器",139.3581068,35.68995802,TRUE
13201007309,13201,"73-9","うつぎだいいせきぐんあいちく","宇津木台遺跡群I地区","八王子市 宇津木町　 平町","[縄文時代（早期〜晩期）][弥生時代（前期〜中期）][弥生時代][奈良時代][平安時代][近世]","集落","[縄文時代]住居　集石土坑　炉穴　焼土　陥し穴　土坑　[古墳時代]住居　[奈良時代]住居　円形土坑　[平安時代]住居　[近世]土坑　[時代不明]土坑","縄文土器　打斧　磨斧　礫器　石鏃　掻器　石錐　石錘　石皿　磨石　スタンプ形石器　抉入磨石　凹石　弥生土器　土師器　須恵器　土製支脚　砥石　刀子　編み石　玉類",139.3600107,35.68919754,TRUE
13201007311,13201,"73-1","うつぎだいいせきぐんけーちく（こみやこふん）","宇津木台遺跡群K地区（小宮古墳）","八王子市 宇津木台 小宮町","[縄文時代（早期〜中期・晩期）][弥生時代][古墳時代][平安時代]","集落・墳墓（円墳）・墓地","円墳 [縄文時代]住居 集石 集石土坑 土坑 [古墳時代]横穴式石室 [平安時代]火葬墓","縄文土器 打斧 磨斧 礫器 石鏃 掻器 石錐 ピエス・エスキーユ 石皿 磨石 敲石 剥片 弥生土器 須恵器 鉄釘 鉄製品",139.3613216,35.68504011,TRUE
13201007313,13201,"73-3","うつぎだいいせきぐんえむちく","宇津木台遺跡群M地区","八王子市 小宮町 石川町","[縄文時代（早期〜後期）][弥生時代][平安時代]","集落","[縄文時代]集石 炉穴 焼土 陥し穴 土坑 [弥生時代]土坑 [中世]溝状遺構","縄文土器 打斧 磨斧 礫器 石鏃 石皿 磨石 スタンプ形石器 抉入磨石 凹石 敲石 弥生土器",139.3596609,35.68377806,TRUE
13201008000,13201,"80","かのうやいせき","叶谷遺跡","八王子市 叶谷町","[縄文時代（中期〜後期）][弥生時代（中期）][古墳時代][近世]","包蔵地","[弥生時代]土坑","縄文土器　弥生土器　土師器　陶磁器",139.2978627,35.67209278,TRUE
13201008200,13201,"82","ならはらいせき","楢原遺跡","八王子市 楢原町　 中野上町三丁目　 中野上町五丁目　 中野町","[縄文時代（中期〜後期）][弥生時代][古墳時代][平安時代][近世]","集落","[縄文時代]住居　土坑　[弥生時代]住居","縄文土器　打斧　磨斧　石槍　石鏃　掻器　石匙　石錐　石皿　凹石　有孔石器　土製円板　けつ状耳飾　勾玉　硬玉製大珠　土偶　弥生土器　炭化稗　土師器　陶磁器",139.3133296,35.67477055,TRUE
13201008300,13201,"83","なかのこうのはらいせき","中野甲の原遺跡","八王子市 中野町　 中野山王二丁目　 中野山王三丁目　 左入町","[縄文時代（早期〜後期）][弥生時代][古墳時代][奈良時代][平安時代][近世]","集落","[縄文時代]住居　敷石住居　集石　土坑　炉穴　土坑　土壙　有穴遺構　[弥生時代]住居　[古墳時代]住居　[平安時代]住居　[時代不明]集石　土坑","縄文土器　打斧　磨斧　礫器　石鏃　石匙　石錘　石皿　磨石　凹石　石棒　土偶　弥生土器　土師器　須恵器　砥石　編み石　鉄製紡錘車　土製管玉　石製装身具",139.3229769,35.67861921,TRUE
13201009100,13201,"91","べんてんばしいせき","弁天橋遺跡","八王子市 大和田町七丁目","[縄文時代（早期・中期）][弥生時代]","集落","[縄文時代]住居　集石　炉穴　土坑","縄文土器　打斧　礫器　石鏃　掻器　石匙　ピエス・エスキーユ　不定形石器　石皿　磨石　台石　石核　石製品",139.3430613,35.66996523,TRUE
13201009200,13201,"92","なかだいせき","中田遺跡","八王子市 中野山王三丁目","[縄文時代（中期）][弥生時代][古墳時代][奈良時代][平安時代]","集落","[縄文時代]住居　[弥生時代]住居　[古墳時代]住居　工房　[奈良時代]住居　[平安時代]住居　[時代不明]住居　石組遺構　集石　配石　溝","縄文土器　打斧　磨斧　掻器　弥生土器　土師器　須恵器　鉄鍬　釘　鉄鏃　刀子　砥石　鉄製紡錘車　土錘　管玉　勾玉　丸玉　臼玉　切子玉　土鈴　土製鏡　鉄製環　瓦　有孔小板　石製模造品　炭化米　炭化物",139.3244189,35.67440798,TRUE
13201009300,13201,"93","さんのうばやしいせき","山王林遺跡","八王子市 中野山王一丁目","[縄文時代（中期〜後期）][弥生時代][古墳時代][奈良時代][平安時代][近世]","集落","[弥生時代]住居　[古墳時代]住居　[奈良時代]住居　[平安時代]住居","縄文土器　弥生土器　土師器　須恵器　瓦　炭化米",139.3277835,35.67253936,TRUE
13201009700,13201,"97","てらまえいせき","寺前遺跡","八王子市 谷野町","[縄文時代（早期〜後期）][弥生時代（後期）][古墳時代][平安時代]","集落","[旧石器時代]]礫群　[縄文時代]住居　集石　焼土　陥し穴　土坑　ピット　[弥生時代]溝　方形周溝墓　[平安時代]住居　土坑","石刃　掻器　剥片　縄文土器　打斧　磨斧　磨石　敲石　砥石　垂飾　弥生土器　土師器　磨石　敲石　砥石　垂飾　弥生土器　土師器　須恵器",139.3275056,35.68472386,TRUE
13201009900,13201,"99","くらぼねやまいせき","鞍骨山遺跡","八王子市 谷野町","[縄文時代（早期〜後期）][弥生時代][平安時代]","集落","[縄文時代]住居　土坑　[弥生時代]住居　[平安時代]住居　[時代不明]集石","縄文土器　打斧　磨斧　礫器　石鏃　石皿　磨石　砥石　けつ状耳飾　弥生土器　土師器　須恵器　ミニチュア土製品　瓦　炭化物",139.3273745,35.68295707,TRUE
13201010000,13201,"100","たきやまたかそういせき","滝山高燥遺跡","八王子市 滝山町一丁目　 左入町","[縄文時代（前期〜後期）][弥生時代][古墳時代][奈良時代][平安時代]","集落","[縄文時代]住居　集石　陥し穴　[古墳時代]住居　[奈良時代]住居","縄文土器　打斧　磨斧　石鏃　石匙　石錐　石皿　磨石　敲石　石刀　石剣　土師器　須恵器　土製支脚",139.340063,35.68345941,TRUE
13201010100,13201,"101","きたおおや・かすがだいいせき","北大谷・春日台遺跡","八王子市 大谷町　 宇津木町　 石川町","[旧石器時代][縄文時代（早期〜後期）][弥生時代][古墳時代][奈良時代][平安時代][近世]","集落","[縄文時代]集石　炉穴　土坑　[弥生時代]住居","縄文土器　打斧　磨石　弥生土器　土師器　須恵器　炭化材",139.3479008,35.67423993,TRUE
13201012400,13201,"124","なかごういせき","中郷遺跡","八王子市 長房町","[縄文時代（早期〜中期）][弥生時代（後期）][古墳時代][平安時代]","集落","[弥生時代?古墳時代]住居跡　[縄文]土坑　[弥生時代]住居跡　土坑　建物跡　[平安]住居跡　土坑内","縄文土器　弥生土器　土師器　石器　土製品　小銅鐸　鉄鉾",139.2902278,35.6523689,TRUE
13201012600,13201,"126","ふなだいせき","船田遺跡","八王子市 長房町","[縄文時代（前期〜晩期）][弥生時代（後期）][古墳時代][奈良時代][平安時代]","集落・墳墓","[縄文時代]住居　敷石住居　土坑　埋甕　[弥生時代]住居　方形周溝墓　[古墳時代]住居　[奈良時代]住居　[平安時代]住居　[時代不明]住居　貯蔵穴　柱穴　土坑　溝　火葬墓","縄文土器　石鏃　石皿　磨石　弥生土器　土師器　須恵器　鋤先　鎌　鉄斧　鉄鏃　刀子　砥石　編み石　紡錘車　陶器　土製模造品　瓦　銭貨　鉄滓　木皿　炭化物",139.297369,35.65563282,TRUE
13201012900,13201,"129","ひらつかいせき","平塚遺跡","八王子市 山田町　 散田町二丁目　 台町","[縄文時代（早期〜中期）][弥生時代（中期〜後期）][古墳時代][奈良時代][平安時代][中世][近世]","集落","[縄文時代]集石　土坑　[古墳時代]住居　土坑　溝　円形周溝墓　[時代不明]敷石状遺構　道状遺構　土坑","縄文土器　打斧　石皿　弥生土器　土師器　須恵器　石器　鉄鏃　銅製品",139.319096,35.64811883,TRUE
13201013000,13201,"130","ごしょみずいせき","御所水遺跡","八王子市 台町二丁目　 散田東町","[縄文時代（早期〜後期）][弥生時代（後期）][奈良時代][平安時代][近世]","集落","[縄文時代]住居　[弥生時代]住居","縄文土器　石槍　石鏃　石皿　土製耳飾　炭化種子　弥生土器　磨斧",139.316418,35.65115975,TRUE
13201013100,13201,"131","","八王子市No.131遺跡","八王子市 台町二丁目","[弥生時代（後期）]","集落","[弥生時代]住居","弥生土器　炭化材",139.3231128,35.65517692,TRUE
13201013900,13201,"139","かみやはら（くぬぎだだいに）いせき","神谷原(椚田第II）遺跡","八王子市 椚田町　 小比企町","[旧石器時代][縄文時代（早期〜中期）][弥生時代][古墳時代][奈良時代][平安時代]","集落","[縄文時代]住居　集石　小竪穴　炉穴　陥し穴　土坑　ピット　[弥生時代][古墳時代]住居　方形周溝墓　円形周溝墓","",139.314497,35.6365017,TRUE
13201014300,13201,"143","ひなたよつやいせき","日向四谷遺跡","八王子市 椚田町　 館町","[縄文時代（早期〜後期）][弥生時代（後期）][古墳時代][平安時代][中世][近世]","集落","[縄文時代]焼土　土坑　ピット群　[弥生時代]住居　[古墳時代]住居　ピット　[平安時代]住居　[時代不明]土坑","縄文土器　打斧　石鏃　掻器　ピエス・エスキーユ　石皿　磨石　石核　弥生土器　土師器　須恵器　琥珀玉　陶磁器",139.2961636,35.63686444,TRUE
13201014500,13201,"145","ひなたいせき","日南田遺跡","八王子市 寺田町　 館町","[縄文時代（早期〜中期）][弥生時代][古墳時代][奈良時代][平安時代][中世][近世]","集落","[縄文時代]住居　集石　炉穴　焼土　陥穴　屋外埋甕　土坑　ピット　[平安時代]住居　溝　[古墳時代]住居　堀立柱建物跡　土坑　溝","縄文土器　石器　土製品　土師器　須恵器　銭貨　鉄製品　陶磁器",139.3074689,35.62973917,TRUE
13201015500,13201,"155","みなみはちおうじちくNo.8いせき","南八王子地区No.8遺跡","八王子市 小比企町","[縄文時代（早期〜中期）][弥生時代][奈良時代][平安時代][近世]","包蔵地","","縄文土器　弥生土器　土師器　須恵器　陶磁器",139.3246241,35.63847468,TRUE
13201015700,13201,"157","こびきむこうはら（みなみはちおうじちくNo.7）いせき","小比企向原（南八王子地区No.7）遺跡","八王子市 小比企町　 西片倉三丁目　 みなみ野五丁目　 みなみ野六丁目","[旧石器時代][縄文時代（早期〜後期）][弥生時代][古墳時代][奈良時代][平安時代][近世]","集落","[縄文時代]住居　敷石住居　竪穴状遺構　集石　炉穴　土坑　埋甕　配石　[古墳時代]住居　土坑　[奈良時代]住居　掘立柱建物　[平安時代]住居　道路状遺構　[近世]溝状遺構　道路状遺構　[時代不明]住居","尖頭器　細石刃　縄文土器　打斧　磨斧　石鏃　石匙　石皿　磨石　凹石　有頭石棒　土偶　土鈴　土師器　須恵器",139.3222592,35.6351645,TRUE
13201015800,13201,"158","ときた（みなみはちおうじちくNo.4）いせき","時田（南八王子地区No.4）遺跡","八王子市 小比企町","[縄文時代（草創期〜後期）][弥生時代][奈良時代][平安時代][中世][近世]","集落・その他（鍛冶遺構）","[縄文時代]住居　集石　[平安時代]住居　掘立柱建物　工房　土坑　[中世][近世]土坑　溝　道　鍛冶遺構","縄文土器　石器　弥生土器　土師器　須恵器　鉄製品　銭貨",139.3291254,35.6397966,TRUE
13201016300,13201,"163","おおはらえー・びー・しー・でぃー（みなみはちおうじちくNo.6）いせき","大原A・B・C・Ｄ（南八王子地区No.6）遺跡","八王子市 小比企町　 片倉町　 西片倉三丁目","[縄文時代（早期〜後期）][弥生時代][古墳時代][平安時代][近世]","集落","[縄文時代]敷石住居　集石　炉穴　土坑　埋甕　小竪穴　[弥生時代?古墳時代]住居　[奈良・平安時代]住居　[近世]溝","縄文土器　石器　土師器　土製品　弥生土器　須恵器　鉄製品　陶器",139.3294001,35.63828989,TRUE
13201016400,13201,"164","かたくら（みなみはちおうじちくNo.2）いせき","片倉（南八王子地区No.2）遺跡","八王子市 片倉町","[旧石器時代][縄文時代（早期〜後期）][弥生時代][古墳時代][奈良時代][平安時代][中世][近世]","集落","[時代不明]住居","ナイフ形石器　刃器　縄文土器　打斧　磨斧　土師器　陶磁器",139.334502,35.63893341,TRUE
13201016600,13201,"166","ごうだばら（みなみはちおうじちくNo.12）いせき","郷田原(南八王子地区No.12）遺跡","八王子市 西片倉二丁目　 西方倉三丁目　 みなみ野一丁目","[旧石器時代][縄文時代（早期〜後期）][弥生時代][古墳時代][奈良時代][平安時代][中世][近世]","集落","[縄文時代]住居　柄鏡形住居　小堅穴　炉穴　埋甕　集石　土坑　[弥生時代]住居　[古墳時代]住居　[奈良時代]住居　[中世]地下式坑　[近世]胞衣埋納","旧石器　縄文土器　石器　土製品　土師器　須恵器　石製品　胞衣容器",139.3302584,35.63549962,TRUE
13201016700,13201,"167","みなみはちおうじちくNo.11いせき","南八王子地区No.11遺跡","八王子市 西片倉二丁目","[縄文時代（早期〜後期）][弥生時代（後期）][古墳時代][奈良時代][平安時代][中世]","集落","[縄文時代]住居　掘立柱建物　集石　炉穴　陥穴　土坑墓　[弥生時代]住居　[古墳時代]住居　土坑　[中世以降]土坑 ムロ状遺構　炭焼窯","縄文土器　石器　弥生土器　土師器",139.333108,35.63650413,TRUE
13201018300,13201,"183","","八王子市No.183遺跡","八王子市 中山","[縄文時代][弥生時代]","包蔵地","","縄文土器　弥生土器",139.3611213,35.63081948,TRUE
13201018700,13201,"187","","八王子市No.187遺跡","八王子市 中山","[縄文時代（早期〜後期）][弥生時代][奈良時代][平安時代]","包蔵地","","縄文土器　弥生土器　土師器",139.3624259,35.62557319,TRUE
13201020500,13201,"205","たまにゅーたうんNo.241いせき","多摩ニュータウンNo.241遺跡","八王子市 鑓水","[縄文時代（早期〜晩期）][弥生時代][奈良時代][平安時代][近世]","集落","[縄文時代]集石　炉　焼土　土坑　埋甕　[奈良時代][平安時代]住居　竪穴状遺構　土坑　[近世]ピット　杭列","縄文土器　打斧　石鏃　磨石　弥生土器　土師器　須恵器　鉄鏃　瓦　鉄滓　陶磁器",139.3437772,35.61361472,TRUE
13201020900,13201,"209","やりみずちくNo.9いせき","鑓水地区No.9遺跡","八王子市 鑓水町","[縄文時代（前期）][弥生時代][平安時代]","包蔵地","","縄文土器 弥生土器 土師器 須恵器",139.3454937,35.61567445,TRUE
13201024000,13201,"240","たまにゅーたうんNo.219いせき","多摩ニュータウンNo.219遺跡","八王子市 鑓水","[縄文時代（前期〜後期）][弥生時代（後期）][平安時代]","集落","[縄文時代]土坑　[古墳時代]土坑　[平安時代]住居　竪穴遺構　焼土　集石","縄文土器　打斧　礫器　石錘　石皿　磨石　両面加工石器　石核　土師器　須恵器　陶器（灰釉）　砥石　鉄製品　瓦　動物骨片",139.3620346,35.610219,TRUE
13201024100,13201,"241","たまにゅーたうんNo.304いせき","多摩ニュータウンNo.304遺跡","八王子市 鑓水","[旧石器時代][縄文時代（前期〜後期）][弥生時代（中期）][古墳時代][奈良時代][平安時代][中世]","集落","[縄文時代]敷石住居　集石　陥し穴　土坑　[古墳時代]?[中世]土坑　[平安時代]住居　焼成坑　[平安時代][中世]土坑","ナイフ形石器　礫器　縄文土器　打斧　礫器　有舌尖頭器　削器　石皿　磨石　両面加工石　器　弥生土器　土師器　須恵器　土師質土器　陶器（灰釉）　砥石　鉄製品　瓦",139.3622479,35.6096875,TRUE
13201024600,13201,"246","たまにゅーたうんNo.307いせき","多摩ニュータウンNo.307遺跡","八王子市 鑓水","[縄文時代（早期〜後期）][弥生時代（中期）][古墳時代][奈良時代][平安時代][中世][近世]","集落","※町田市No.871遺跡と一連の多摩ニュータウン遺跡　[縄文時代]集石　集石土坑　炉　陥し穴　土坑　[古墳時代]土坑　[平安時代]住居　[近世]道","縄文土器　打斧　礫器　石鏃　削器　石匙　石皿　磨石　石核　弥生土器　土師器　須恵器　陶磁器　鉄釘　砥石　石臼　煙管　銭貨",139.3607207,35.60625203,TRUE
13201025500,13201,"255","たまにゅーたうんNo.218いせき","多摩ニュータウンNo.218遺跡","八王子市 上柚木","[弥生時代（中期）]","包蔵地・塚","※町田市 No.880と一連の多摩ニュータウン遺跡","弥生土器",139.3649974,35.60862941,TRUE
13201025600,13201,"256","","八王子市No.256遺跡","八王子市 上柚木原田","[縄文時代（早期〜後期）][弥生時代][平安時代][近世]","包蔵地","","縄文土器　弥生土器　土師器　須恵器　陶磁器",139.3666316,35.62299355,TRUE
13201030500,13201,"305","たまにゅーたうんNo.407いせき","多摩ニュータウンNo.407遺跡","八王子市 上柚木　 下柚木","[縄文時代（早期〜中期）][弥生時代][奈良時代][平安時代][中世][近世]","包蔵地","[縄文時代]集石　土坑　[平安時代]円形土坑　[中世][近世]地下式土坑　井戸","縄文土器　尖頭器　石器　弥生土器　土師器　須恵器　陶磁器　砥石",139.3764987,35.61672365,TRUE
13201031000,13201,"310","たまにゅーたうんNo.484いせき","多摩ニュータウンNo.484遺跡","八王子市 南大沢","[縄文時代（早期〜中期）][弥生時代][平安時代][中世]","包蔵地","[縄文時代]土坑　[中世][古墳時代]銭埋納ピット　[時代不明]土坑","縄文土器　石器　弥生土器　土師器　銭貨　鉄滓",139.3819218,35.61920393,TRUE
13201032700,13201,"327","たまにゅーたうんNo.406いせき","多摩ニュータウンNo.406遺跡","八王子市 南大沢","[旧石器時代][縄文時代（早期〜中期）][弥生時代][奈良時代][平安時代][近世]","集落","[縄文時代]住居　集石　炉　炉穴　焼土　土坑　[奈良時代][平安時代]土坑　[近世]土坑　室　炭窯","剥片　縄文土器　石器　土製品　弥生土器",139.3748338,35.6132013,TRUE
13201035600,13201,"356","たまにゅーたうんNo.207いせき","多摩ニュータウンNo.207遺跡","八王子市 南大沢","[旧石器時代][縄文時代（早期〜後期）][弥生時代][古墳時代][奈良時代][平安時代][近世]","集落","[縄文時代]住居　集石　土坑　[弥生時代]焼土　[古墳時代]住居　土坑　[平安時代]土坑　[近世]土坑","尖頭器　縄文土器　石器　弥生土器　土師器　須恵器",139.3801593,35.60345604,TRUE
13201038200,13201,"382","たまにゅーたうんNo.287・290・405いせき","多摩ニュータウンNo.287・290・405遺跡","八王子市 松木","［旧石器時代］[縄文時代（草創期〜後期）][弥生時代（中期）][奈良時代][平安時代][中世][近世]","集落・城館","［旧石器時代］遺物集中地点　礫群　［縄文時代］集石　集石土坑　陥し穴　土坑　[奈良時代]?[平安時代]住居　土坑　[中世]?[近世]建物　竪穴状遺構　ピット　土坑　土蔵状遺構　焼土　池　井戸　炭窯　段切状遺構　基壇状遺構　溝　道路　墓壙　集石墓　石組　配石","ナイフ形石器　尖頭器　削器　彫器　剥片　炭化物　縄文土器　打斧　磨斧　礫器　石鏃　石匙　石皿　磨石　敲石　台石　骨角器　弥生土器　土師器　須恵器　鉄製品　紡錘車　土鈴　飾金具　瓦　陶磁器　カワラケ　舶載陶磁器　陶鈴　石製品　土錘　漆器桶　木製品　碁石　銭貨　煙管　板碑　宝篋印塔　宝塔　写経石　人歯",139.3892553,35.62578506,TRUE
13201038600,13201,"386","たまにゅーたうんNo.512いせき","多摩ニュータウンNo.512遺跡","八王子市 松木","[旧石器時代][縄文時代（早期〜中期）][弥生時代][平安時代][近世]","集落","[旧石器時代]]ユニット　[縄文時代]住居　集石　土坑　土器埋設土坑　[平安時代]住居　土坑　[近世]焼土　炭窯","ナイフ形石器　尖頭器　掻器　石核　剥片　植物遺体　縄文土器　石器　有孔磨製石鏃　土師器　須恵器　土師質土器　砥石　鉄製品　紡錘車　瓦",139.3876933,35.62383664,TRUE
13201039300,13201,"393","たまにゅーたうんNo.388いせき","多摩ニュータウンNo.388遺跡","八王子市 松木","[旧石器時代][縄文時代（早期〜後期）][弥生時代][古墳時代][奈良時代][平安時代][中世][近世]","集落","[旧石器時代]]遺物集中地点 [縄文時代]土坑 [古墳時代]土坑 [奈良時代]住居 [平安時代]住居 土坑 [中世][近世]建物 柱穴 土坑 地下式土坑 井戸 削平面 溝","ナイフ形石器 尖頭器 細石刃 細石刃核 掻器 削器 彫器 打斧 礫器 敲石 磨石 剥片 礫 縄文土器 打斧 礫器 尖頭器 石鏃 石皿 磨石 土師器 須恵器 砥石 鉄製品 紡錘車 陶磁器 板碑 銭貨 瓦質土器 土製品 瓦 石製品 金属製品",139.3963559,35.62458597,TRUE
13201041000,13201,"410","たまにゅーたうんNo.419いせき","多摩ニュータウンNo.419遺跡","八王子市 堀之内","[縄文時代（早期〜後期）][弥生時代][奈良時代][平安時代][中世][近世]","集落","[縄文時代]集石　土坑　[奈良時代][平安時代]住居　土坑　[中世]ピット群　井戸　土坑　地下式土坑　溝　[中世][近世]土坑　[近世]竪穴状遺構　ピット群　井戸　溝　墓","縄文土器　打斧　石鏃　剥片　弥生土器　土師器　須恵器　陶器（灰釉）　鎌　刀子　鉄鏃　土製紡錘車　陶磁器　銭貨",139.4001494,35.62469054,TRUE
13201041500,13201,"415","たまにゅーたうんNo.444いせき","多摩ニュータウンNo.444遺跡","八王子市 東中野","[縄文時代（早期〜中期）]［弥生時代（中期）］[奈良時代][平安時代]［中世］","集落","","",139.402325,35.63492891,TRUE
13201041800,13201,"418","たまにゅーたうんNo.421いせき","多摩ニュータウンNo.421遺跡","八王子市 堀之内","[旧石器時代][縄文時代（早期〜後期）][弥生時代（中期）][古墳時代][奈良時代][平安時代][中世][近世]","集落","[旧石器時代]]ユニット　[縄文時代]集石　土坑　埋甕　[奈良時代][平安時代]住居　建物　土坑　[中世]井戸　[中世][近世]柱穴群　溝　[近世]柱穴群　井戸　墓群","ナイフ形石器　尖頭器　礫器　石核　剥片　縄文土器　石器　弥生土器　土師器　須恵器　陶器（灰釉）　鉄製品　円面硯　土製品　陶磁器　土器　舶載陶磁器　石製品　銅製品　煙管　板碑　銭貨　人骨",139.4003084,35.62568867,TRUE
13201041900,13201,"419","たまにゅーたうんNo.423いせき","多摩ニュータウンNo.423遺跡","八王子市 堀之内","[縄文時代（早期〜後期）][弥生時代][奈良時代][平安時代][中世]","集落","[縄文時代]集石　土坑　[奈良時代]住居　[平安時代]溝　[中世]建物　地下式土坑","縄文土器　石器　弥生土器　土師器　須恵器　陶磁器　板碑",139.4042146,35.62825919,TRUE
13201042100,13201,"421","たまにゅーたうんNo.426いせき","堀ノ内（多摩ニュータウンNo.426）遺跡","八王子市 堀之内","[旧石器時代][縄文時代（草創期〜晩期）][弥生時代（中期）][古墳時代][奈良時代][平安時代][中世][近世]","集落","[旧石器時代]]ユニット　[縄文時代]住居　集石　集石土坑　炉穴　焼土　土坑　墓壙　[古墳時代]住居　土坑　[奈良時代][平安時代]住居　土坑　[中世]建物　竪穴状遺構　ピット　柱穴列　集石　井戸　土坑　地下式土坑　溝　[近世]建物　柱穴群　土坑　井戸　炭窯　段切状遺構　溝　墓壙","ナイフ形石器　尖頭器　有茎尖頭器　細石刃　掻器　削器　石錐　石斧　礫器　敲石　台石　石核　剥片　原石　礫　縄文土器　石槍　有茎尖頭器　石器　土製円板　弥生土器　土師器　須恵器　支脚　鉄製品　石製品　紡錘車　炭化材　陶磁器　土師質土器　陶器（灰釉・緑釉）　舶載陶磁器　石臼　瓦　銭貨　骨粉",139.4063912,35.62935982,TRUE
13201042500,13201,"425","たまにゅーたうんNo.391いせき","多摩ニュータウンNo.391遺跡","八王子市 別所","[縄文時代（前期〜中期）][弥生時代（中期）][奈良時代][平安時代][中世][近世]","城館","[奈良時代][平安時代]製鉄関連遺構　[平安時代]溝　[近世]建物　土坑　炭窯","縄文土器　打斧　磨斧　磨石　弥生土器　土師器　須恵器　陶磁器　土師質土器　瓦質土器　鉄製品　石製品　銅製品　銭貨",139.3969421,35.62165023,TRUE
13201043500,13201,"435","たまにゅーたうんNo.387いせき","多摩ニュータウンNo.387遺跡","八王子市 別所　 堀之内","[旧石器時代][縄文時代（早期〜後期）][弥生時代（中期）][古墳時代][奈良時代][平安時代][中世][近世]","集落","[縄文時代]土坑　[古墳時代]土坑　[奈良時代]住居　集石　[平安時代]住居　[中世]ピット　井戸　土坑　溝　[中世]?[近世]室　井戸　溝","ナイフ形石器　槍先形尖頭器　剥片　縄文土器　打斧　磨斧　礫器　石鏃　石匙　土版　弥生土器　管玉　土師器　須恵器　陶器（灰釉・緑釉）　紡錘車　瓦　陶磁器　須恵質土器　石製品　板碑　銭貨　燈明具",139.3982318,35.62541471,TRUE
13201046400,13201,"464","","八王子市No.464遺跡","八王子市 東中野","[弥生時代]","包蔵地","","",139.4105766,35.64473877,TRUE
13201046900,13201,"469","","八王子市No.469遺跡","八王子市 川口町","[縄文時代（中期〜後期）][弥生時代（後期）][古墳時代][平安時代][近世]","集落","","縄文土器　打斧　弥生土器　土師器　須恵器　陶磁器",139.2951614,35.6882113,TRUE
13201047800,13201,"478","なかだいせき","仲田遺跡","八王子市 大谷町　 宇津木町","[縄文時代（前期〜後期）][弥生時代][古墳時代][奈良時代][平安時代][近世]","集落","[古墳時代]住居","縄文土器　打斧　弥生土器　土師器　須恵器　陶磁器",139.3505437,35.67764686,TRUE
13201048000,13201,"480","いしかわいせき","石川遺跡","八王子市 石川町","[縄文時代（早期〜後期）][弥生時代][古墳時代][奈良時代][平安時代][近世]","集落","[縄文時代]住居　集石　炉穴　土坑","縄文土器　打斧　磨斧　礫器　石鏃　掻器　石皿　磨石　凹石　土製けつ状耳飾　弥生土器　土師器　須恵器　陶磁器　銭貨",139.3747157,35.67908513,TRUE
13201048900,13201,"489","ととりるい（ととりとりで）","十々里塁(廿里砦）","八王子市 廿里町","[弥生時代（中期）][中世][近世]","包蔵地・城館","[中世]空堀","弥生土器　陶磁器",139.2772514,35.64565566,TRUE
13201051300,13201,"513","くぬぎだだい4いせき","椚田第4遺跡","八王子市 椚田町　 館町","[旧石器時代][縄文時代（早期〜晩期）][弥生時代][古墳時代][平安時代]","集落","[縄文時代]住居　配石　集石　土坑　埋甕　[弥生時代]再葬墓　[古墳時代]住居　[平安時代]住居","縄文土器　石器　土製品　土偶　弥生土器　土師器　須恵器　瓦　旧石器",139.306841,35.63627833,TRUE
13201051400,13201,"514","くぬぎだだい5いせき","椚田第V遺跡","八王子市 椚田町","[縄文時代（早期〜中期）][弥生時代][平安時代]","集落","[縄文時代]住居　集石　炉穴　土坑　[弥生時代]住居　再葬墓　[平安時代]住居","",139.3038197,35.63574817,TRUE
13201051500,13201,"515","","八王子市No.515遺跡","八王子市 館町","[縄文時代（早期〜後期）][弥生時代][古墳時代][奈良時代][平安時代][近世]","集落","[縄文時代]住居　集石　炉穴　陥し穴　土坑　[古墳時代]住居　[平安時代]住居　円形土坑　[近世]掘立柱建物","縄文土器　石皿　磨石　けつ状耳飾　弥生土器　土師器　須恵器　鉄製刀子　銅鏡　陶磁器",139.3022897,35.632509,TRUE
13201051700,13201,"517","しもてらだいせき","下寺田遺跡","八王子市 寺田町","[旧石器時代][縄文時代（早期〜後期）][弥生時代][古墳時代][奈良時代][平安時代][近世]","集落","[旧石器時代]]配石遺構　[縄文時代]住居　集石　土坑　[古墳時代]住居　[奈良時代]住居　[平安時代]住居　[近世]土坑","ナイフ形石器　剥片　縄文土器　石斧　磨斧　礫器　石鏃　掻器　削器　石匙　石皿　磨石　凹石　敲石　剥片　土製円板　弥生土器　土師器　須恵器　刀子　竹籠状炭化物",139.3121033,35.63163697,TRUE
13201053700,13201,"537","たまにゅーたうんNo.540いせき","多摩ニュータウンNo.540遺跡","八王子市 南大沢","[縄文時代（草創期〜早期）][弥生時代][古墳時代][奈良時代][平安時代][近世]","集落","[縄文時代]集石土坑　土坑　[古墳時代][奈良時代]住居　[平安時代]住居","縄文土器　有茎尖頭器　石器　弥生土器　土師器　須恵器　陶器（灰釉）　置き竈　鉄鏃",139.3838992,35.60780358,TRUE
13201055300,13201,"553","たまにゅーたうんNo.556いせき","多摩ニュータウンNo.556遺跡","八王子市 南大沢","[縄文時代（前期〜中期・晩期）][弥生時代][奈良時代][平安時代][近世]","集落","[縄文時代]集石　[弥生時代]ピット　[奈良時代][平安時代]住居　土坑　室　遺物集中","縄文土器　石器　土師器　須恵器　陶磁器",139.3838631,35.61169339,TRUE
13201070802,13201,"08-2","おちこしいせきぐんおちこしびーちく","落越遺跡群落越B地区","八王子市 城山手一丁目","[縄文時代（早期）][弥生時代（中期）][平安時代][中世][近世]","集落","[縄文時代]住居　炉跡等　[中世]塚状遺構　溝状遺構","縄文土器弥生土器　須恵器　陶磁器　石器",139.287048,35.65235332,TRUE
13201071201,13201,"12-1","たてまちだい1ちてんいせき","館町第1地点遺跡","八王子市 館町","[旧石器時代][縄文時代（早期〜後期）][弥生時代][古墳時代][平安時代][中世][近世]","集落","[旧石器時代]]ブロック　[縄文時代]住居　集石　焼土　陥し穴　土坑　[平安時代][中世]ピット群　大溝　[古墳時代]?[中世]溝","ナイフ形石器　石核　剥片　縄文土器　打斧　磨斧　礫器　石槍　石鏃　削器　石匙　石皿　磨石　凹石　砥石　土師器　須恵器　瓦　陶磁器　鎌　鉄鏃　鉄釘　煙管　刀子　銭貨　動物遺体(馬歯)",139.3005715,35.63034917,TRUE
13201071202,13201,"12-2","たてまちだい2ちてんいせき","館町第2地点遺跡","八王子市 館町","[旧石器時代][縄文時代（早期〜後期）][弥生時代][平安時代][中世][近世]","包蔵地","[縄文時代]集石　焼土　陥し穴　土坑　[平安時代]溝　[近世]溝","ナイフ形石器　尖頭器　削器　剥片　縄文土器　打斧　礫器　石鏃　削器　石皿　磨石　凹石　砥石　石核　土師器　須恵器　陶磁器　金属製品　銭貨",139.2997132,35.6294562,TRUE
13201071203,13201,"12-3","たてまちだい3ちてんいせき","館町第3地点遺跡","八王子市 館町","[縄文時代（早期〜晩期）][弥生時代][平安時代][中世][近世]","包蔵地","[縄文時代]集石　焼土　陥し穴　土坑　[平安時代]土坑　円形土坑　[近世]溝","縄文土器　打斧　礫器　石鏃　石皿　磨石　敲石　砥石　剥片　礫　弥生土器　陶磁器　釘　煙管　銭貨",139.3007791,35.62874183,TRUE
13201071205,13201,"12-5","たてまちだい5ちてんいせき","館町第5地点遺跡","八王子市 館町","[縄文時代（前期〜後期）][弥生時代][近世]","集落","[縄文時代]住居　集石　焼土　陥し穴　土坑　[古墳時代]住居　[平安時代]住居　溝","縄文土器　打斧　磨斧　礫器　石鏃　石皿　磨石　凹石　敲石　石核　剥片　弥生土器　土師器　須恵器　陶磁器　碁石",139.3020478,35.63034917,TRUE
13201071209,13201,"12-9","たてまちだい9ちてんいせき","館町第9地点遺跡","八王子市 館町","[縄文時代][弥生時代][平安時代][中世][近世]","包蔵地","","",139.3032157,35.63010597,TRUE
13201073100,13201,"731","うちこしなかやといせき","打越中谷戸遺跡","八王子市 打越町","[縄文時代（早期・中期）][弥生時代][平安時代][近世]","集落","[縄文時代]住居　集石　土坑　[弥生時代]住居　[平安時代]住居　焼土　土坑　[近世]土坑　溝　墓壙","縄文土器　打斧　磨石　敲石　弥生土器　鉄鏃　土師器　須恵器　鎌　刀子　陶磁器　漆器　銭貨",139.352973,35.64216097,TRUE
13201073400,13201,"734","いしかわあまのいせき","石川天野遺跡","八王子市 石川町　 大谷町","[旧石器時代][縄文時代（早期〜後期）][弥生時代][古墳時代][奈良時代][平安時代][近世]","集落","[縄文時代]住居　集石　炉穴　焼土　土坑　[弥生時代]住居　焼土　方形周溝墓　溝状遺構　[古墳時代]住居　焼土　土坑　溝　[奈良時代]住居　[平安時代]住居","ナイフ形石器　細石刃　縄文土器　打斧　磨斧　礫器　石槍　石鏃　掻器　石匙　磨石　砥石　石杵　剥片　弥生土器　土錘　敲石　石臼　炉石　土師器　須恵器　土製支脚　紡錘車　刀子　土製小玉　鉄製耳環　環状鉄製品　陶磁器　煙管　炭化物",139.357807,35.67265025,TRUE
13201074700,13201,"747","みなみはちおうじちくNo.25いせき","南八王子地区No.25遺跡","八王子市 七国一丁目","[旧石器時代][縄文時代（早期〜後期）][弥生時代][古墳時代][奈良時代][平安時代][中世][近世]","集落","[旧石器時代]]ユニット　礫群　[縄文時代]住居　炉穴　集石　土坑　陥穴　[中世]段切り遺構　堀立柱建物跡　竪穴状遺構　土坑　溝　[古墳時代]住居　堀立柱建物跡　土坑","旧石器　縄文土器　石器　土師器　鉄製品",139.3278785,35.6250451,TRUE
13201081000,13201,"810","たまにゅーたうんNo.652いせき","多摩ニュータウンNo.652遺跡","八王子市 南大沢","[縄文時代（中期）][弥生時代][近世]","包蔵地","[縄文時代]集石　[弥生時代]土坑　[近世]土坑","縄文土器　石器　弥生土器",139.3860763,35.60930625,TRUE
13201083400,13201,"834","たまにゅーたうんNo.676いせき","多摩ニュータウンNo.676遺跡","八王子市 松木","[縄文時代（早期〜前期）][弥生時代][近世]","包蔵地","[縄文時代]集石　集石土坑　土坑　[近世]炭窯","縄文土器　石器　土製けつ状耳飾　弥生土器　陶磁器",139.3931971,35.62048353,TRUE
13201085000,13201,"850","たまにゅーたうんNo.692いせき","多摩ニュータウンNo.692遺跡","八王子市 別所","[縄文時代（早期〜後期）][弥生時代][古墳時代][奈良時代][平安時代][中世][近世]","集落・城館・墓地","[古墳時代]住居　[平安時代]住居　[平安時代][中世]建物　集石　井戸　土坑　地下式土坑　鍛冶工房　墓壙　段切状遺構　溝　柵列　[近世]建物　土坑　室　井戸　山砂採掘坑　炭窯　溝","縄文土器　石器　弥生土器　土師器　須恵器　陶磁器　舶載陶磁器　釘　刀子　火打ち金具　包丁　鋏　鉄製品　鞴羽口　銅製品　和鏡　銭貨　鉄滓　土師質土器　硯　砥石　石臼　石鍋　瓦　木製品　人骨　馬歯骨",139.3946735,35.61740721,TRUE
13201089600,13201,"896","たまにゅーたうんNo.803いせき","多摩ニュータウンNo.803遺跡","八王子市 下柚木","[縄文時代（前期〜後期）][弥生時代][古墳時代][奈良時代][平安時代][中世][近世]","包蔵地","[古墳時代]土坑","縄文土器　礫器　石鏃　弥生土器　土師器　須恵器　陶器（灰釉・緑釉）　陶磁器",139.3808973,35.62532685,TRUE
13201090300,13201,"903","たまにゅーたうんNo.810いせき","多摩ニュータウンNo.810遺跡","八王子市 上柚木","[縄文時代（早期〜中期）][弥生時代]","包蔵地","[縄文時代]土坑","縄文土器　石器　弥生土器",139.3723921,35.61703929,TRUE
13201090800,13201,"908","たまにゅーたうんNo.815いせき","多摩ニュータウンNo.815遺跡","八王子市 上柚木","[縄文時代（早期〜前期）][弥生時代][平安時代]","集落","[縄文時代]集石　焼土　土坑　[平安時代]住居　竪穴状遺構　土坑","縄文土器　石器　弥生土器　土師器　陶器（灰釉）　鉄製品　瓦",139.3680834,35.6135854,TRUE
13201091100,13201,"911","たまにゅーたうんNo.818いせき","多摩ニュータウンNo.818遺跡","八王子市 南大沢","[縄文時代（早期〜後期）][弥生時代][古墳時代][奈良時代][平安時代][中世][近世]","集落","[縄文時代]集石　炉穴　焼土　土坑　[古墳時代]土坑　[奈良時代][平安時代]住居　焼土　ピット　土坑　溝　[近世]土坑　井戸　炭窯　溝","縄文土器　石器　弥生土器　土師器　須恵器　陶器（灰釉）　置き竈　瓦　鉄滓　炭化物　陶磁器　土師質土器　舶載陶磁器　鉄釘　砥石　銭貨",139.3696577,35.6080752,TRUE
13201093400,13201,"934","たまにゅーたうんNo.846いせき","多摩ニュータウンNo.846遺跡","八王子市 鑓水","[弥生時代（後期）]","包蔵地","","弥生土器　焼礫　炭化材",139.3580424,35.60686727,TRUE
13201097800,13201,"978","ふじみちょういせき","富士見町遺跡","八王子市 大谷町","[縄文時代][弥生時代（後期）]","墳墓（方形周溝墓）","[縄文時代]土坑　[弥生時代]方形周溝墓　[時代不明]土坑　ピット群","弥生土器　ガラス小玉",139.3526986,35.66916499,TRUE
13201098500,13201,"985","","八王子市No.985遺跡","八王子市 小比企町","[縄文時代（早期〜後期）][弥生時代][古墳時代][平安時代][中世][近世]","包蔵地","","縄文土器　弥生土器　土師器　陶磁器",139.3218958,35.64291454,TRUE
13201102000,13201,"1020","","八王子市No.1020遺跡","八王子市 長房町","[縄文時代（早期〜中期）]［平安時代］[弥生時代][近世]","集落","","縄文土器　弥生土器",139.2817829,35.65038631,TRUE
13201102100,13201,"1021","みずざきいせき","水崎遺跡","八王子市 長房町","[縄文時代（早期〜中期）][弥生時代（中期）]","集落","[縄文時代]住居　炉穴　陥し穴　[弥生時代]再葬墓","縄文土器　石器　弥生土器",139.3026244,35.6619782,TRUE
13204003100,13204,"31","しりつだいごちゅうがっこういせき","市立第五中学校遺跡","三鷹市 新川一丁目 新川四丁目","[旧石器時代][縄文時代（早期〜中期）][弥生時代][古墳時代][奈良時代][平安時代][中世][近世]","集落","[旧石器時代]ユニット 礫群 [縄文時代]住居 集石 集石 土坑 [時代不明]土坑 溝状遺構","縄文土器 石器 土錘 土製円板 耳栓 土偶 弥生土器 土師器 須恵器 陶磁器 カワラケ 玉類 銭貨",139.5768721,35.6710462,TRUE
13204004300,13204,"43","たきさかいせき","滝坂遺跡","三鷹市 中原一丁目 中原二丁目","[旧石器時代][縄文時代（早期〜後期）][弥生時代][古墳時代][奈良時代][平安時代][近世]","集落","[旧石器時代]ユニット 礫群 [縄文時代]住居 集石 炉穴 土坑 [時代不明]ピット 溝状遺構","石器 縄文土器 石器 弥生土器 土師器 陶器 泥人形 泥面子 銭貨 骨片",139.5756361,35.66485421,TRUE
13204004800,13204,"48","いのかしらいせきぐんえーいせき","井の頭池遺跡群A遺跡","三鷹市 井の頭四丁目 井の頭五丁目","[旧石器時代][縄草][縄文時代（早期〜後期）][弥生時代][古墳時代][奈良時代][平安時代][中世][近世]","集落","[旧石器時代]ユニット 礫群 [縄文時代]住居 小竪穴 集石 集石土坑 炉穴 土坑 ピット 配石 溝状 遺構","石器 縄文土器 石器 弥生土器 土師器 須恵器 板碑 陶磁器",139.5754818,35.6984234,TRUE
13205008600,13205,"86","さくまかいと（てぃー51）いせき","作馬街道(T-51)遺跡","青梅市 西分町三丁目","[縄文時代（前期）][弥生時代]","包蔵地","","縄文土器　弥生土器",139.2673662,35.78801751,TRUE
13205010900,13205,"109","ばば（けー-6・7）いせき","馬場(K-6・7)遺跡","青梅市 師岡町一丁目　 師岡町二丁目","[旧石器時代][縄文時代（早期〜後期）][弥生時代（中期〜後期）][古墳時代][奈良時代][平安時代][中世]","集落","[旧石器時代]ユニット　[縄文時代]集石　土坑　[弥生時代]住居　方形周溝墓　[奈良時代][平安時代]土坑　井戸状遺構　鍛冶工房","細石刃　細石刃核　掻器　縄文土器　石器　弥生土器　抉入石斧　片刃石斧　石鏃　土師器　須恵器　陶磁器(青磁)　木器　鉄器",139.2824037,35.79595433,TRUE
13205011600,13205,"116","かすみだい（けー-27・28・29）いせき","霞台(K-27・28・29)遺跡","青梅市 大門二丁目　 今寺三丁目　 野上町二丁目","[旧石器時代][縄文時代（前期〜中期）]［弥生時代（後期）］[古墳時代][奈良時代][平安時代][中世]","集落","[縄文時代]土坑　ピット　[弥生時代][古墳時代]住居　ピット　輪土坑　[奈良時代]住居","ナイフ形石器　尖頭器　縄文土器　石槍　石鏃　掻器　炭化材　弥生土器　土師器　須恵器　砥石　滑石製管玉　木器　炭化米",139.2931154,35.79653912,TRUE
13205012100,13205,"121","けー-15いせき","K-15遺跡","青梅市 塩船","[縄文時代（中期）][弥生時代][古墳時代][奈良時代][平安時代]","包蔵地","","縄文土器　弥生土器　土師器　須恵器",139.2819574,35.80411311,TRUE
13205013100,13205,"131","けー-24いせき","K-24遺跡","青梅市 木野下一丁目","[弥生時代][古墳時代]","包蔵地","","弥生土器　土師器",139.2971666,35.80684179,TRUE
13205013500,13205,"135","けー-31いせき","K-31遺跡","青梅市 今寺一丁目","[縄文時代（中期）][弥生時代][古墳時代][奈良時代][平安時代]","包蔵地","","縄文土器　土師器　須恵器",139.2978876,35.80029835,TRUE
13205013700,13205,"137","ふじはしじょうしろのこし（けー-32）いせき","藤橋城城の腰(K-32)遺跡","青梅市 藤橋","[縄文時代（中期〜後期）][弥生時代][古墳時代][奈良時代][平安時代]","集落","[弥生時代]住居","縄文土器　石斧　弥生土器　土師器　須恵器",139.3010462,35.80336131,TRUE
13205014800,13205,"148","いまいばば（けー-37）いせき","今井馬場（K-37）遺跡","青梅市 今井","[縄文時代（中期）]［弥生時代］[古墳時代]","包蔵地","","縄文土器　土師器　須恵器",139.3092172,35.80642414,TRUE
13206000200,13206,"2","むさしこくふかんれんいせき","武蔵国府関連遺跡","府中市 日鋼町、片町一丁目、片町二丁目、片町三丁目 寿町一丁目、寿町二丁目、寿町三丁目、小柳町一丁目、小柳町二丁目 清水が丘一丁目、清水が丘二丁目、清水が丘三丁目 白糸台一丁目、白糸台二丁目、白糸台三丁目、白糸台四丁目、白糸台五丁目、白糸台六丁目 八幡町一丁目、八幡町二丁目、八幡町三丁目 府中町一丁目、府中町二丁目、府中町三丁目 分梅町一丁目、分梅町二丁目、分梅町三丁目 本宿町一丁目、本宿町二丁目、本宿町三丁目、本宿町四丁目 緑町一丁目、緑町二丁目、緑町三丁目 宮西町一丁目、宮西町二丁目、宮西町三丁目、宮西町四丁目、宮西町五丁目 宮町一丁目、宮町二丁目、宮町三丁目 美好町一丁目、美好町二丁目、美好町三丁目 若松町一丁目、若松町二丁目、若松町三丁目、日吉町 西府町一丁目、西府町二丁目、西府町三丁目、西府町四丁目、西府町五丁目、日新町二丁目","[旧石器時代][縄文時代][弥生時代][古墳時代][奈良時代][平安時代][中世][近世]","官衙・集落","奈良時代][平安時代]住居　掘立柱建物　土坑　柵　道路　溝　井戸　土壙墓　地下式横穴墓　火葬墓　火葬遺構","須恵器　土師器　二彩　緑釉　刀子　鉄鏃　鉄斧　紡錘車　石帯　土錘　瓦",139.4847811,35.67019899,TRUE
13206001800,13206,"18","むさしのこうえんいせき","武蔵野公園遺跡","府中市 多磨町三丁目","[旧石器時代][縄文時代（早期〜後期）][弥生時代]","集落","[旧石器時代]礫群 [縄文時代]住居 土坑 配石","細石刃核 石核 縄文土器 打斧 土錘 磨斧 石鏃 石匙 石錘 磨石 敲石 弥生土器",139.5178956,35.69068281,TRUE
13208000500,13208,"5","せんがわいせき","仙川遺跡","調布市 仙川町二丁目　 仙川町三丁目","[旧石器時代][縄文時代（早期〜中期）][弥生時代][古墳時代][近世]","包蔵地・集落","[旧石器時代]礫群　[縄文時代]集石　土坑　[古墳時代]住居　[近世]溝","ナイフ形石器　尖頭器　掻器　石核　剥片　縄文土器　打斧　弥生土器　土師器　須恵器　鉄製品　陶磁器",139.584402,35.66485111,TRUE
13208001100,13208,"11","じゃくぼいせき","蛇久保遺跡","調布市 西つつじヶ丘一丁目","[旧石器時代][縄文時代（中期）][弥生時代][古墳時代][奈良時代][近世]","包蔵地・集落","[旧石器時代]石器集中箇所　炭化物集中箇所　[縄文時代]住居　集石　炉　焼土　土坑　土壙墓　埋甕　[古墳時代]住居　[近世]溝","ナイフ形石器　尖頭器　縄文土器　打斧　磨石　耳飾　勾玉　土師器　陶磁器",139.5649612,35.66571255,TRUE
13208001700,13208,"17","どうやまいせき","堂山遺跡","調布市 深大寺元町五丁目　 深大寺北町一丁目　 深大寺北町二丁目","[旧石器時代][縄文時代（草創期・前期〜中期）][弥生時代]","包蔵地","[縄文時代]集石　土坑　[近世]溝","ナイフ形石器　尖頭器　縄文土器　弥生土器　土師器　須恵器　陶磁器　銭貨",139.5485285,35.67118026,TRUE
13208002200,13208,"22","におうづかいせき","仁王塚遺跡","調布市 深大寺元町三丁目","[旧石器時代][縄文時代（早期〜中期）][弥生時代][奈良時代][平安時代][中世]","集落","[縄文時代]炉穴　土坑　[弥生時代][古墳時代][奈良時代]住居　[中世]地下式土坑　[時代不明]溝","縄文土器　石器　土師器　須恵器　陶磁器　カワラケ",139.5463482,35.66730348,TRUE
13208002300,13208,"23","じんだいじしろやまいせき","深大寺城山遺跡","調布市 深大寺元町二丁目","[縄文時代（早期〜中期）][弥生時代][古墳時代][奈良時代][平安時代][中世]","包蔵地・集落・城館","[縄文時代]炉穴　陥し穴　[弥生時代]〜[平安時代]住居　[中世]掘立柱建物　地下式坑　堀　土塁","縄文土器　石器　弥生土器　土師器　須恵器　鉄製品　カワラケ　銭貨　陶磁器　舶載陶磁器　鉄製品　銭貨",139.5504021,35.66519745,TRUE
13208002700,13208,"27","のがわいせき","野川遺跡","調布市 野水一丁目　野水二丁目","[旧石器時代][縄文時代（早期〜後期）][弥生時代]","包蔵地","[旧石器時代]礫群　配石　[縄文時代]住居　三鷹2に接続","ナイフ形石器　尖頭器　細石器　礫器　縄文土器　石器　弥生土器",139.5248308,35.68457177,TRUE
13208004900,13208,"49","そめちいせき","染地遺跡","調布市 染地二丁目　 染地三丁目","[縄文時代（晩期）][弥生時代（後期）][古墳時代][奈良時代][平安時代]","集落","[弥生時代]住居　炉　[古墳時代]土坑　生産工房　[古墳時代][奈良時代][平安時代]住居　道路　溝　鍛冶工房　[中世]溝　濠　[近世]土葬墓","縄文土器　石器　石製品　弥生土器　土師器　須恵器　墨書土器　陶器（灰釉・緑釉）　紡錘車　勾玉　臼玉　ガラス玉　金属製品　陶磁器　板碑　小鉄仏　瓦　銭貨　木製品",139.5573796,35.64174287,TRUE
13209000300,13209,"3","","町田市No.3遺跡","町田市 相原町","[弥生時代][奈良時代][平安時代]","包蔵地","","弥生土器　土師器　須恵器",139.2896841,35.61453355,TRUE
13209005900,13209,"59","","町田市No.59遺跡","町田市 小山町","[縄文時代（早期〜後期）][弥生時代（後期）][奈良時代][平安時代]","包蔵地","","縄文土器　弥生土器　土師器　陶磁器",139.3778757,35.59613549,TRUE
13209006000,13209,"60","たまにゅーたうんNo.209いせき","多摩ニュータウンNo.209遺跡","町田市 小山ヶ丘三丁目","[旧石器時代][縄文時代（早期〜中期）][弥生時代][古墳時代][奈良時代][平安時代][近世]","集落","[縄文時代]住居 集石 炉跡 炉穴 焼土 [近世]土坑 炭焼窯 伏窯 溝状遺構 ピット群","ナイフ形石器 縄文土器 石器 土製品 弥生土器 土師器 陶磁器",139.3771874,35.59835362,TRUE
13209006100,13209,"61","たまにゅーたうんNo.345いせき","多摩ニュータウンNo.345遺跡","町田市 小山ヶ丘三丁目","[旧石器時代][縄文時代（早期〜中期）][弥生時代（中期）][古墳時代][奈良時代][平安時代][中世][近世]","集落","[縄文時代]土坑　[弥生時代]住居　[古墳時代]住居　[奈良時代][平安時代]土坑　[近世]炭窯","掻器　剥片　縄文土器　石槍　石鏃　弥生土器　環状石斧　管玉　土師器　陶磁器",139.3761111,35.60000963,TRUE
13209006300,13209,"63","たまにゅーたうんNo.346いせき","多摩ニュータウンNo.346遺跡","町田市 小山町","[縄文時代（後期）][弥生時代][奈良時代][平安時代]","包蔵地","","縄文土器　弥生土器　土師器",139.3800985,35.5955679,TRUE
13209007800,13209,"78","たまにゅーたうんNo.344いせき","多摩ニュータウンNo.344遺跡","町田市 小山ヶ丘二丁目　 小山ヶ丘三丁目","[旧石器時代][縄文時代（早期〜中期）][弥生時代][古墳時代][近世]","集落","[縄文時代]住居　竪穴状遺構　炉穴　焼土　土坑　墓坑　埋甕　[古墳時代]住居　柱穴　[近世]炭窯　溝　杭列","礫器　縄文土器　打斧　石鏃　磨石　土師器　鉄製品　種子　銭貨",139.3759354,35.60233576,TRUE
13209008200,13209,"82","たまにゅーたうんNo.212いせき","多摩ニュータウンNo.212遺跡","町田市 小山ヶ丘二丁目","[縄文時代（前期）][弥生時代][奈良時代][平安時代]","包蔵地","[時代不明]土坑　溝","縄文土器　礫器　弥生土器　土師器",139.3714207,35.6048341,TRUE
13209008400,13209,"84","たまにゅーたうんNo.939いせき","多摩ニュータウンNo.939遺跡","町田市 小山ヶ丘三丁目","[旧石器時代][縄文時代（早期〜後期）][弥生時代][古墳時代][奈良時代][平安時代][中世][近世]","集落・横穴墓","[縄文時代]住居　集石　炉穴　焼土　土坑　ピット　[弥生時代]住居　土坑　方形周溝墓　[古墳時代]〜[平安時代]住居　竪穴状遺構　焼土　土坑　[中世][近世]建物　炉　土坑　蔵　井戸　粘土採掘坑　炭窯　段切状遺構　溝　道路状遺構","石器　縄文土器　打斧　石鏃　磨石　弥生土器　土師器　須恵器　置き竈　鉄鏃　瓦　陶磁器　擂鉢　砥石　銭貨",139.3676744,35.60018211,TRUE
13209009100,13209,"91","たまにゅーたうんNo.244いせき","多摩ニュータウンNo.244遺跡","町田市 小山ヶ丘三丁目　小山ヶ丘五丁目","[縄文時代（中期〜後期）][弥生時代][古墳時代][奈良時代][平安時代][中世][近世]","集落","[縄文時代]住居　土坑　[古墳時代]〜[平安時代]住居　ピット　土坑　井戸　[中世][近世]建物　ピット　集石　井戸　土坑　室　墓　段切状遺構　溝","縄文土器　打斧　礫器　石鏃　石皿　磨石　台石　弥生土器　土師器　須恵器　瓦　木製品　陶磁器　瓦",139.3652677,35.60182227,TRUE
13209010000,13209,"100","たまにゅーたうんNo.342いせき","多摩ニュータウンNo.342遺跡","町田市 小山ヶ丘二丁目　小山ヶ丘三丁目　小山ヶ丘四丁目　小山ヶ丘五丁目","[旧石器時代][縄文時代（早期〜後期）][弥生時代（中期）][古墳時代][奈良時代][平安時代][中世][近世]","集落・窯","[旧石器時代]遺物集中地点　礫群　炭化物集中地点　[縄文時代]住居　集石　炉穴　焼土　陥し穴　土坑　[古墳時代]窯　[古墳時代]〜[平安時代]溝　[平安時代]〜[中世]住居　土坑　[近世]ピット群　土坑　粘土採掘坑　山砂採掘坑　炭窯　溝　河道　墓壙","ナイフ形石器　掻器　錐　石核　剥片　礫　炭化物　縄文土器　打斧　磨斧　礫器　石匙　石皿　磨石　凹石　弥生土器　土師器　須恵器　陶器（灰釉）　置き竈　砥石　穂摘み具　瓦　陶磁器　臼　鉄製品　墓石　銭貨",139.366185,35.60341048,TRUE
13209010200,13209,"102","たばた・たばたひがし（たまにゅーたうんNo.245）いせき","田端・田端東（多摩ニュータウンNo.245）遺跡","町田市 小山町 小山ヶ丘五丁目","[旧石器時代][縄文時代（前期〜晩期）][弥生時代][古墳時代][奈良時代][平安時代][中世][近世]","集落","[旧石器時代]遺物集中区 礫群 [縄文時代]住居 集石 集石土坑 焼土 土坑 環状積石 埋甕 配石 [奈良時代][平安時代]住居 掘立柱建物 焼土 土坑 [中世]地下式土坑 [近世]井戸","尖頭器 縄文土器 石器 耳飾 垂飾 石棒 土偶 土製品 土鈴 土師器 須恵器 陶磁器 板碑 古銭 石製品 銅製品ほか",139.3633985,35.60097228,TRUE
13209010800,13209,"108","たまにゅーたうんNo.327いせき","多摩ニュータウンNo.327遺跡","町田市 小山ヶ丘四丁目　 小山ヶ丘五丁目","[縄文時代（早期〜中期）][弥生時代][古墳時代][奈良時代][平安時代][近世]","集落","※八王子市No.461遺跡と一連の多摩ニュータウン遺跡　[縄文時代]焼土　土坑　[古墳時代]住居　土坑　[奈良時代][平安時代]住居　焼土　土坑　[近世]道路状遺構","縄文土器　打斧　石皿　磨石　弥生土器　土師器　須恵器　支脚　砥石　刀子　紡錘車　羽口　玉類　陶磁器",139.3583517,35.60474075,TRUE
13209011700,13209,"117","","町田市No.117遺跡","町田市 小山町","[縄文時代（早期・中期）][弥生時代（中期）][古墳時代][奈良時代][平安時代]","包蔵地","","縄文土器　石器　弥生土器　土師器　須恵器　瓦　陶磁器",139.3524254,35.60404546,TRUE
13209012600,13209,"126","たまにゅーたうんNo.313いせき","多摩ニュータウンNo.313遺跡","町田市 小山ヶ丘五丁目","[弥生時代][奈良時代][平安時代]","包蔵地","","土師器",139.3503144,35.60504781,TRUE
13209013000,13209,"130","たまにゅーたうんNo.210いせき","多摩ニュータウンNo.210遺跡","町田市 小山ヶ丘三丁目","[縄文時代（早期〜後期）][弥生時代][奈良時代][平安時代][中世]","集落","[縄文時代]住居 竪穴状遺構 炉穴 土坑 焼土 集石 土器埋設ピット","ナイフ形石器 縄文土器 石器 土製品 礫",139.3723608,35.60099165,TRUE
13209013800,13209,"138","","町田市No.138遺跡","町田市 常盤町","[縄文時代（早期〜後期）][弥生時代（後期）][古墳時代][奈良時代][平安時代]","包蔵地","","縄文土器　石器　弥生土器　土師器　須恵器　陶磁器",139.3924433,35.58903711,TRUE
13209014100,13209,"141","","町田市No.141遺跡","町田市 常盤町","[縄文時代（早期）][弥生時代][奈良時代][平安時代]","包蔵地","","縄文土器　弥生土器　土師器　陶器",139.396546,35.58801804,TRUE
13209014200,13209,"142","","町田市No.142遺跡","町田市 常盤町","[縄文時代（前期〜中期）][弥生時代][奈良時代][平安時代]","包蔵地","","縄文土器　弥生土器　陶器",139.3952414,35.58671976,TRUE
13209015400,13209,"154","","町田市No.154遺跡","町田市 上小山田町　 下小山田町","[縄文時代（早期〜中期）][弥生時代]","包蔵地","","縄文土器　石器　弥生土器",139.4044187,35.60595415,TRUE
13209018400,13209,"184","","町田市No.184遺跡","町田市 上小山田町","[縄文時代（早期〜後期）][弥生時代][奈良時代][平安時代][中世]","包蔵地","","縄文土器　弥生土器　土師器　須恵器",139.3949036,35.59388283,TRUE
13209021500,13209,"215","","町田市No.215遺跡","町田市 山崎町　 図師町　 忠生二丁目","[縄文時代（早期・中期〜後期）][弥生時代（後期）][古墳時代][奈良時代][平安時代][中世]","包蔵地・城館","","縄文土器　弥生土器　土師器　須恵器",139.4283485,35.57963268,TRUE
13209023700,13209,"237","","町田市No.237遺跡","町田市 小野路町","[縄文時代（前期）][弥生時代]","包蔵地","","縄文土器　弥生土器",139.4496634,35.60788866,TRUE
13209024200,13209,"242","","町田市No.242遺跡","町田市 小野路町","[縄文時代（中期〜後期）][弥生時代][奈良時代][平安時代][中世]","包蔵地","","縄文土器　弥生土器　土師器　陶器",139.4504414,35.60153706,TRUE
13209024500,13209,"245","","町田市No.245遺跡","町田市 小野路町","[縄文時代][弥生時代]","包蔵地","","縄文土器　弥生土器",139.4538176,35.60085431,TRUE
13209024900,13209,"249","","町田市No.249遺跡","町田市 小野路町","[縄文時代][弥生時代][奈良時代][平安時代]","包蔵地","","縄文土器　弥生土器　須恵器",139.4509337,35.60063099,TRUE
13209026200,13209,"262","","町田市No.262遺跡","町田市 小野路町","[縄文時代][弥生時代][奈良時代][平安時代][中世]","包蔵地","","縄文土器　弥生土器　陶器",139.4375098,35.60358997,TRUE
13209026300,13209,"263","","町田市No.263遺跡","町田市 小野路町","[縄文時代（後期）][弥生時代][奈良時代][平安時代]","包蔵地","","縄文土器　弥生土器　須恵器",139.4368918,35.60183134,TRUE
13209027300,13209,"273","","町田市No.273遺跡","町田市 小野路町","[縄文時代（中期）][弥生時代][奈良時代][平安時代][中世]","包蔵地","","縄文土器　弥生土器　土師器　陶器",139.432283,35.60056759,TRUE
13209027600,13209,"276","","町田市No.276遺跡","町田市 小野路町","[縄文時代（早期・中期）][弥生時代][古墳時代][奈良時代][平安時代][中世]","包蔵地","","縄文土器　弥生土器　土師器　須恵器　陶器",139.4358501,35.59533968,TRUE
13209027900,13209,"279","","町田市No.279遺跡","町田市 小野路町","[縄文時代][弥生時代][奈良時代][平安時代]","包蔵地","","縄文土器　弥生土器　土師器　須恵器",139.4350722,35.59278638,TRUE
13209028100,13209,"281","","町田市No.281遺跡","町田市 小野路町","[縄文時代（中期）][弥生時代][奈良時代][平安時代][中世]","包蔵地","","縄文土器　弥生土器　土師器　須恵器　陶器",139.4361626,35.59143873,TRUE
13209029400,13209,"294","","町田市No.294遺跡","町田市 野津田町","[縄文時代（早期・中期〜後期）][弥生時代][奈良時代][平安時代]","包蔵地","","縄文土器　弥生土器　土師器　須恵器　陶器",139.4554414,35.59101065,TRUE
13209029500,13209,"295","あやべはらいせき","綾部原遺跡","町田市 野津田町　 小野路町","[旧石器時代][縄文時代（草創期〜晩期）][弥生時代（前期〜後期）][古墳時代][奈良時代][平安時代][中世][近世]","集落・その他の墓","[旧石器時代]石器ブロック　礫群　[縄文時代]住居　陥穴　土坑　集石　配石　ピット　[弥生時代]土器埋設土坑　ピット　[古墳時代]住居　火葬墓　[古墳時代]〜[奈良時代]集石　土坑　[奈良時代][平安時代]住居　[中世]掘建柱建物　土坑　井戸　地下式坑　道路状遺構　溝　[近世]馬墓壙　[時代不明]住居","ナイフ形石器　縄文土器　打斧　石鏃　石皿　磨石　剥片　耳飾　土偶　土版　スタンプ形土製品　弥生土器　土師器　須恵器　灰釉陶器　陶磁器　瓦　砥石　鉄製品",139.4514588,35.59126191,TRUE
13209029900,13209,"299","","町田市No.299遺跡","町田市 野津田町","[縄文時代（中期）][弥生時代][奈良時代][平安時代]","包蔵地","","縄文土器　弥生土器　土師器　須恵器　陶器",139.4403321,35.58423897,TRUE
13209030000,13209,"300","","町田市No.300遺跡","町田市 野津田町","[縄文時代（前期〜中期）][弥生時代][奈良時代][平安時代]","包蔵地","","縄文土器　弥生土器　土師器　須恵器",139.4398889,35.58442155,TRUE
13209030500,13209,"305","","町田市No.305遺跡","町田市 野津田町","[縄文時代（前期〜後期）][弥生時代][奈良時代][平安時代]","包蔵地","","縄文土器　弥生土器　土師器　須恵器　陶磁器",139.4467553,35.58497997,TRUE
13209030600,13209,"306","","町田市No.306遺跡","町田市 野津田町","[縄文時代（中期）][弥生時代][奈良時代][平安時代]","包蔵地","","縄文土器　弥生土器　土師器",139.4439397,35.5846725,TRUE
13209030700,13209,"307","","町田市No.307遺跡","町田市 野津田町","[縄文時代][弥生時代][奈良時代][平安時代]","包蔵地","","縄文土器　弥生土器　土師器　陶器",139.4454507,35.58405858,TRUE
13209030800,13209,"308","","町田市No.308遺跡","町田市 野津田町","[縄文時代][弥生時代][奈良時代][平安時代]","包蔵地","","縄文土器　弥生土器　土師器　陶器",139.4444207,35.58299757,TRUE
13209031700,13209,"317","のつだかわしまいせきびー・しーちてん","野津田川島遺跡B・C地点","町田市 野津田町","[縄文時代（中期）][弥生時代（前期〜中期）]","包蔵地","[縄文時代]土坑","縄文土器　打斧　弥生土器",139.4552697,35.5860968,TRUE
13209032000,13209,"320","かわしだにいせきぐんだい5ちてん","川島谷遺跡群第5地点","町田市 薬師台三丁目","[縄文時代（早期）][弥生時代][古墳時代][平安時代][中世]","集落","[縄文時代]陥穴　[古墳時代]住居　土坑　[平安時代]住居　焼土　土坑","縄文土器　石器　弥生土器　土師器　須恵器　陶器（灰釉他）　鉄器",139.4573144,35.58115567,TRUE
13209033100,13209,"331","かわしだにいせきぐんだい9ちてん","川島谷遺跡群第9地点","町田市 薬師台二丁目","[縄文時代（早期）][弥生時代][平安時代][近世]","集落","[縄文時代]集石　炉穴　土坑　陥穴　[平安時代]住居　焼土　土坑　火葬墓　[近世]炭焼窯　炭焼坑　墓壙","縄文土器　石器　弥生土器　土師器　須恵器　陶器（緑釉）（灰釉）　かわらけ　鉄器　銅製品　古銭",139.4538125,35.5800667,TRUE
13209035100,13209,"351","","町田市No.351遺跡","町田市 真光寺町","[縄文時代（早期）][弥生時代][奈良時代][平安時代][中世]","包蔵地","","縄文土器　弥生土器　土師器　須恵器　陶器",139.457741,35.59789484,TRUE
13209035600,13209,"356","","町田市No.356遺跡","町田市 大蔵町","[縄文時代（中期〜後期）][弥生時代][奈良時代][平安時代]","包蔵地","[縄文時代]土坑　炉穴　集石土坑　埋設土器　[古墳時代][奈良時代][平安時代]住居　掘立柱建物跡　土坑　[近世]溝状遺構　小穴列","ナイフ形石器　尖頭器　細石刃　石刃　スクレイパー　縄文土器　石器　弥生土器　土師器　須恵器　土製品　鉄製品　石製品　玉　陶器",139.4598526,35.58669005,TRUE
13209036400,13209,"364","","町田市No.364遺跡","町田市 大蔵町　 金井四丁目","[縄文時代（早期・中期〜晩期）][弥生時代（後期）][古墳時代][奈良時代][平安時代]","包蔵地","","縄文土器　石器　弥生土器　土師器　須恵器　陶器　瓦",139.4631577,35.58285331,TRUE
13209036900,13209,"369","おおくらすみよしいせき","大蔵住吉遺跡","町田市 大蔵町","[縄文時代][弥生時代][古墳時代][奈良時代][平安時代]","集落","[縄文時代]陥穴　[古墳時代][奈良時代][平安時代]住居　土坑","縄文土器　弥生土器　土師器　須恵器　陶器",139.4689163,35.58278112,TRUE
13209038100,13209,"381","つるかわいせきぐんえるちてん","鶴川遺跡群L地点","町田市 鶴川二丁目","[弥生時代]","集落","[弥生時代]住居","弥生土器",139.4717162,35.58879155,TRUE
13209038500,13209,"385","つるかわいせきぐんえーちてん","鶴川遺跡群A地点","町田市 鶴川四丁目","[縄文時代（早期〜後期）][弥生時代][平安時代]","包蔵地","","縄文土器　打斧　石皿　磨石　スタンプ形石器　弥生土器　土師器　須恵器",139.4605736,35.59701988,TRUE
13209038600,13209,"386","つるかわいせきぐんびーちてん","鶴川遺跡群B地点","町田市 鶴川四丁目","[縄文時代（早期〜後期）][弥生時代][平安時代]","包蔵地","[時代不明]焼土","縄文土器　土製円板　弥生土器　土師器",139.4613632,35.59693613,TRUE
13209041000,13209,"410","","町田市No.410遺跡","町田市 能ヶ谷六丁目","[縄文時代（中期）][弥生時代][奈良時代][平安時代]","包蔵地","","縄文土器　弥生土器　土師器　須恵器",139.4838876,35.59014368,TRUE
13209043600,13209,"436","みやのまええーいせき","宮之前Ａ遺跡","町田市 三輪町","[縄文時代（中期〜後期）][弥生時代（中期〜後期）][古墳時代][奈良時代][平安時代]","集落","[古墳時代]住居　土坑","縄文土器　弥生土器　土師器　須恵器　陶磁器（緑釉他）　青磁",139.497965,35.57691419,TRUE
13209043700,13209,"437","すぎやまじんじゃきたいせき","椙山神社北遺跡","町田市 三輪町","[旧石器時代][縄文時代（早期・中期〜晩期）][弥生時代（前期〜後期）][古墳時代][奈良時代][平安時代]","集落","[縄文時代]土坑　[弥生時代]竪穴住居　土坑　壺棺墓　土器埋納土坑　[古墳時代]竪穴住居","彫器　剥片　縄文土器　石器　弥生土器　土師器　須恵器　陶磁器　鉄器",139.4954244,35.57808697,TRUE
13209043800,13209,"438","","町田市No.438遺跡","町田市 三輪町","[縄文時代（早期〜後期）][弥生時代（後期）][古墳時代][奈良時代][平安時代]","包蔵地","","縄文土器　土師器　須恵器",139.5068227,35.5738146,TRUE
13209046600,13209,"466","","町田市No.466遺跡","町田市 忠生二丁目","[縄文時代（中期〜後期）][弥生時代][奈良時代][平安時代]","包蔵地","","縄文土器　弥生土器　土師器",139.423027,35.57857161,TRUE
13209049400,13209,"494","","町田市No.494遺跡","町田市 山崎町","[弥生時代][奈良時代][平安時代]","包蔵地","","弥生土器　土師器",139.4278735,35.57358223,TRUE
13209051700,13209,"517","かないちゅうおうとちくかくせいりじぎょうようちないいせき","金井中央土地区画整理事業用地内遺跡","町田市 金井町五丁目","[縄文時代（早期〜中期）][弥生時代（中期）][奈良時代][平安時代]","集落","[縄文時代]陥穴　土坑　配石遺構　[奈良時代][平安時代]住居","縄文土器　石器　弥生土器　土師器　須恵器　鉄製品",139.459649,35.57590613,TRUE
13209054700,13209,"547","ほんまちだいせきぐんじーちてん","本町田遺跡群G地点","町田市 本町田","[縄文時代（前期〜中期）][弥生時代][平安時代]","包蔵地","","縄文土器　石器　弥生土器　土師器　須恵器",139.4511061,35.57036473,TRUE
13209055100,13209,"551","むかいいせき","向上遺跡","町田市 本町田","[縄文時代（前期・後期）][弥生時代（後期）][古墳時代][奈良時代][平安時代]","集落","[縄文時代]住居　集石　土坑　[古墳時代]住居　竪穴状遺構　柱穴列　土坑","縄文土器　打斧　打製石器　石皿　凹石　砥石状石器　弥生土器　土師器",139.4515868,35.55687537,TRUE
13209056200,13209,"562","はらひがしいせき","原東遺跡","町田市 本町田","[縄文時代（早期〜後期）][弥生時代（後期）][古墳時代][奈良時代][平安時代]","集落","[縄文時代]住居　敷石住居　環礫方形配石遺構　柱穴列","縄文土器　石器　弥生土器　土師器　須恵器",139.4426235,35.56242097,TRUE
13209056400,13209,"564","きそだんちいせきぐん・ほんまちだしちめんやまいせき","木曽団地遺跡群・本町田七面山遺跡","町田市 本町田","[縄文時代（早期〜後期）][弥生時代（後期）][古墳時代][奈良時代][平安時代][中世]","包蔵地･その他の墓","","縄文土器　弥生土器　土師器　須恵器　板碑",139.4421797,35.5663433,TRUE
13209057100,13209,"571","ゆうきやまいせき","ゆうき山遺跡","町田市 本町田","[縄文時代（早期〜中期）][弥生時代][奈良時代][平安時代]","集落","[縄文時代]住居　土坑","縄文土器　石器　弥生土器　土師器　陶器",139.4522709,35.56672187,TRUE
13209057300,13209,"573","ほんまちだいせきぐんえーちてん","本町田遺跡群A地点","町田市 本町田","[縄文時代（前期〜中期）][弥生時代]","集落","[縄文時代]住居　[弥生時代]住居","縄文土器　打斧　磨斧　礫器　石鏃　石皿　磨石　土製品　弥生土器　有孔磨製石鏃　鉄製品　土師器",139.4498015,35.5676838,TRUE
13209063200,13209,"632","","町田市No.632遺跡","町田市 南大谷","[縄文時代（前期〜中期）][弥生時代（後期）][古墳時代][奈良時代][平安時代]","包蔵地","","縄文土器　弥生土器　土師器　須恵器",139.4610373,35.55075708,TRUE
13209063600,13209,"636","","町田市No.636遺跡","町田市 南大谷","[縄文時代（後期）][弥生時代]","包蔵地","","縄文土器　弥生土器",139.4529349,35.55268442,TRUE
13209064700,13209,"647","","町田市No.647遺跡","町田市 高ヶ坂五丁目　高ヶ坂六丁目","[縄文時代][弥生時代（中期）][古墳時代]","集落","[弥生時代]住居　方形周溝墓","縄文土器　弥生土器",139.4624688,35.54271181,TRUE
13209065000,13209,"650","なるせみなみきゅーくいせき","成瀬南IX区遺跡","町田市 南成瀬五丁目　 南成瀬六丁目","[縄文時代（前期〜晩期）][弥生時代][古墳時代][奈良時代][平安時代]","集落","[時代不明]住居","縄文土器　弥生土器　土師器　須恵器",139.4785179,35.53376514,TRUE
13209065200,13209,"652","なるせみなみいせき","成瀬南遺跡","町田市 南成瀬四丁目","[縄文時代（中期）][弥生時代][奈良時代][平安時代]","包蔵地","","縄文土器　弥生土器　土師器",139.4746381,35.53806725,TRUE
13209065400,13209,"654","なるせみなみいせき","成瀬南遺跡","町田市 南成瀬四丁目","[縄文時代（中期）][弥生時代]","包蔵地","","縄文土器　弥生土器",139.4755651,35.53935235,TRUE
13209067700,13209,"677","とううんじいせきぐん","東雲寺遺跡群","町田市 成瀬三丁目　 成瀬四丁目　 成瀬五丁目","[縄文時代（早期・中期〜後期）][弥生時代（中期）][古墳時代][奈良時代][平安時代][中世]","集落・その他（環濠）","[縄文時代]住居　竪穴状プラン　環礫方形配石遺構　焼土　土器集中箇所　柱穴列　土坑　ピット　[弥生時代]住居　土器埋納土坑　溝状遺構(環濠)　[古墳時代][平安時代][時代不明]住居","縄文土器　石器　弥生土器　石器　鉄製品　土師器　須恵器　陶磁器",139.4796045,35.54208326,TRUE
13209068500,13209,"685","なすなはらいせき","なすな原遺跡","町田市 南成瀬七丁目　 南成瀬八丁目","[旧石器時代][縄文時代（草創期〜晩期）][弥生時代（後期）][古墳時代][奈良時代][平安時代]","集落","[旧石器時代]ブロック　[縄文時代]住居　敷石住居　柱穴列　集石　土坑　焼土　埋設土器　配石遺構　土器集中址　[弥生時代]方形周溝墓　[古墳時代]住居　掘建柱建物　円形周溝　土坑　[奈良時代][平安時代]住居　掘立柱建物　土坑　井戸状遺構","尖頭器　縄文土器　石器　装飾品　石製品　骨角器　弥生土器　土師器　須恵器",139.4837216,35.53240167,TRUE
13209071000,13209,"710","ふくしょうじきたいせき","福生寺北遺跡","町田市 小山町","[旧石器時代][縄文時代（中期）][弥生時代（中期）][古墳時代][平安時代][中世]","集落･横穴墓","[縄文時代]住居　集石　土坑　陥穴　〔弥生時代〕住居〔古墳時代〕横穴墓　[時代不明]住居","ナイフ形石器　縄文土器　石斧　弥生土器　土師器　須恵器　板碑　人骨",139.3695572,35.60077944,TRUE
13209071700,13209,"717","りょうでんじみなみいせき","簗田寺南遺跡","町田市 忠生二丁目","[縄文時代（早期〜後期）][弥生時代][古墳時代]","集落","[縄文時代]住居　竪穴状遺構　集石土坑　炉穴　焼土　土坑　[古墳時代]住居　[古墳時代]〜掘立柱建物　ピット　溝","縄文土器　石器　土製品　土師器　須恵器　石器　陶磁器　鉄器",139.4256019,35.57703583,TRUE
13209073900,13209,"739","おやまだいせきぐんNo.4いせき","小山田遺跡群No.4遺跡","町田市 小山田桜台二丁目","[縄文時代（早期〜後期）][弥生時代][平安時代][近世]","集落","[縄文時代]炉穴　土坑　[平安時代]住居　土坑　[近世][現]炭焼窯","縄文土器　石器　弥生土器　土師器　須恵器　灰釉陶器",139.4003397,35.58955361,TRUE
13209074500,13209,"745","おやまだいせきぐんNo.10いせき","小山田遺跡群No.10遺跡","町田市 小山田桜台一丁目　 小山田桜台二丁目","[旧石器時代][縄文時代（早期〜中期）][弥生時代][奈良時代][平安時代][近世]","集落","[縄文時代]土坑　[奈良時代][平安時代]住居　土坑","尖頭器　縄文土器　石器　土師器　須恵器　陶器（灰釉）　施釉陶器　瓦",139.4014384,35.5891069,TRUE
13209074800,13209,"748","おやまだいせきぐんNo.13いせき","小山田遺跡群No.13遺跡","町田市 小山田桜台一丁目","[縄文時代（早期〜後期）][弥生時代][古墳時代]","集落","[縄文時代]住居　集石　土坑　[弥生時代]住居　[古墳時代]住居","縄文土器　石器　土製品　弥生土器　銅鏃　鉄製品　土師器",139.4062035,35.58895271,TRUE
13209074900,13209,"749","おやまだいせきぐんNo.14いせき","小山田遺跡群No.14遺跡","町田市 小山田桜台一丁目","[弥生時代]","包蔵地","","弥生土器",139.4063135,35.58941402,TRUE
13209075100,13209,"751","おやまだいせきぐんNo.16いせき","小山田遺跡群No.16遺跡","町田市 下小山田町","[縄文時代（早期〜後期）][弥生時代][古墳時代][平安時代]","包蔵地","","縄文土器　土師器",139.408705,35.58633704,TRUE
13209080500,13209,"805","","町田市No.805遺跡","町田市 上小山田町","[縄文時代（中期）][弥生時代][奈良時代][平安時代]","包蔵地","","縄文土器　弥生土器　土師器",139.396483,35.59625602,TRUE
13209080900,13209,"809","おやまだいせきぐんNo.27いせき","小山田遺跡群No.27遺跡","町田市 上小山田桜台二丁目","[縄文時代（早期〜中期）][弥生時代][古墳時代][奈良時代][平安時代]","集落","[縄文時代]集石　炉穴　土坑　[平安時代]住居　土坑","縄文土器　石器　弥生土器　土師器　須恵器　鉄器",139.3990179,35.58984677,TRUE
13209081000,13209,"810","","町田市No.810遺跡","町田市 常盤町","[縄文時代（前期〜後期）][弥生時代（後期）][古墳時代]","包蔵地","","縄文土器　石器　弥生土器　土師器",139.3992583,35.58773884,TRUE
13209081800,13209,"818","","町田市No.818遺跡","町田市 下小山田町","[縄文時代（早期）][縄文時代（中期）][縄文時代（後期）]〔縄文時代（中期〜後期）〕[弥生時代]","包蔵地","","縄文土器　弥生土器",139.4098683,35.59216057,TRUE
13209082900,13209,"829","すぐじやましたいせき","すぐじ山下遺跡","町田市 山崎町","[縄文時代（早期・中期）][弥生時代（中期）][古墳時代][奈良時代][平安時代][中世][近世]","集落","[縄文時代]住居　敷石住居　[古墳時代]住居　　[奈良時代][平安時代]住居　掘立柱建物　[中世][近世]土坑　溝状遺構","縄文土器　石器　弥生土器　土師器　須恵器　灰釉陶器　紡錘車　鉄製品　古銭　陶磁器",139.4321135,35.57943925,TRUE
13209083800,13209,"838","みわみなみいせきぐん（びー-4）","三輪南遺跡群(B−4)","町田市 三輪緑山二丁目","[縄文時代][弥生時代]","包蔵地","","磨石　弥生土器　土師器",139.488116,35.57095321,TRUE
13209084200,13209,"842","ひがしたまがわがくえんいせき・みなみおおやいせき","東玉川学園遺跡・南大谷遺跡","町田市 南大谷　 西成瀬三丁目　 東玉川学園三丁目","[旧石器時代][縄文時代（前期〜中期）][弥生時代][古墳時代]","集落","[縄文時代]住居　集石　土坑　[弥生時代][古墳時代]住居　[時代不明]竪穴状遺構","尖頭器　縄文土器　石器　土製品　土師器",139.4674918,35.5529358,TRUE
13209085100,13209,"851","しんこうじひろばかまいせきぐんNo.13ちてん（むかいいせき）","真光寺・広袴遺跡群No.13地点(向遺跡)","町田市 広袴三丁目","[旧石器時代][縄文時代（早期〜晩期）][弥生時代（後期）][古墳時代][奈良時代][平安時代][近世]","集落","[旧石器時代]礫群　ブロック　[縄文時代]住居　敷石住居　集石土坑　土坑　[近世]井戸　墓壙群","ナイフ形石器　尖頭器　掻器　削器　彫器　礫器　磨石　石核　剥片　縄文土器　石器　弥生土器　土師器　陶磁器　煙管　古銭　人骨",139.4745452,35.59577803,TRUE
13209088900,13209,"889","たまにゅーたうんNo.938いせき","多摩ニュータウンNo.938遺跡","町田市 小山ヶ丘三丁目","[縄文時代（早期〜中期）][弥生時代][古墳時代][奈良時代][平安時代][近世]","集落","[縄文時代]竪穴状遺構　集石　土坑　[弥生時代]住居　[平安時代]住居　[弥生時代]〜[平安時代]竪穴状遺構　焼土　土坑　[近世]粘土採掘坑　炭窯　溝","縄文土器　打斧　石槍　磨石　弥生土器　石器　土師器　須恵器　陶器（灰釉・緑釉）　釘　鉄鏃　紡錘車　銭貨　木製品　馬歯",139.3692458,35.6018333,TRUE
13209089500,13209,"895","たまにゅーたうんNo.930いせき","多摩ニュータウンNo.930遺跡","町田市 小山ヶ丘二丁目","[縄文時代（前期〜中期）][弥生時代][奈良時代][平安時代][中世][近世]","包蔵地・城館","[弥生時代]埋甕　[奈良時代][平安時代]溝　[中世]堀　郭　[近世]炭窯","縄文土器　石器　弥生土器　陶磁器",139.3728678,35.60281031,TRUE
13209090100,13209,"901","たまにゅーたうんNo.926いせき","多摩ニュータウンNo.926遺跡","町田市 小山ヶ丘三丁目","[縄文時代（早期〜後期）][弥生時代][近世]","集落","[縄文時代]集石　焼土　土坑　[弥生時代]住居　[近世]炭窯","縄文土器　石鏃　凹石　弥生土器　陶磁器",139.3743098,35.60095397,TRUE
13209092900,13209,"929","のうがやかごやまこふんぐん","能ヶ谷香山古墳群","町田市 能ヶ谷二丁目","[縄文時代（早期〜中期）][弥生時代][古墳時代][奈良時代][中世]","古墳・横穴墓・包蔵地","円墳2基　横穴墓20基　[縄文時代？]床状硬化面　焼土　竪穴状プラン　[古墳時代]円墳","縄文土器　土師器　須恵器　耳環　勾玉　玉類　直刀　鉄製品　灰釉陶器　板碑　古銭",139.4825824,35.58564458,TRUE
13209093000,13209,"930","ほうせいだいがくたまこうちいせきぐんあーるちく","法政大学多摩校地遺跡群R地区","町田市 相原町","[縄文時代（中期〜後期）][弥生時代][平安時代][近世]","包蔵地","[平安時代]焼土　土坑","縄文土器　石器　弥生土器　土師器　須恵器　陶磁器　硯　鉄製品　銅製品　煙管　古銭",139.2996715,35.61308794,TRUE
13209093500,13209,"935","","町田市No.935遺跡","町田市 三輪町","[縄文時代（後期）][弥生時代][古墳時代][奈良時代][平安時代]","包蔵地","","縄文土器　土師器　須恵器　陶器",139.4887983,35.57912013,TRUE
13209093600,13209,"936","","町田市No.936遺跡","町田市 三輪町","[縄文時代（中期〜後期）][弥生時代（後期）][古墳時代][奈良時代][平安時代]","包蔵地","","縄文土器　土師器　須恵器　陶器",139.5002309,35.57512706,TRUE
13209094600,13209,"946","","町田市No.946遺跡","町田市 大蔵町","[弥生時代（後期）][古墳時代][奈良時代][平安時代]","包蔵地","","弥生土器　土師器　須恵器",139.4727958,35.58537779,TRUE
13209095800,13209,"958","","町田市No.958遺跡","町田市 小山町","[縄文時代（中期〜後期）][弥生時代][古墳時代][奈良時代][平安時代][中世]","包蔵地","","縄文土器　石器　弥生土器　土師器　陶磁器",139.3851714,35.59384627,TRUE
13209095900,13209,"959","","町田市No.959遺跡","町田市 小山町","[縄文時代（前期〜後期）][弥生時代（後期）][古墳時代][奈良時代][平安時代][中世]","包蔵地","","縄文土器　弥生土器　土師器　陶磁器",139.3767683,35.59578426,TRUE
13209096700,13209,"967","","町田市No.967遺跡","町田市 上小山田町","[縄文時代（早期〜後期）][弥生時代（中期）][古墳時代][奈良時代][平安時代]","包蔵地","","縄文土器　石器　弥生土器　土師器　須恵器　陶磁器",139.3999075,35.59786253,TRUE
13209097100,13209,"971","","町田市No.971遺跡","町田市 小山町","[縄文時代（中期〜後期）][弥生時代（後期）][奈良時代][平安時代]","包蔵地","","縄文土器　弥生土器　土師器",139.3913925,35.58807695,TRUE
13209098900,13209,"989","","町田市No.989遺跡","町田市 旭町三丁目","[縄文時代（中期）][弥生時代]","包蔵地","","縄文土器　弥生土器　陶磁器",139.4412871,35.5579088,TRUE
13209099000,13209,"990","","町田市No.990遺跡","町田市 本町田","[縄文時代（前期〜中期）][弥生時代]","包蔵地","","縄文土器　弥生土器",139.4392246,35.5597677,TRUE
13209099200,13209,"992","","町田市No.992遺跡","町田市 金井町","[縄文時代][弥生時代（後期）][古墳時代][奈良時代][平安時代]","包蔵地","","縄文土器　弥生土器　土師器",139.4727103,35.57667449,TRUE
13209099500,13209,"995","","町田市No.995遺跡","町田市 南大谷","[弥生時代（後期）][古墳時代][奈良時代][平安時代]","包蔵地","","弥生土器　土師器　須恵器　陶磁器",139.4612777,35.55193025,TRUE
13209099700,13209,"997","","町田市No.997遺跡","町田市 成瀬五丁目　成瀬六丁目","[縄文時代][弥生時代（中期）][奈良時代][平安時代]","包蔵地","","縄文土器　弥生土器　土師器",139.4811956,35.53792757,TRUE
13212000600,13212,"6","しんめいうえいせき","神明上遺跡","日野市 神明一丁目 神明二丁目 神明三丁目 神明四丁目 大坂上三丁目 大坂上四丁目 多摩平七丁目","[旧石器時代][縄文時代（早期〜中期）][弥生時代][古墳時代][奈良時代][平安時代][近世]","集落","住居 掘建柱建物跡 土坑 集石 溝","石器 縄文土器 土師器 須恵器ほか",139.3932299,35.67174888,TRUE
13212001800,13212,"18","ふきあげいせき","吹上遺跡","日野市 東豊田三丁目","[縄文時代（中期）][弥生時代][古墳時代][奈良時代][平安時代]","集落","","",139.3894416,35.665114,TRUE
13212002200,13212,"22","ひらやまいせき","平山遺跡","日野市 東平山二丁目 西平山 豊田","[旧石器時代][縄文時代（早期・中期）][弥生時代（後期）][古墳時代][奈良時代][平安時代][中世]","集落・古墳・墳墓","[旧石器時代]ユニット、[縄文時代]竪穴建物跡、集石、土坑、炉穴、[弥生時代]竪穴建物跡、方形周溝墓、[古墳時代]竪穴建物跡、古墳、[奈良～平安時代]掘立柱建物跡、柵列（ピット）、[中世]地下式土坑","[旧石器]石器、[縄文]土器、石器、[弥生]土器、[古墳]土師器、須恵器、鉄製刀子、人骨、[平安]土師器、[中世]銭貨、鉄製品",139.3756535,35.65123057,TRUE
13212003800,13212,"38","おちかわ・いちのみやいせき","落川・一の宮遺跡","日野市 落川","[縄文時代（晩期）][弥生時代（中期）][古墳時代][奈良時代][平安時代][中世][近世]","集落","[古墳時代]住居 土坑 [奈良時代]住居 掘立柱建物 土坑 溝 [古墳時代]?〜[近世]水田 [奈良時代]〜[中世]石敷遺構 [平安時代]住居 掘立柱建物 土坑 溝 粘土採掘坑 [中世]掘立柱建物 竪穴状遺構 地下炉 土坑 溝 道路 流路 [近世]礎石建物 畑 溝 墓壙","縄文土器 打斧 石鏃 弥生土器 土師器 須恵器 管玉 子持勾玉 勾玉 金環 石製模造品 砥石 刀子 鎚 釘 鉄鏃 石製・鉄製紡錘車 鉄錘 土錘 鉄鈴 門金具 陶硯 馬具 鍔 飾金具 墨書土器 磨石 石製・青銅製帯飾 馬歯 陶磁器 カワラケ 舶載陶磁器 瓦 板碑 銭貨 木杯 木蓋 くし 木杭",139.4368986,35.65469381,TRUE
13213000700,13213,"7","ひなたきた","日向北遺跡","東村山市 多摩湖町一丁目","[旧石器時代][縄文時代（早期〜晩期）][弥生時代（後期）][古墳時代][奈良時代][平安時代][中世]","集落","[縄文時代]住居　[古墳時代]住居","尖頭器　縄文土器　打製石斧　磨製石斧　石鏃　石錐　敲石　土錘　垂飾　石棒　石剣　紡錘車　耳栓　土偶　剥片　残核　焼獣骨　弥生土器　土師器　須恵器　陶器　磁器",139.4518359,35.76470573,TRUE
13213001700,13213,"17","なかのわり（ひなた）いせき","中の割(日向)遺跡","東村山市 多摩湖町一丁目　 廻田町三丁目　 廻田町四丁目","[旧石器時代][縄文時代（草創期〜後期）][弥生時代（後期）][古墳時代][奈良時代][平安時代][中世]","集落","［縄文時代］竪穴住居跡　敷石住居　土坑 集石土坑　配石","ナイフ形石器　尖頭器　釉石刃　剥片　残核　縄文土器　耳栓　土製円盤　ミニチュア土器　打製石斧　磨製石斧　石鏃　楔形石器　石棒　敲石　磨石兼敲石　スクレイパー　石皿　台石　石皿兼台石　剥片　残核　弥生土器　瓦　土師器　須恵器　陶器　磁器　板碑",139.4503939,35.76027619,TRUE
13213001800,13213,"18","","東村山市No.18遺跡","東村山市 諏訪町三丁目","[縄文時代（中期）][弥生時代（後期）][古墳時代][奈良時代][平安時代][中世]","包蔵地","","縄文土器　磨製石斧　石皿　剥片　弥生土器　土師器　須恵器　陶器",139.4532948,35.76733005,TRUE
13213002600,13213,"26","とくぞうじ（のぐち）いせき","徳蔵寺(野口)遺跡","東村山市 諏訪町一丁目","[縄文時代（早期・中期〜晩期）][弥生時代（前期〜中期）][古墳時代][奈良時代][平安時代][中世]","包蔵地","[時代不明]V字溝","縄文土器　打製石斧　石皿　残核　弥生土器　土師器　須恵器　陶器　中世土器　磁器　板碑　石製円盤　木製品",139.4687443,35.77033856,TRUE
13213002700,13213,"27","","東村山市No.27遺跡","東村山市 野口町三丁目","[縄文時代（中期〜晩期）][弥生時代（後期）][古墳時代][奈良時代][平安時代]","包蔵地","","縄文土器　打製石斧　敲石　剥片　弥生土器　土師器　須恵器",139.4547198,35.76473359,TRUE
13213002800,13213,"28","かじやついせき","鍛冶谷ッ遺跡","東村山市 野口町三丁目","[縄文時代（中期〜晩期）][弥生時代（前期〜後期）][古墳時代][奈良時代]［平安時代］","包蔵地","","縄文土器　剥片　弥生土器　土師器　須恵器",139.4555438,35.76621006,TRUE
13213003800,13213,"38","しもざわいせき","下沢遺跡","東村山市 秋津町三丁目　 秋津町四丁目","[旧石器時代][縄文時代（早期〜晩期）][弥生時代（後期）][古墳時代][奈良時代][平安時代][中世]","集落","［縄文時代］住居　[平安時代]住居","ナイフ形石器　縄文土器　打製石斧　磨製石斧　石鏃　石皿　砥石　剥片　焼礫　弥生土器　土師器　須恵器　瓦　刀子　鉄鏃　板碑　陶器",139.4823859,35.77665151,TRUE
13213006000,13213,"60","","東村山市No.60遺跡","東村山市 廻田町三丁目","[弥生時代（後期）][古墳時代][中世]","包蔵地","","弥生土器　土師器　陶器　板碑",139.4461711,35.75815883,TRUE
13213007100,13213,"71","","東村山市No.71遺跡","東村山市 廻田町一丁目","[縄文時代（中期）][弥生時代（後期）][古墳時代][平安時代][中世]","包蔵地","","縄文土器　石鏃　弥生土器　土師器　須恵器　陶器　磁器",139.453349,35.75522679,TRUE
13213007200,13213,"72","","東村山市No.72遺跡","東村山市 廻田町一丁目","[縄文時代（中期〜後期）][弥生時代（後期）]","包蔵地","","縄文土器　弥生土器",139.4511517,35.75684273,TRUE
13213007700,13213,"77","","東村山市No.77遺跡","東村山市 野口町二丁目","[縄文時代（中期）][弥生時代（後期）][古墳時代][奈良時代][平安時代]","包蔵地","","縄文土器　剥片　弥生土器　土師器　須恵器",139.45714,35.75911178,TRUE
13213012500,13213,"125","","東村山市No.125遺跡","東村山市 秋津町一丁目","[縄文時代（中期）][弥生時代（後期）][古墳時代][奈良時代]","包蔵地","","縄文土器　弥生土器　土師器",139.4917243,35.77225047,TRUE
13213015200,13213,"152","","東村山市No.152遺跡","東村山市 多摩湖町一丁目","[縄文時代（前期〜晩期）][弥生時代（前期〜中期）][古墳時代][奈良時代][平安時代][中世]","包蔵地","","縄文土器　土製円盤　石皿　剥片　残核　打製石斧　礫器　磨石　スクレイパー　台石　弥生土器　土師器　須恵器　陶器",139.449261,35.76478931,TRUE
13214000800,13214,"8","はなざわにしいせき","花沢西遺跡","国分寺市 本町四丁目 南町三丁目 泉町一丁目 東恋ヶ窪一丁目","[旧石器時代][縄文時代][弥生時代]","集落","[縄文時代]住居 土坑 埋甕","縄文土器 打斧 磨斧 石鏃 石匙 石錐 スタンプ形石器 石棒 弥生土器",139.4680368,35.69935258,TRUE
13219000200,13219,"2","こあだちまえはらみなみいせき","小足立前原南遺跡","狛江市 西野川三丁目 西野川四丁目 和泉本町四丁目","[弥生時代][古墳時代][奈良時代][平安時代][近世]","集落","[古墳時代]住居","弥生土器 土師器 須恵器 陶器",139.5717728,35.64557441,TRUE
13219000300,13219,"3","こあだちまえはらひがしいせき","小足立前原東遺跡","狛江市 西野川二丁目 西野川四丁目","[弥生時代][古墳時代][奈良時代]","包蔵地","[奈良時代]住居 土坑","弥生土器 土師器 須恵器",139.5735409,35.64782031,TRUE
13219000400,13219,"4","みのわいせき","箕和遺跡","狛江市 西野川二丁目 西野川四丁目","[弥生時代][古墳時代]［奈良時代］[近世]","集落","[縄文時代]土坑 [古墳時代]住居 [奈良時代]住居","弥生土器 土師器 石製模造品 陶器",139.5743992,35.64949422,TRUE
13219000500,13219,"5","みのわだ・きたくぼいせき","箕和田・北久保遺跡","狛江市 西野川二丁目 和泉本町三丁目","[縄文時代（中期）][弥生時代][古墳時代][奈良時代][平安時代][近世]","集落","[近世]溝状遺構 墓地","縄文土器 弥生土器 土師器 須恵器 陶磁器 鉄製品 銅製品 煙管 銭貨",139.5741074,35.64335636,TRUE
13219000800,13219,"8","こあだちなかむらみなみいせき","小足立中村南遺跡","狛江市 東野川二丁目 西野川一丁目","[弥生時代][古墳時代][奈良時代][平安時代]","集落","[平安時代]住居 掘立柱建物","弥生土器 土師器 須恵器",139.5789486,35.64439529,TRUE
13219001300,13219,"13","がくとうみしまひがしいせき","覚東三島東遺跡","狛江市 東野川四丁目","[弥生時代][古墳時代]","包蔵地","","弥生土器 土師器",139.5852482,35.64222638,TRUE
13219001800,13219,"18","はらきたいせき","原北遺跡","狛江市 和泉本町一丁目","[縄文時代（中期）][弥生時代][古墳時代][奈良時代][平安時代][近世]","集落","[古墳時代]住居","縄文土器 弥生土器 土師器 須恵器 陶器 カワラケ",139.5774313,35.63893222,TRUE
13219002300,13219,"23","しゅくやしきひがしいせき","宿屋敷東遺跡","狛江市 岩戸北一丁目 岩戸北三丁目","[弥生時代][古墳時代][近世]","包蔵地","[中世][近世]竪穴状遺構 [時代不明]溝","弥生土器 土師器 須恵器 陶器",139.5834677,35.63511474,TRUE
13219002900,13219,"29","ふるやしき・あいのはらいせき","古屋敷・相之原遺跡","狛江市 岩戸南二丁目 岩戸南三丁目","[縄文時代（草創期・中期〜後期）][弥生時代][古墳時代][奈良時代][平安時代][近世]","集落","[弥生時代]住居 [古墳時代][奈良時代][平安時代]住居 [時代不明]土師器窯 土坑","縄文土器 有舌尖頭器 石鏃 弥生土器 土師器 須恵器 鉄鎌 鉄鏃 刀子 石製模造品 陶磁器",139.5904667,35.62996028,TRUE
13219003200,13219,"32","やざきやまいせき","矢崎山遺跡","狛江市 猪方一丁目","[弥生時代（後期）][古墳時代]","集落","[弥生時代][古墳時代]住居","弥生土器 土師器 円筒埴輪",139.5840006,35.62841874,TRUE
13219003600,13219,"36","てらまえひがしいせき","寺前東遺跡","狛江市 東和泉一丁目 東和泉二丁目 猪方一丁目","[縄文時代（早期〜前期）][弥生時代][古墳時代][奈良時代][平安時代][中世][近世]","集落","[縄文時代]住居 [平安時代]住居 [時代不明]掘立柱建物 土坑 溝状遺構","縄文土器 打斧 石鏃 石皿 磨石 弥生土器 土師器 須恵器 陶器 カワラケ 釘 銭貨",139.5796233,35.62964658,TRUE
13219004201,13219,"42-1","べんてんいけいせき","弁財天池遺跡","狛江市 中和泉一丁目","[旧石器時代][縄文時代（中期〜後期）][弥生時代（後期）][古墳時代][奈良時代][平安時代][中世][近世]","集落","[旧石器時代]ブロック [縄文時代]住居 集石 土坑 [弥生時代][古墳時代]方形周溝墓 [古墳時代][奈良時代]住居 [奈良時代][平安時代]掘立柱建物 [中世][近世]土坑","ナイフ形石器 尖頭器 細石刃 縄文土器 打斧 石鏃 石皿 土製円板 石棒 弥生土器 槍先形鉄製品 鉄釧 銅釧 土師器 須恵器 紡錘車 銀製穂積具",139.575899,35.63310663,TRUE
13219004300,13219,"43","いずみだぐらいせき","和泉駄倉遺跡","狛江市 東和泉一丁目","[縄文時代（中期〜後期）][弥生時代（後期）][古墳時代][奈良時代][平安時代][近世]","集落","[縄文時代]住居 [弥生時代][古墳時代]住居 [奈良時代][平安時代]住居 掘立柱建物","縄文土器 弥生土器 土師器 須恵器 陶磁器",139.5794181,35.6316277,TRUE
13219005600,13219,"56","みやまえいせき","宮前遺跡","狛江市 中和泉一丁目 中和泉二丁目 中和泉三丁目","[縄文時代（中期）][弥生時代][古墳時代][奈良時代][近世]","集落","[古墳時代]住居","縄文土器 弥生土器 土師器 須恵器 カワラケ",139.570732,35.63620392,TRUE
13219006500,13219,"65","いりうえいせき","圦上遺跡","狛江市 中和泉三丁目 中和泉四丁目","[縄文時代（中期〜晩期）][弥生時代][古墳時代][奈良時代][中世]","集落","[縄文時代]住居 [古墳時代]住居 [奈良時代]住居 [中世]地下式土坑","縄文土器 打斧 石鏃 石匙 石錐 凹石 耳飾 土製勾玉 石剣 岩版 土偶 弥生土器 土師器 須恵器 銭貨 陶磁器",139.5672118,35.63463074,TRUE
13221001600,13221,"16","のしおにしはらいせき","野塩西原遺跡","清瀬市 野塩一丁目","[縄文時代（前期〜後期）][弥生時代][古墳時代][平安時代]","集落","[平安時代]住居","縄文土器　打斧　弥生土器　土師器　須恵器　陶器（灰釉・緑釉）　刀子　鉄鏃　土錘",139.4997041,35.77913395,TRUE
13221004600,13221,"46","なかざとかみしんでんいせき","中里上新田遺跡","清瀬市 中里二丁目","[弥生時代]","包蔵地","","弥生土器",139.5083215,35.7801645,TRUE
13221007700,13221,"77","したじゅくうちやまいせき","下宿内山遺跡","清瀬市 下宿三丁目","[旧石器時代][縄文時代（早期〜晩期）][弥生時代][古墳時代][奈良時代][平安時代][中世][近世]","集落","[縄文時代]竪穴状遺構　集石　土坑　[弥生時代]住居　[奈良時代][平安時代]住居　ピット群　[中世]掘立柱建物　井戸　地下式土坑　[近世]竪穴状遺構　土坑　集石　農道　河道","尖頭器　剥片　縄文土器　土師器　須恵器　鉄製品　陶磁器　板碑　木製品",139.5415821,35.80458062,TRUE
13222000700,13222,"7","しもざとほんむらいせき","下里本邑遺跡","東久留米市 野火止三丁目","[旧石器時代][縄文時代（早期〜中期）][弥生時代][奈良時代][平安時代]［近世］","集落","[旧石器時代]石器礫群　[縄文時代]住居跡　土坑　[弥生時代]土坑　方形周溝墓　[奈良時代]住居　[平安時代]住居","ナイフ形石器　尖頭器　細石刃　細石刃核　局部磨斧　礫器　細石器　縄文土器　弥生土器　土師器",139.5090758,35.76109056,TRUE
13222001100,13222,"11","こやまだいいせき","小山台遺跡","東久留米市 小山一丁目　 小山二丁目　 小山三丁目","[旧石器時代][縄文時代（早期〜後期）][弥生時代]","集落","[縄文時代]住居","ナイフ形石器　縄文土器　打斧　弥生土器",139.5272526,35.76481261,TRUE
13222003100,13222,"31","","東久留米市No.31遺跡","東久留米市 南沢一丁目　 学園町一丁目","[縄文時代（早期・中期）][弥生時代]","包蔵地","","縄文土器　弥生土器",139.5367445,35.75661224,TRUE
13222004200,13222,"42","","東久留米市No.42遺跡","東久留米市 南沢二丁目","[縄文時代（早期・中期）][弥生時代]","包蔵地","","縄文土器　打斧　剥片　弥生土器",139.5335956,35.75186156,TRUE
13223000800,13223,"8","のやまだい5いせき","野山第5遺跡","武蔵村山市 本町五丁目","[縄文時代（早期〜後期）][弥生時代][古墳時代][奈良時代][平安時代][近世？]","集落","[縄文時代]集石土坑　集石炉　溝　配石　[弥]住居　[古墳時代]住居　[奈良時代]住居　[平安時代]住居　[近]炭窯　[時代不明]土坑　溝","尖頭器　縄文土器　打斧　磨斧　石鏃　掻器　楔形石器　磨石　スタンプ形石器　敲石　石核　土製円板　土師器　須恵器　手捏土器　支脚　砥石　紡錘車　土玉",139.3851431,35.76217173,TRUE
13223001300,13223,"13","きちじょうやまいせき","吉祥山遺跡","武蔵村山市 本町四丁目","[旧石器時代][縄文時代（早期〜晩期）][弥生時代（後期）][古墳時代][平安時代]","集落","[縄文時代]住居　炉穴　野外炉　土坑　[弥生時代]住居　[古墳時代]住居","ナイフ形石器　尖頭器　縄文土器　打斧　石鏃　石刃　弥生土器　土師器　須恵器　瓦",139.387821,35.75868928,TRUE
13223001800,13223,"18","やしきやまいせき","屋敷山遺跡","武蔵村山市 中藤一丁目","[旧石器時代][縄文時代（草創期〜晩期）][弥生時代（後期）][古墳時代][平安時代][中世]","集落","[縄文時代]住居　竪穴状遺構　ピット","縄文土器　打斧　スタンプ形石器　弥生土器　土師器　瓦",139.3980655,35.75746344,TRUE
13223003800,13223,"38","うしろがやといせき","後ヶ谷戸遺跡","武蔵村山市 岸三丁目","[縄文時代（中期）][弥生時代（後期）][古墳時代][近世]","包蔵地","[弥生時代]集石","縄文土器　弥生土器　須恵器　陶磁器　木片",139.3727331,35.76496954,TRUE
13224006200,13224,"62","たまにゅーたうんNo.91いせき","多摩ニュータウンNo.91遺跡","多摩市 唐木田一丁目","[旧石器時代][縄文時代（早期〜中期・晩期）][弥生時代（前期〜中期）][古墳時代][奈良時代][平安時代][中世][近世]","集落","[縄文時代]住居　集石　焼土　土坑　[古墳時代]土坑　[平安時代]住居　焼土　ピット　土坑　[中世]建物　ピット　集石　井戸　窯状遺構　[近世]建物　ピット　土坑　井戸　炭窯　段切状遺構　溝","ナイフ形石器　剥片　縄文土器　打斧　磨斧　礫器　石鏃　有孔磨製石鏃　掻器　石皿　磨石　凹石　土錘　耳飾　土師器　須恵器　陶器（灰釉・緑釉）　鉄製品　炭化種子　陶磁器　土師質土器　須恵質土器　舶載磁器　鉄鏃　銭貨　陶磁器　土器　石臼　釘　銭貨",139.4038805,35.61597929,TRUE
13224006400,13224,"64","たまにゅーたうんNo.461いせき","多摩ニュータウンNo.461遺跡","多摩市 唐木田一丁目","[縄文時代（前期〜中期）][弥生時代][奈良時代][平安時代][近世]","包蔵地","[縄文時代]焼土　土坑　[平安時代]土坑","縄文土器　石器　弥生土器　石器　土師器　陶磁器",139.4079317,35.61609093,TRUE
13224008000,13224,"80","たまにゅーたうんNo.452いせき","多摩ニュータウンNo.452遺跡","多摩市 落合一丁目","[旧石器時代][縄文時代（早期〜中期）][弥生時代][古墳時代][奈良時代][平安時代][中世][近世]","集落","[縄文時代]集石　土坑　[奈良時代]住居　[奈良時代][平安時代]住居　集石　土坑　溝　[平安時代]住居　集石　土坑　[中世]建物　焼土　井戸　土坑　地下式土坑　溝　[中世][近世]ピット　柱穴列　杭列　[近世]建物　土坑　焼土　井戸　溝　柵列　石組　木橋","ナイフ形石器　細石刃　石核　縄文土器　石器　弥生土器　匂玉　土師器　須恵器　陶器（灰釉）　砥石　鉄製品　紡錘車　土錘　陶硯　瓦　陶磁器　舶載陶磁器　石製品　鉄製品　銅製品　煙管　木製品　木桶　銭貨",139.4289393,35.62914489,TRUE
13224010700,13224,"107","たまにゅーたうんNo.450いせき","多摩ニュータウンNo.450遺跡","多摩市 愛宕三丁目","[旧石器時代][縄文時代（早期〜後期）][弥生時代（中期）][奈良時代][平安時代][中世][近世]","集落","[縄文時代]敷石住居　集石　土坑　[奈良時代]住居　[平安時代]住居　集石　土坑　埋甕　[中世]竪穴状遺構　柱穴群　地下式土坑　段切状遺構　[中世][近世]建物　ピット　土坑　集石　井戸　溝　[近世]段切状遺構","ナイフ形石器　尖頭器　掻器　削器　剥片　縄文土器　石器　弥生土器　土師器　須恵器　陶器（灰釉・緑釉）　土製品　砥石　鉄製品　瓦　炭化物　陶磁器　土師質土器　舶載陶磁器　砥石　石臼　石鍋　釘　板碑置台　板碑　土製品　銭貨",139.4338199,35.63222081,TRUE
13224018000,13224,"180","りゅうがみねいせき","竜ヶ峰遺跡","多摩市 和田","[縄文時代（早期〜後期）][弥生時代（後期）][古墳時代]","包蔵地","[縄文時代]陥し穴　土坑　[弥生時代][古墳時代]土坑","縄文土器　石器　土師器　陶器",139.4222802,35.64360537,TRUE
13224020000,13224,"200","たまにゅーたうんNo.520いせき","多摩ニュータウンNo.520遺跡","多摩市 聖ヶ丘五丁目","[縄文時代（草創期〜晩期）][弥生時代][奈良時代][平安時代][近世]","包蔵地・集落","※稲城市No.86遺跡と一連の多摩ニュータウン遺跡　[縄文時代]住居跡　墓壙　土器埋設土坑　集石　焼土跡　ピット群　陥し穴土坑　土器捨て場　[平安時代]長方形土坑　円形土坑　[近世]建物跡　炭焼窯　土坑　溝","縄文土器　土偶　土製けつ状耳飾　耳栓　土製円盤　有舌尖頭器　垂飾　石鏃　石錘　石匙　礫器　打斧　磨斧　磨石　石皿　台石　有孔磨製石鏃　須恵器　陶磁器　銭貨",139.4644293,35.62729765,TRUE
13224030700,13224,"307","たまにゅーたうんNo.789いせき","多摩ニュータウンNo.789遺跡","多摩市 諏訪六丁目","[旧石器時代][縄文時代（早期〜中期）][弥生時代][古墳時代][平安時代][中世][近世]","集落","[縄文時代]住居　集石　炉穴　焼土　土坑　[古墳時代]土坑　[平安時代]土坑　[近世]炭窯　溝　道路状遺構","剥片　縄文土器　石器　有孔磨製石鏃　土師器　須恵器　土器　鉄鏃　陶磁器　砥石　銭貨",139.4554342,35.61886957,TRUE
13224032200,13224,"322","たまにゅーたうんNo.860いせき","多摩ニュータウンNo.860遺跡","多摩市 馬引沢二丁目","[旧石器時代][縄文時代（前期〜中期）][弥生時代][古墳時代][奈良時代][中世][近世]","集落","[旧石器時代]ユニット　[縄文時代]土坑　[奈良時代]住居　土坑　[中世][近世]掘立柱建物　井戸　溝","尖頭器　石錐状石器　石核　剥片　縄文土器　弥生土器　土師器　須恵器　瓦　陶磁器",139.4530218,35.63378747,TRUE
13225001400,13225,"14","たまにゅーたうんNo.471いせき","多摩ニュータウンNo.471遺跡","稲城市 坂浜","[旧石器時代][縄文時代（早期〜中期）][弥生時代][古墳時代][奈良時代][平安時代][中世][近世]","集落","[旧石器時代]遺物集中地点　[縄文時代]住居　建物　竪穴状遺構　集石　炉穴　焼土　土坑　墓壙　埋甕　[古墳時代]ピット　土坑　[奈良時代][平安時代]焼土　土坑　炭窯　[平安時代][中世]竪穴状遺構　土坑　溝状遺構　[中世]土坑　炭窯　溝　道路状遺構","ナイフ形石器　尖頭器　はく片　礫　縄文土器　石器　土製円板　?状耳飾　垂飾　石棒　土偶　炭化材　弥生土器　有孔磨製石鏃　炭化物　土師器　須恵器　陶磁器　舶載陶磁器　砥石　煙管",139.4732807,35.62301286,TRUE
13225001900,13225,"19","たまにゅーたうんNo.382いせき","多摩ニュータウンNo.382遺跡","稲城市 坂浜","[縄文時代（早期〜中期）][弥生時代（中期）][奈良時代][平安時代][中世][近世]","包蔵地","[縄文時代]集石　焼土　土坑　石鏃製作址　[奈良時代]〜[近世]焼土　ピット　土坑　段切状遺構　溝","縄文土器　打斧　磨斧　礫器　有舌尖頭器　石鏃　削器　石皿　磨石　凹石　敲石　土製円板　土棒　土偶　弥生土器　土師器　須恵器　陶器　陶磁器",139.4663186,35.62750586,TRUE
13225004200,13225,"42","たまにゅーたうんNo.5いせき","多摩ニュータウンNo.5遺跡","稲城市 長峰二丁目　 長峰三丁目","[旧石器時代][縄文時代（早期〜後期）][弥生時代（中期）][古墳時代][奈良時代][平安時代][中世][近世]","集落","[縄文時代]住居　集石　土坑　[古墳時代]土坑　[平安時代]住居　焼土　ピット　柱穴群　土坑　溝　工房　[近世]建物　貯蔵穴　土坑　井戸　段切状遺構　墓","尖頭器　剥片　縄文土器　打斧　磨斧　礫器　有舌尖頭器　石鏃　掻器　石匙　石皿　抉入磨石　加工礫　?状耳飾　盤状　弥生土器　土師器　須恵器　陶器　斧　釘　刀子　鉄鏃　紡錘車　土錘　羽口　蔵骨器　鉄滓　人骨　自然遺物　陶磁器　舶載磁器　板碑　砥石　釘　弾丸　銅煙管　毛抜き　ガラス玉　銭貨　人骨",139.4808336,35.63176739,TRUE
13225007900,13225,"79","ひらおだいはらいせき","平尾台原遺跡","稲城市 平尾","[縄文時代（草創期〜後期）][弥生時代][古墳時代][奈良時代]","集落・方形周溝墓","[縄文時代]住居　敷石住居　炉　土坑　[弥生時代]住居　方形周溝墓　[古墳時代]住居　柱穴　[奈良時代]住居","縄文土器　石器　弥生土器　土師器　須恵器　勾玉　青銅製品",139.4928577,35.61159354,TRUE
13225008600,13225,"86","たまにゅーたうんNo.520いせき","多摩ニュータウンNo.520遺跡","稲城市 若葉台四丁目","[縄文時代（早期〜中期）][弥生時代][平安時代][近世]","包蔵地","※多摩市No.200遺跡と一連の多摩ニュータウン遺跡　 [縄文時代]住居跡　墓壙　土器埋設土坑　集石　焼土跡　ピット群　陥し穴土坑　土器捨て場　[平安時代]長方形土坑　円形土坑　[近世]建物跡　炭焼窯　土坑　溝","縄文土器　土偶　土製?状耳飾　耳栓　土製円盤　有舌尖頭器　垂飾　石鏃　石錘　石匙　礫器　打斧　磨斧　磨石　石皿　台石　有孔磨製石鏃　須恵器　陶磁器　銭貨",139.4653098,35.62701631,TRUE
13225011900,13225,"119","たまにゅーたうんNo.872いせき","多摩ニュータウンNo.872遺跡","稲城市 坂浜","[縄文時代（早期〜中期）][弥生時代（中期）][近世]","集落","[縄文時代]住居　集石　炉穴　土坑","縄文土器　打斧　礫器　石鏃　掻器　磨石　炭化材　炭化物　有孔磨製石鏃　陶磁器　擂鉢　砥石　銭貨",139.4796368,35.62507992,TRUE
13225012700,13225,"127","たまにゅーたうんNo.880いせき","多摩ニュータウンNo.880遺跡","稲城市 向陽台三丁目　 向陽台五丁目","[旧石器時代][縄文時代（早期〜中期）][弥生時代（前期〜中期）][古墳時代][奈良時代][平安時代][中世][近世]","集落","[縄文時代]集石　土坑　[古墳時代]土坑　[奈良時代][平安時代]住居　焼土　土坑　溝　[近世]土坑　集石　溝","尖頭器　縄文土器　石器　弥生土器　土師器　須恵器　土師質土器　陶器（灰釉）　置き竈　刀子　釘　鉄鏃　土製品　鉄滓　煙管　銭貨",139.4856744,35.63648311,TRUE
13228003000,13228,"30","あじろべんてんどうけついせき","網代弁天洞穴遺跡","あきる野市 網代","[縄文時代][弥生時代][平安時代][中世][近世]","洞穴（祭祀）","","縄文土器　打斧　磨斧　礫器　石鏃　凹石　管玉　弥生土器　有孔円板　須恵器　鉄刀子　経石　石像　銭貨",139.246692,35.720572,TRUE
13228003100,13228,"31","しょうがんじいせき","松岩寺遺跡","あきる野市 北伊奈","[弥生時代][中世]","城館","","須恵器",139.2521165,35.73534358,TRUE
13228007500,13228,"75","よつぎいせき","代継遺跡","あきる野市 上代継","[縄文時代（前期〜中期）][弥生時代][古墳時代]","集落","[縄文時代]住居跡　土坑　集石土坑　炉跡　[古墳時代]住居跡　掘立柱建物跡　土坑　[中世][近世]地下室　配石列　溝　[近世]土坑","石核　剥片　縄文土器　打斧　磨斧　石鏃　石匙　石皿　石器　弥生土器　土師器　須恵器　石器　鉄製品　鉄滓　金環　石製品　金属製品　土製品　陶磁器　銭貨",139.2811787,35.72528945,TRUE
13228008200,13228,"82","よだいせき","余田遺跡","あきる野市 平沢　 二宮　 秋留三丁目","[縄文時代（中期）][弥生時代][古墳時代]","集落","[弥生時代]住居跡　[古墳時代]住居跡　土坑","縄文土器　石器　弥生土器　土師器　鉄製品　石製品　国産陶磁器",139.2968004,35.72540663,TRUE
13228008900,13228,"89","まえだこうちいせき","前田耕地遺跡","あきる野市 二宮　 野辺　 小川","[旧石器時代][縄文時代（草創期〜後期）][弥生時代][古墳時代][平安時代][中世][近世]","集落","[縄文時代]住居跡　集石土坑　炉　土坑　石器製作址　配石","尖頭器　細石刃核　掻器　削器　縄文土器　打斧　磨斧　礫器　石鏃　石匙　石皿　磨石　台石　有溝砥石　剥片　土錘　土偶　弥生土器　土師器　須恵器　陶器（灰釉)　鎌　刀子　陶磁器　瓦　杭　焼礫",139.3154045,35.72418002,TRUE
13228009100,13228,"91","にのみや・にのみやもりこしいせき","二宮・二宮森腰遺跡","あきる野市 二宮　 平沢","[旧石器時代][縄文時代（草創期〜後期）][弥生時代][古墳時代][奈良時代][平安時代][中世][近世]","集落・経塚・社寺・城館","[縄文時代]住居跡　敷石住居　炉　土坑　柱穴群　埋甕　[平安時代]経塚　[中世]地下式土坑","細石刃核　縄文土器　打斧　磨斧　礫器　石鏃　石匙　石錐　石箆　石皿　磨石　スタンプ形石器　凹石　剥片石器　弥生土器　土師器　須恵器　鉄釘　鉄製品　鍔　柄頭鞘尻　瓦　陶磁器　金銅仏　銭貨",139.3128296,35.72886241,TRUE
13229000300,13229,"3","なかあらやしきいせき","中荒屋敷遺跡","西東京市 下保谷三丁目","[旧石器時代][縄文時代(前期)][弥生時代]","包蔵地","[旧石器時代]ブロック","縄文土器 弥生土器 剥片",139.564522,35.75359564,TRUE
13229000700,13229,"7","したのやいせき","下野谷遺跡","西東京市 東伏見二丁目 東伏見三丁目 東伏見六丁目","[旧石器時代][縄文時代(早期〜後期)][弥生時代（後期）][古墳時代][平安時代][近世]","集落","[旧石器時代]ブロック 礫群 炭化物集中 [縄文時代]住居跡 掘立柱建物跡 竪穴 炉穴 陥し穴 集石土坑 土坑 ピット ピット列 埋設土器 [近世]竪穴 溝 道路 集石 配石 柵列 土坑 硬化面 畑 ピット","石器 剥片 焼礫 縄文土器 土錘 土製円盤 垂飾 耳栓 炭化物 矢柄研磨器 砥石 陶磁器 土師質土器 瓦質土器 銭貨 煙管 須恵器 管状土錘 土鈴 刀子 釘 弥生土器 土師器",139.5622433,35.72454327,TRUE
13303000200,13303,"2","さやまいせき","狭山遺跡","瑞穂町 箱根ヶ崎","[旧石器時代][縄文時代（前期〜中期）][弥生時代][古墳時代][平安時代]","集落","［時代不明］住居跡 炉 土坑 溝状遺構 溝","ナイフ形石器 尖頭器 細石刃 細石刃核 掻器 削器 石錐 旧石器 縄文土器 打斧 磨斧 有茎尖頭器 石鏃 石皿 磨石 凹石 敲石 土製円板 石器 弥生土器 土師器 須恵器 陶磁器 ガラス製品 金属製品 銭貨",139.3498167,35.77550709,TRUE
13303000300,13303,"3","せんげんやついせき","浅間谷遺跡","瑞穂町 箱根ヶ崎","[旧石器時代][縄文時代（早期・中期〜後期）]［弥生時代］","包蔵地","[縄文時代]炉","尖頭器 細石刃核 掻器 縄文",139.3540739,35.776287,TRUE
13305000900,13305,"9","たけのうえいせき","岳の上遺跡","日の出町 平井","[縄文時代（早期〜後期）][弥生時代]","集落","[縄文時代]住居　敷石住居　土坑　埋甕　列石","縄文土器　打斧　磨斧　石鏃　石匙　石錘　石皿　磨石　凹石　石棒　弥生土器",139.2547562,35.73861047,TRUE
13305001800,13305,"18","みよしのいせきぐんはけうえ・しももはらちく","三吉野遺跡群欠上・下モ原地区","日の出町 平井","[縄文時代（中期）][弥生時代（後期）][古墳時代][奈良時代][平安時代][中世]","集落","[弥生時代][古墳時代]住居　円形土坑　[中世]?　掘立柱建物　土坑","石斧　敲打器　土師器　刀子　砥石　土製紡錘車　管玉　臼玉",139.2825654,35.73827606,TRUE
