"JASID","LGC","Site_no","SiteName_furigana","SiteName_original","Address","Chronology","SiteType","ArchaeologicalFeatures","MajorArtefacts","Lon","Lat","P"
13101002200,13101,"22","とうきょうこくりつきんだいびじゅつかんいせき","東京国立近代美術館遺跡","千代田区 北の丸公園","[旧石器時代][縄文時代（早期〜後期）][弥生時代][古墳時代][中世][近世]","集落・城館","[旧石器時代]礫群　[縄文時代][弥生時代][古墳時代]住居　[中世]井戸　土坑群　地下式土坑　溝状遺構　堀　[近世]井戸　石組遺構","縄文土器　弥生土器　土製勾玉　土師器　須恵器　砥石　土錘　石製カ帯　石製模造品　陶磁器　カワラケ　瓦　鉄鏃　板碑　ガラス製品　焼塩壺　銭貨",139.754735,35.69037522,TRUE
13101004200,13101,"42","きおいちょういせき","紀尾井町遺跡","千代田区 紀尾井町","[旧石器時代][縄文時代（早期・中期〜後期）][弥生時代（後期）][中世][近世][近代]","包蔵地・集落・屋敷","土坑　盛土　土手　石組溝　土坑　埋桶　柱穴　石垣遺構（紀州和歌山藩屋敷関係）　石垣　溝","縄文土器　弥生土器　陶磁器　瓦　金属製品　泥人形　間知石　石製品",139.7371627,35.68084957,TRUE
13103000900,13103,"9","ながとはぎはんもうりけやしきあといせき","長門萩藩毛利家屋敷跡遺跡","港区 赤坂九丁目","[旧石器時代][縄文時代][古墳時代][近世]","集落・屋敷（大名）","[縄文時代]土坑　[古墳時代]住居　[近世]井戸　土坑　溝","縄文土器　土師器　陶磁器　石器　瓦",139.7304227,35.66606467,TRUE
13103006900,13103,"69","きゅうしろがねごりょうちないぶけやしきあといせき","旧白金御料地内武家屋敷跡遺跡","港区 白金台五丁目","[旧石器時代][縄文時代][弥生時代][近世]","包蔵地　武家屋敷","[旧石器時代]礫群[近世]建物　礎石　土坑　地下室　ピット群　土坑　井戸　溝　溝状遺構　土壙墓　石組","[旧石器時代]剥片[縄文時代]縄文土器[弥生時代]弥生土器[近世]陶磁器　土器　土製品　瓦　石製品　金属製品　木製品　ガラス製品　骨製品　玩具　銭貨　動植物遺体",139.719772,35.639008,TRUE
13103007500,13103,"75","みただいまちいせき","三田台町遺跡","港区 三田四丁目","[旧石器時代][縄文時代][弥生時代][古墳時代][奈良時代][平安時代]","集落","[弥生時代]?　住居　[古墳時代]住居","石器　縄文土器　弥生土器　土師器　須恵器",139.7391129,35.64187723,TRUE
13104000200,13104,"2","おちあいいせき","落合遺跡","新宿区 中落合四丁目　 中井一丁目　 中井二丁目","[旧石器時代][縄文時代（早期〜後期）][弥生時代（後期）][古墳時代][奈良時代][平安時代][近世]","包蔵地・集落・屋敷","[旧石器時代]礫群　[縄文時代]竪穴住居　土坑　炉跡　集石　土器焼成坑　ピット　[弥生時代]竪穴住居　掘立柱建物跡　方形周溝墓　[古墳時代]住居　[奈良時代][平安時代]掘立柱建物　竪穴住居跡　土坑　[近世]杭列　焼土　溝状遺構　ピット　[時期不明]建物　住居　ピット　溝","石器　ナイフ形石器　石核　剥片　砕片　縄文土器　打斧　石槍　石鏃　石核　弥生土器　石包丁　土師器　須恵器　鉄製品　陶磁器　刀子　砥石　坏",139.6805457,35.71627471,TRUE
13104001000,13104,"10","とやまがはらうえのだいいせき","戸山ヶ原上ノ台遺跡","新宿区 百人町四丁目　 北新宿四丁目","[旧石器時代][縄文時代（中期〜後期）][弥生時代（後期）][古墳時代][奈良時代][平安時代]","包蔵地・集落","[旧石器時代]集中地点　[縄文時代]竪穴住居跡　土坑　炉穴　集石　ピット　[古墳時代]竪穴住居跡　住居跡　ピット　[近世]土坑　ピット","ナイフ形石器　角錐状石器　リタッチドフレイク　フレイク　チップ　縄文土器　土偶　土製垂飾品　石器　弥生土器　土師器　　灰釉陶器　鉄器　陶磁器類　煙草吸口　銭貨　笄　ガラス瓶類",139.6947029,35.70849936,TRUE
13104001500,13104,"15","いちがやこうらちょういせき","市谷甲良町遺跡","新宿区 市谷山伏町 市谷甲良町 二十騎町","[旧石器時代][縄文時代（前期〜後期）][近世]","包蔵地・集落・屋敷","[縄文時代]住居跡 竪穴状遺構 屋外埋甕 遺構集中部 土坑 柱穴 小穴 [近世]地下室 土坑 井戸 井戸状遺構 植栽痕 溝状遺構 土取穴 胞衣処理施設 小穴 ピット 建物跡 土取り穴 礎石 硬化面 [近代以降]建物基礎","縄文土器 石器 土製品 磁器 陶器 せっ器 土器 瓦 土製品 金属製品 木製品 骨角製品 ガラス製品 石製品",139.7282492,35.69941572,TRUE
13104002700,13104,"27","あらきちょういせき","荒木町遺跡","新宿区 荒木町","[旧石器時代][縄文時代（中期）][近世]","包蔵地・屋敷","[旧石器時代]礫群 [近世]ピット 廃棄土坑 土坑 地下室 半地下室 井戸","[縄文時代]土器 [近世]磁器 陶器 せっ器 土器 瓦 土製品 金属製品 石製品 ガラス製品 骨製品 錆釉セミ形掛花生 染付唐草文三島手掛分花生 壷屋焼の擂鉢片 クレイパイプ片 木札 [旧石器時代]ナイフ形石器 石核",139.7235352,35.68920231,TRUE
13104003500,13104,"35","みょうしょうじがわNo.1いせき","妙正寺川No.1遺跡","新宿区 西落合二丁目","[旧石器時代][縄文時代（早期〜後期）][弥生時代（後期）][古墳時代][奈良時代][平安時代][中世][近世]","包蔵地","[旧石器時代]礫群　[縄文時代]土坑　[近世]水田址　井戸状遺構","材　縄文土器　石器　木製品　弥生土器　陶器　磁器　埴輪　土製品　石製品　金属製品　土師器",139.6748036,35.72067884,TRUE
13104004300,13104,"43","ひゃくにんちょうさんちょうめいせき","百人町三丁目遺跡","新宿区 百人町二丁目 百人町三丁目 百人町四丁目 大久保三丁目","[旧石器時代][縄文時代（早期・中期〜後期）][弥生時代（後期）][古墳時代][奈良時代][平安時代][近世]","包蔵地・屋敷","[旧石器時代]土坑 [縄文時代]土坑 [奈良時代]ピット [近世]溝 土坑 焼土集中地点 半地下室 土坑 井戸 小穴 溝状遺構 地下室 柱穴 杭穴 胞衣理納遺構・礎石建物跡","石器 礫 縄文土器 石器 弥生土器 土師器 国分寺瓦片 磁器 陶器 土師質土器 金属製品 石製品 動物遺存体 せっ器 近世土器 瓦 土製品 木製品 石製品 自然遺物 ガラス製品 植木鉢 土製品 骨角製品 火縄銃の弾 美濃系陶器志野 内耳付焙烙",139.7008827,35.7061576,TRUE
13104004500,13104,"45","やらいちょういせき","矢来町遺跡","新宿区 矢来町","[旧石器時代][近世]","包蔵地・屋敷","[奈良・平安時代]小穴　[近世]建物跡　建物基礎　地下室　半地下施設　井戸　ごみ穴　溝　溝状遺構　畝状遺構　土坑　礎石　小穴　柱穴・坑穴　採土坑","フレーク　磁器　陶器　せっ器　ナイフ形石器　近世土器　土師器　須恵器　瓦　土製品　金属製品　木製品　ガラス製品　石製品　自然遺物　ガラス製の小壷　鍋島様式の五寸皿",139.732346,35.702518,TRUE
13104004900,13104,"49","しもとつかいせき","下戸塚遺跡","新宿区 西早稲田一丁目　 西早稲田三丁目","[旧石器時代][縄文時代（草創期〜後期）][弥生時代（後期）][古墳時代][奈良時代][平安時代][中世][近世]","包蔵地・集落・屋敷","[旧石器時代]石器ブロック　礫群　[縄文時代]土坑　集石遺構　土坑　炉穴　陥坑　[弥生時代]竪穴式住居　環壕　方形周溝墓　土坑　[古墳時代]竪穴式住居跡　土坑　方形周溝墓　円墳　[奈良時代]竪穴式住居　土坑　掘立柱建物跡　溝　[中世]掘立柱建物跡　柵列　井戸　地下式坑　土坑　溝　方形周溝状区画溝　[近世]建物跡　柵列　地下室　井戸　土坑　溝状遺構　竪穴状遺構　畝状遺構　ピット","剥片　礫　縄文土器　石器　弥生土器　ガラス製小玉　青銅製品　土製勾玉　蓑玉　炭化米　金属製品　石製有孔円板　滑石製管玉　石製品　鉄製品　ガラス製品　ベンガラ塊　土師器　須恵器　灰釉　緑釉陶器　砥石　土製品　鉄器　墨書土器　磁器　陶器　瓦器　中世土器　埋納銭貨　青磁　土製品　瓦　木製品　近世土器",139.7169465,35.71088671,TRUE
13104006000,13104,"60","あなはちまんじんじゃいせき","穴八幡神社遺跡","新宿区 西早稲田一丁目　 西早稲田二丁目","[旧石器時代][縄文時代（早期〜中期）][弥生時代（後期）][近世]","包蔵地・集落・社寺","[縄文時代]礫群　[弥生時代]住居跡","石器　縄文土器　石器　礫　弥生土器　石鏃　棗玉　転用硯　磁器　陶器　銭貨",139.7176675,35.70731839,TRUE
13104006100,13104,"61","いちがやほんむらちょういせき","市谷本村町遺跡","新宿区 市谷本村町","[旧石器時代][縄文時代（早期〜晩期）][平安時代][近世]","包蔵地・集落・屋敷","[旧石器時代]ブロック 遺物集中地点 [縄文時代]住居跡 集石 土坑 ピット 炉穴 土器埋設 [平安時代]竪穴住居跡 土坑 [近世]石垣 土塁礎石 船渠 石組遺構 地下式土坑 礎石建物跡 掘立柱建物跡 土坑 柱穴乱杭護岸 土蔵基礎 埋桶 井戸 寵跡 池 石櫃遺構 溝 塀 ごみ穴 焼土跡 瓦組 地下室 木組構築 石組構築 土器埋設 杭列 瓦溜 溝状遺構 礎石 塀関係 木桶 道路関係 畝状遺構 大型土坑 地震断層 硬化面 土手状遺構 焼土溜 砂利敷 石組溝 埋甕 植栽痕 ピット [近世][近代]礎石列 水琴窟状 レンガ組遺構 レンガ桝","石器（4層段階石器群） 縄文土器 土師器 須恵器 鉄製品 鉄滓 板碑片? 磁器 陶器 近世土器 瓦 土製品 ミニチュア 金属製品 銭貨 木製品 漆器類 骨角製品 ガラス製品 石製品 石塔 繊維 せっ器 近世陶磁器類 レンガ",139.7290067,35.69304468,TRUE
13104006500,13104,"65","たかだのばばさんちょうめいせき","高田馬場三丁目遺跡","新宿区 高田馬場三丁目","[旧石器時代][縄文時代（早期〜後期）][弥生時代（後期）][古墳時代][奈良時代]","包蔵地・集落","[弥生時代]竪穴住居　竪穴住居跡　[古墳時代]竪穴住居跡　[近世]溝　[時期不明]土坑","剥片　砕片　縄文土器　石器　小銅鐸　管状銅製品　ガラス小玉　土師器　鉄製品　青銅製品",139.6956862,35.7132084,TRUE
13104006800,13104,"68","きたしんじゅくさんちょうめいせき","北新宿三丁目遺跡","新宿区 北新宿三丁目","[旧石器時代][縄文時代（前期〜中期）][弥生時代（後期）][古墳時代][中世][近世]","包蔵地・集落","[弥生時代]竪穴住居跡　[古墳時代]竪穴住居跡　[中世]地下式壙　土坑　小穴　[近世]地下室　土坑　柱穴　溝","石器　尖頭器　石核　剥片　縄文土器　弥生土器　ガラス小玉　炭化米　古墳土器　ガラス小玉　磁器　陶器　せっ器　近世土器　瓦　金属製品",139.689965,35.70440123,TRUE
13104007400,13104,"74","しんじゅくよんちょうめいせき","新宿四丁目遺跡","新宿区 新宿四丁目","[旧石器時代][近世]","包蔵地・屋敷","","",139.702821,35.68834309,TRUE
13104007700,13104,"77","かみおちあいにちょうめいせき","上落合二丁目遺跡","新宿区 上落合一丁目 上落合二丁目","[旧石器時代][縄文時代（前期〜中期）][古墳時代][奈良時代][平安時代]","包蔵地・集落","[古墳時代]竪穴住居跡 [奈良時代]竪穴住居跡 土坑 掘立柱建物跡 埋納土坑 [平安時代]埋納土坑","縄文土器 土師器 ガラス小玉 土師器 須恵器 鉄製品 土製品 石製品 羽口",139.690914,35.71507608,TRUE
13104007900,13104,"79","ひゃくにんちょうさんちょうめにしいせき","百人町三丁目西遺跡","新宿区 百人町三丁目 北新宿四丁目","[旧石器時代][縄文時代（草創期〜後期）][弥生時代（後期）][古墳時代][奈良時代][平安時代][近世]","包蔵地・集落","[旧石器時代]土坑 炉穴 土坑 石器・礫集中 [縄文時代]土坑 陥し穴 ピット [古墳時代]住居跡 井戸 土坑 ピット 掘立柱建物跡 土師器焼成坑 [平安時代]住居跡 土師器焼成坑 掘立柱建物跡 [古墳時代]〜[中世]住居跡・土坑 ピット [近世]畝跡 井戸 土坑 溝 ピット [弥生時代]〜[古墳時代]住居跡","礫 石器 縄文土器 弥生土器 土製品 石製品（砥石） ガラス小玉 土師器 須恵器 古墳土器 土師器 土製品（支脚） 鉄製品（刀子・鏃・鉄錐等） 墨書土器 灰釉陶器 磁器 陶器 近世土器 せっ器 金属製品 土製品 土器（台付甕・台付甕小・甕・壷・高杯）",139.6947029,35.70590669,TRUE
13104008000,13104,"80","にしわせださんちょうめいせき","西早稲田三丁目遺跡","新宿区 西早稲田三丁目 高田馬場二丁目","[旧石器時代][縄文時代（早期〜後期）][弥生時代（後期）][古墳時代][近世]","包蔵地・集落・屋敷","[旧石器時代]石器ブロック 礫群 [縄文時代]集石 集石土坑 住居跡 [弥生時代]竪穴住居跡 [弥生時代][古墳時代]住居跡 掘立柱建物跡 方形周溝墓 溝状遺構 土坑 [古墳時代]住居跡 掘立柱建物跡 土坑 竪穴式住居跡 [近世]地下室 溝状遺構 土坑","石器 礫 縄文土器 弥生土器 ガラス製品 壷棺 鉄釧 土師器 須恵器 土製品 石製品 鉄製品 古墳土器 磁器 陶器 金属製品 骨製品 木製品 せっ器 近世土器",139.7115907,35.71294957,TRUE
13104008400,13104,"84","すみよしちょうにしいせき","住吉町西遺跡","新宿区 住吉町 市谷台町 余丁町","[旧石器時代][縄文時代（中期）][近世]","包蔵地・屋敷","[縄文時代]陥し穴 柱穴 性格不明遺構 [近世]地下室 土坑 井戸 溝 建物跡 飛石 池 胞衣皿埋納遺構 半地下室 道路遺構 柱穴 小穴","石器 縄文土器 磁器 陶器 せっ器 近世土器 瓦 土製品 金属製品 木製品 骨角製品 ガラス製品 石製品",139.71763,35.69486265,TRUE
13104008500,13104,"85","おわりとくがわけしもやしきあといせき","尾張徳川家下屋敷跡","新宿区 戸山一丁目　 戸山二丁目　 戸山三丁目","[旧石器時代][縄文時代（早期〜後期）][弥生時代（後期）][古墳時代][奈良時代][平安時代][近世]","包蔵地・屋敷","[弥生時代]?[平安時代]畦畔状遺構　木道状遺構　流路跡　[中世][近世]水田跡　丸木橋状遺構　[近世]石組遺構　「御泉水」の土手　溝","石器　縄文土器　土器　須恵器　土師器　磁器　陶器　金属製品　銭貨等　磁器　陶器　金属製品　銭貨　木製品　煙管　板状部材　せっ器　近世土器　瓦",139.7134789,35.7040287,TRUE
13104008800,13104,"88","いちがやかがちょうにちょうめいせき","市谷加賀町二丁目遺跡","新宿区 市谷加賀町二丁目 市谷柳町","[旧石器時代][縄文時代（早期〜後期）][近世]","包蔵地・集落・屋敷","[縄文時代]土坑 柱穴 竪穴住居跡 竪穴状遺構 陥し穴 ピット 住居跡 [近世]地下室 土坑 井戸 溝 建物跡 塀跡 柱穴 ピット列 池状遺構 馬場跡 [古墳時代]土杭","黒曜石フレーク 縄文土器 礫 石器 土製品 磁器 陶器 せっ器 近世土器 瓦 土製品 金属製品 ガラス製品 石製品 古墳土器 骨角製品 ミニチュア",139.7285411,35.69747797,TRUE
13104009500,13104,"95","いちがやかがちょういっちょうめいせき","市谷加賀町一丁目遺跡","新宿区 市谷加賀町一丁目","[旧石器時代][縄文時代][近世]","包蔵地・屋敷","[縄文時代]陥し穴　[近世]地下室　井戸　溝　建物跡　杭列　土坑　胞衣皿埋納遺構","石器　磁器　陶器　せっ器　近世土器　瓦　金属製品　木製品　ガラス製品　石製品",139.7305838,35.69729674,TRUE
13104009600,13104,"96","いちがやさないちょういせき","市谷左内町遺跡","新宿区 市谷左内町 市谷鷹匠町","[旧石器時代][縄文時代][近世]","包蔵地・屋敷","[近世]地下室 井戸 建物跡 土坑","石器 磁器 陶器 せっ器 近世土器 瓦 金属製品 木製品 ガラス製品 石製品",139.73244,35.69481524,TRUE
13104010100,13104,"101","ぎょうがんじあと","行元寺跡","新宿区 神楽坂五丁目","[旧石器時代][縄文時代（早期〜後期）][弥生時代（後期）][古墳時代][平安時代][中世][近世]","包蔵地・社寺","[旧石器時代]礫群　[縄文時代]遺物集中部　[古墳時代]竪穴住居跡　[平安時代]竪穴住居跡　[中世]地点貝塚　[中世][近世]土壙墓　板碑集中壙　方形区画溝・溝状遺構　建物跡　竹樋　地下室・室状遺構　井戸・井戸状遺構　水溜状遺構　池跡?　ごみ穴　方形土坑　石列　埋桶　埋甕　胞衣埋納遺構　胎児埋葬遺構　イヌ埋葬遺構","石器　礫　縄文土器　石器　弥生土器　土師器　須恵器　磁器　陶器　せっ器　土器　瓦　土製品　金属製品　木製品　骨角製品　ガラス製品　石製品（板碑等）",139.7391693,35.70264002,TRUE
13104010300,13104,"103","きくいちょういせき","喜久井町遺跡","新宿区 喜久井町","[旧石器時代][縄文時代（中期〜後期）][奈良時代][平安時代][近世]","包蔵地・集落・屋敷","[縄文時代]ピット　遺物集中域　[縄文中期]竪穴住居跡　土坑　[縄文後期]竪穴住居跡　土坑　[奈良時代]竪穴住居跡　[平安時代]土坑　[近世]地下室　ウマ埋葬遺構　溝状遺構　道路状遺構　土坑　便所跡　礎石　小穴","縄文土器　石器　須恵器　土師器　須恵器　磁器　陶器　近世土器　せっ器　瓦　土製品　金属製品　木製品　ガラス製品　石製品",139.7218033,35.70478144,TRUE
13104010700,13104,"107","きたしんじゅくにちょうめいせき","北新宿二丁目遺跡","新宿区 北新宿一丁目 北新宿二丁目","[旧石器時代][縄文時代（早期〜後期）][弥生時代（後期）][古墳時代]","包蔵地・集落","[旧石器時代]礫群 石器集中部 [縄文時代]炉穴 埋甕 土坑 竪穴住居跡 柱穴 根穴 [弥生時代]竪穴住居跡 炉穴 柱穴 土坑 方形周溝墓 溝跡 住居跡 [弥生〜古墳時代]竪穴住居跡 掘立柱建物跡 [古墳時代]竪穴住居跡 [近世]柱穴","ナイフ形石器 石核 剥片 石器 自然遺物 縄文土器 石器 弥生土器 土製品 石製品（砥石） 銅製品（銅釧） 土師器 磁器 陶器 せっ器 土器 瓦 金属製品 ガラス玉 銭貨",139.6900837,35.70114116,TRUE
13104011000,13104,"110","みずのはらいせき","水野原遺跡","新宿区 若松町","[旧石器時代][縄文時代（早期〜後期][近世]","包蔵地・屋敷","[近世]地下室 井戸 建物跡 大甕埋設遺構 桶埋設遺構 胞衣埋納遺構 溝状遺構 柵・柱穴列 瓦溜り 畝状遺構 耕作関連遺構 盛土状遺構 土坑 小穴 ごみ穴 道路 溝 柱穴 建物基礎 小穴列 礎石跡 ピット列 焼土跡 雛壇状の段切り [縄文時代]土器埋設土坑","縄文土器 磁器 陶器 せっ器 近世土器 瓦 土製品 金属製品 木製品 ガラス製品 石製品 骨角製品 銭貨 煉瓦 土管",139.7204484,35.69892663,TRUE
13104011600,13104,"116","なかおちあいにちょうめいせき","中落合二丁目遺跡","新宿区 中落合二丁目","[旧石器時代][縄文時代（早期）]","包蔵地","","石器　縄文土器　弥生土器　磁器　陶器",139.6929396,35.71817019,TRUE
13104014100,13104,"141","しょっこうざんいせき","蜀江山遺跡","新宿区 北新宿一丁目","[旧石器時代][近世]","包蔵地","[旧石器時代]土坑　[近世?]道路　建物","ナイフ形石器　敲石　磨石　鋸歯縁石器　彫器　調整器　CRF　RF　UF　石核　剥片　焼礫",139.6918346,35.69893859,TRUE
13104015800,13104,"158","しもおちあいにちょうめいせき","下落合二丁目遺跡","新宿区 下落合二丁目","[旧石器時代][縄文時代][弥生時代][古墳時代]","包蔵地","","",139.7039383,35.71780997,TRUE
13105000700,13105,"7","こひなたにちょうめひがしいせき","小日向二丁目東遺跡","文京区 小日向二丁目","[旧石器時代][縄文時代][古墳時代][近世]","包蔵地・集落・屋敷","[古墳時代]竪穴建物跡　[近世]地下室・土坑・大型土坑・植栽痕・ピッ","(旧石器)石器　(縄文)土器　打斧　石鏃　(古墳)土師器　(近世)磁器・陶器・炻器・土器・互・土製品・金属製品・石製品・自然遺物",139.7354517,35.71342103,TRUE
13105001400,13105,"14","どうざかいせき","動坂遺跡","文京区 本駒込三丁目　本駒込四丁目","[旧石器時代][縄文時代（中期〜晩期）][弥生時代][近世]","包蔵地・集落・貝塚・屋敷","[縄文時代]貝塚　堅穴住居跡　集石跡　土坑　溝　[近世]地下室　溝　柱穴","（縄文）土器・石器（打製石器・磨製石器・石鏃・石皿・）　（弥生）土器　（近世）陶磁器・土器・瓦・金属製品・土製品・石製品など",139.7560854,35.72972681,TRUE
13105002100,13105,"21","こいしかわしょくぶつえんないかいづか・はらまちいせき","小石川植物園内貝塚・原町遺跡","文京区 白山三丁目　白山四丁目","[旧石器時代][縄文時代（中期〜晩期）][近世]","包蔵地・集落・貝塚・屋敷跡","[縄文時代]竪穴住居跡　土坑　集石　ピット　[近世]土坑　地下室　ピット　地下坑　井戸　溝　塀跡　かわらけ廃棄遺構","(旧石器)石器　(縄文)土器　石器（打斧　磨斧　石槍　石鏃　石匙　石皿　凹石　石棒　石剣）　土偶　(近世)陶磁器　土器　土製品　瓦　金属製品　石製品　銭貨　動物遺体　自然遺物",139.7455797,35.7204176,TRUE
13105002500,13105,"25","せんだぎかいづか","千駄木貝塚","文京区 千駄木一丁目","[旧石器時代][縄文時代][弥生時代（後期）][近世]","集落・貝塚・その他の墓・屋敷","[縄文時代]炉　土坑　住居　集石　炉　廃屋跡　[弥生時代]住居","（縄文）土器・石器・石製品・人骨　（弥生）土器　（近）陶磁器",139.758987,35.722748,TRUE
13105002600,13105,"26","はやしちょういせき","林町遺跡","文京区 千石二丁目","[旧石器時代][縄文時代（中期）][弥生時代][奈良時代][近世]","包蔵地・集落・屋敷","[縄文時代]炉穴 土坑 ピット　[近世]地下室 地下坑 井戸 溝状遺構 土坑 植栽痕 柱穴ピット","（旧石器）石器（剥片）（縄文）縄文土器・石器　（弥生）弥生土器　（近世）陶磁器類・せっ器・土器・土製品・木製品・金属製品・石製品",139.7412882,35.72300979,TRUE
13105003300,13105,"33","ゆみちょういせき","弓町遺跡","文京区 本郷一丁目","[旧石器時代][縄文時代][弥生時代（後期）][奈良時代][平安時代][中世][近世]","包蔵地・集落・屋敷","[奈良時代]堅穴住居　[近世]地下室　井戸　土坑","縄文土器・敲石　土器・陶磁器・金属器　（奈良）土師器・須恵器　（近世）陶磁器・土器",139.7564631,35.70617294,TRUE
13105004700,13105,"47","ほんごうだいいせきぐん","本郷台遺跡群","文京区 本郷五丁目　本郷七丁目　弥生二丁目","[旧石器時代][縄文時代][弥生時代][古墳時代][平安時代][近世]","包蔵地・集落・貝塚・その他の墓・社寺・屋敷・その他（町屋）","[旧石器時代]石器ブロック　礫群　[縄文時代]遺物集中部　陥穴　[古墳時代]住居跡　[平安時代]住居跡　井戸　[近（近世）]地下式坑　建物跡　組石遺構　土坑　溝　庭園址　井戸　道路状遺構など","（旧石器）ナイフ形石器・石核・剥片・石屑　砕片　（縄文）土器・石器　（弥生）土器　（古墳）土師器・土製品・須恵器　（奈良）土師器・須恵器　（平安）土師器・須恵器・灰釉陶器・緑釉陶器・土錘　（近世）陶磁器・土器・瓦・土製品・石製品・金属製品・古銭・骨角製品・動物遺存体・せっ器・瓦器・ガラス製品・木製品",139.7634819,35.71205684,TRUE
13105004800,13105,"48","かすがちょう（こいしかわこうらくえん）いせき","春日町（小石川後楽園）遺跡","文京区 後楽一丁目　 春日一丁目","[旧石器時代][縄文時代][弥生時代][古墳時代][平安時代][近世]","包蔵地・集落・屋敷","[弥生～古墳]竪穴建物跡、土坑、ピット、[近世]井戸、道路、木樋、柱穴、上水道、土坑、屋敷跡、地下室、溝、礎石、植栽痕、[近代]煉瓦基礎、堀、石垣、[近代以降]高射砲陣地関連以降","[旧石器]ナイフ形石器、[縄文]土器、[弥生]土器、石器、[古墳～平安]土師器、須恵器、[近世]磁器、陶器、土器、瓦、木製品、金属製品、ガラス製品、石製品、漆製品、銭貨動物遺存体、[近代]煉瓦",139.7507982,35.70558749,TRUE
13105005000,13105,"50","","文京区No.50遺跡","文京区 春日一丁目","[旧石器時代][弥生時代（後期）][近世]","包蔵地・屋敷・その他（町屋）","[近世]井戸跡　地下室　土坑　ピット　胞衣皿埋納遺構　植栽痕　井戸","（旧石器）石器　（弥生）土器　（近世）陶磁器・土器・瓦・金属製品など",139.7468157,35.70915589,TRUE
13105005100,13105,"51","まさごちょう（まさご）いせき","真砂町（真砂）遺跡","文京区 本郷四丁目","[旧石器時代][縄文時代（早期〜後期）][弥生時代][古墳時代][奈良時代][平安時代][中世][近世]","集落・屋敷","[縄文時代]炉穴　[奈良平安時代]住居跡　柱穴　土坑　[近世]上水道　井戸　地下室","縄文土器　土師器　須恵器　陶磁器類",139.7560167,35.70843107,TRUE
13105005600,13105,"56","こまごめあさかまちいせき","駒込浅嘉町遺跡","文京区 本駒込一丁目　本駒込三丁目","[旧石器時代][縄文時代][近世]","包蔵地・屋敷・その他（町屋・道路跡）","[縄文]柱穴　[近世]土坑　井戸　道路跡　地下室","（縄文）土器　（近世）近世陶磁器・瓦・金属器・木製品・陶磁器・土器",139.7536135,35.72515596,TRUE
13105005900,13105,"59","かごまちいせき","駕籠町遺跡","文京区 本駒込二丁目","[旧石器時代][縄文時代][奈良時代][平安時代][近世]","包蔵地・集落・屋敷","[旧石器時代]石器ユニット 礫群　[縄文時代]陥穴 竪穴住居跡 土坑 小穴　[奈良・平安時代]竪穴住居跡　[近世]溝状遺構 土坑 井戸 土採り・切土跡 盛土造成跡 ピット 柱穴列 小穴 地下室 植栽痕","（旧石器時代）石器　(縄文時代)縄文土器 石器　(古代〜中世)須恵器　（近世）陶磁器 せっ器 土器 土製品 木製品 銭貨 金属製品 石製品 ガラス製品 瓦 自然遺物 土類 生産関連遺物 その他",139.7475023,35.730117,TRUE
13105007300,13105,"73","こひなただいまちみなみいせき","小日向台町南遺跡","文京区 小日向一丁目","[旧石器時代][縄文時代][弥生時代][奈良時代][中世][近世]","包蔵地・集落・屋敷","[縄文時代]陥穴　[弥生時代]竪穴住居跡　[奈良時代]竪穴住居跡　[中世]井戸 土坑墓　[近世]地下室 井戸","(旧石器)石器　(縄文)土器　(弥生)土器　(奈良)土師器 須恵器　(近世)陶磁器 土器",139.7361727,35.71261262,TRUE
13105008200,13105,"82","こまごめにしかたまちいせき","駒込西片町遺跡","文京区 西片二丁目","[旧石器時代][縄文時代][近世]","包蔵地・屋敷","地下室　井戸　柱穴","石器　縄文土器　陶磁器類",139.7555364,35.7175709,TRUE
13105009302,13105,"93-2","としまがおかぼちだい2ちてん","豊島岡墓地第2地点","文京区 大塚五丁目","[旧石器時代][近世]","包蔵地・屋敷","[近世]溝　柱穴","ナイフ形石器　陶磁器　かわらけ　瓦　寛永通宝",139.7265597,35.72390171,TRUE
13105009700,13105,"97","だんござかうえいせき","団子坂上遺跡","文京区 千駄木一丁目　千駄木三丁目　千駄木五丁目","[旧石器時代][縄文時代（中期）][弥生時代（中期）][平安時代][近世]","包蔵地・集落・社寺・屋敷・その他（町屋）","[旧石器時代]遺物集中部　[縄文時代]堅穴住居跡　土坑　溝　埋甕　[弥生時代]堅穴住居跡　溝　溝状遺構　環濠　[平安]竪穴住居跡　溝　[近世]地下室　土坑　礎石　大型土坑　ピット　[近世以降]版築基礎建物跡　掘立柱建物跡　礎石　地下室　土坑　ピット群","（旧石器）ナイフ形石器・石核　（縄文）土器・土製品・石器・炉石　（弥生）土器・石器　（平安）土師器・須恵器・鉄製品・鉄滓　（近世）陶磁器・せっ器・土器・瓦・土製品・銅製品・鉄製品・貝・金属製品・木製品・石製品など",139.7612503,35.72554791,TRUE
13105010300,13105,"103","ほんごういっちょうめみなみいせき","本郷一丁目南遺跡","文京区 本郷一丁目","[旧石器時代][縄文時代][弥生時代][古墳時代][奈良時代][平安時代][近世]","包蔵地・集落・屋敷","[縄文時代]住居　[弥生時代]住居　[古墳時代]住居　[近世]地下室　溝　井戸","石器　縄文土器　弥生土器　須恵器　土師器　近世陶磁器",139.7564974,35.70341292,TRUE
13105011400,13105,"114","めじろだいいっちょうめいせき","目白台一丁目遺跡","文京区 目白台一丁目","[旧石器時代][縄文時代][近世]","包蔵地・屋敷","[縄文時代]陥穴　[近世]性格不明遺構　ピット　地下室　土坑","（旧石器）剥片　（縄文）焼石　（近世）陶磁器・土器・瓦・石製品など",139.7197962,35.71565108,TRUE
13105011500,13105,"115","かすがにちょうめにしいせき","春日二丁目西遺跡","文京区 春日二丁目","[旧石器時代][縄文時代][弥生時代][古墳時代][奈良時代][中世][近世]","包蔵地・集落・屋敷","[旧石器時代]遺物集中部　[縄文時代]炉穴　集石　陥穴　土坑　[弥生時代]土坑　[古墳時代]土坑　[中世]溝　道路状遺構（溝）　土塁状盛土　[近世]谷埋立造成　土手状遺構　溝　砂利敷き　井戸　礎石　礎石跡　地下室　土坑","（旧石器）剥片　（縄文）土器・石製装身具　（弥生）土器　（古墳〜古代）土師器・須恵器　（中世）陶磁器・土器・板碑・銭貨　（近世以降）陶磁器・土器・土製品・金属製品・銭貨・石製品・瓦・ガラス製品",139.7410479,35.71146969,TRUE
13105012600,13105,"126","こいしかわしょくぶつえんみなみいせき","小石川植物園南遺跡","文京区 白山三丁目","[旧石器時代][縄文時代][弥生時代][中世][近世]","包蔵地","[近世]地下室　土取り穴　土坑　井戸　溝状遺構","石器　縄文土器　弥生土器　陶器　磁器　近世土器　土製品　瓦　金属製品　石製品",139.747262,35.71802044,TRUE
13105013700,13105,"137","めじろだいさんちょうめいせき","目白台三丁目遺跡","文京区 目白台三丁目","[旧石器時代][奈良時代][平安時代][近世]","包蔵地・集落跡","[奈良・平安時代]竪穴住居跡　土坑　ピット　[近世]溝跡　ピット　植栽痕","(旧石器)ナイフ形石器　(奈良・平安)土師器　(近世)陶磁器",139.725439,35.71731896,TRUE
13106000401,13106,"04-1","うえのしのぶがおかいせきぐん","上野忍岡遺跡群","台東区 上野公園　上野二丁目　池之端三丁目","[旧石器時代][縄文時代（早期〜晩期）][弥生時代（後期）][古墳時代][奈良時代][平安時代][中世][近世][近代]","包蔵地・集落・社寺・屋敷・その他の墓・その他（花卉園）","[近世]建物跡　池跡","ナイフ形石器　細石刃　剥片　縄文土器　石器　弥生土器　土師器　須恵器　埴輪　陶器（灰釉）　紡錘車　帯金具　陶磁器　焼塩壺　硯　煙管　木製品　和釘　ガラス製品　瓦塔　瓦　墨書付絹布　簪　笄　数珠玉　小形巻物　甕棺　木棺　墓石　石造物　板碑　人骨",139.7736828,35.71547164,TRUE
13106000405,13106,"04-5","うえのしのぶがおかいせきぐん","上野忍岡遺跡群","台東区 上野桜木一丁目","[旧石器時代][縄文時代][古墳時代][奈良時代][平安時代][中世][近世]","包蔵地・集落・貝塚・社寺","[旧石器時代]〜[中世]礫群　陥穴　ピット群　土杭　貝塚　[近世]地下式土杭　井戸　溝　瓦留　墓杭","縄文〜古代土器　近世陶磁器瓦・石造物　旧石器〜中世礫・縄文土器・土師器・須恵器・陶器・土器　近世陶磁器・土器類・人骨",139.7701043,35.72060734,TRUE
13106000408,13106,"04-8","うえのしのぶがおかいせきぐん","上野忍岡遺跡群","台東区 上野桜木一丁目","[旧石器時代][縄文時代][弥生時代][古墳時代][奈良時代][平安時代][中世][近世]","包蔵地・集落・社寺","","旧石器時代石器　古墳時代　土師器・石製品（玉類他）　奈良・平安時代　土師器・須恵器　中世陶磁器　近世陶磁器・瓦",139.7754773,35.72326921,TRUE
13106003900,13106,"39","やなかさんさきちょういせき","谷中三崎町遺跡","台東区 谷中二丁目　谷中三丁目　谷中四丁目　谷中五丁目　谷中六丁目","[旧石器時代][縄文時代（前期〜中期）][古墳時代][奈良時代][平安時代][近世]","包蔵地・集落・社寺・その他（町屋）","[近世]井戸跡　地下式抗　溝　墓坑地下式抗　[縄文時代]土坑","（旧石器）石器　（縄文）土器　（古墳）土師器　（近世）陶磁器・土器・瓦・木製品・金属製品・ガラス製品・石製品　甕棺・蔵骨器",139.767174,35.72375373,TRUE
13110000100,13110,"1","とうきょうだいがくこまばこうないいせき","東京大学駒場構内遺跡","目黒区 駒場三丁目","[旧石器時代][縄文時代（草創期〜早期・中期・晩期）][平安時代][近世]","集落","[旧石器時代]礫群　[縄文時代]住居　集石　　炉穴　土坑　小穴[平安時代]火葬墓　[近世]土坑　小穴","縄文土器　打製石斧　剥片　平安時代土器",139.6851627,35.66038101,TRUE
13110000200,13110,"2","こまばいせき","駒場遺跡","目黒区 駒場二丁目　駒場四丁目","[旧石器時代][縄文時代（早期〜後期）]","包蔵地","[縄文時代]土坑","縄文土器　打斧　石鏃　石皿",139.6804591,35.65884679,TRUE
13110000300,13110,"3","ひかわいせき","氷川遺跡","目黒区 大橋二丁目","［旧石器時代］[縄文時代（早期〜後期）][弥生時代（前期〜後期）][古墳時代][奈良時代][平安時代][中世][近世]［近代］","集落 その他（軍施設）","[縄文時代]土坑　小穴　炉穴　陥穴　[弥生時代〜古墳時代]竪穴住居跡　堀立柱建物跡　土坑　小穴　[平安時代]火葬墓　溝　[近世]溝　土坑　小穴　［近代］煉瓦構造物","縄文土器　剥片　打製石斧　石鏃　スタンプ形石器　磨石　石皿　弥生土器　弥生時代末〜古墳時代初期土器　金属製品　土製品　奈良時代須恵器　平安時代土器　瓦　板状鉄製品　中近世陶磁器　釘　鎹　銭貨　近代陶磁器　ガラス製品　金属製品　銭貨　?　煉瓦",139.6875316,35.65337917,TRUE
13110000800,13110,"8","ひがしやまかいづかいせき","東山貝塚遺跡","目黒区 東山二丁目　東山三丁目","[旧石器時代][縄文時代（早期〜晩期）][弥生時代（後期）][古墳時代][平安時代][中世][近世][近代]","集落　貝塚　その他（軍施設）","[旧石器時代]礫群　石器ブロック　[縄文時代]竪穴住居跡　土坑　土壙　土器埋設遺構　落し穴　木杭列　植物遺存体集中　小穴　柱穴群　[弥生時代]竪穴住居跡　溝　土坑　[古墳時代]土坑　[中世]溝　[近世]溝　土坑　［近代］地下式遺構　煉瓦構造物　溝","縄文土器　土偶　土製円盤　土器片錘　打製石斧　磨製石斧　弥生土器　古墳時代土器　陶磁器　細石刃　尖頭器　剥片　角錐状石器　削器　石鏃　敲石　石皿　垂飾　掻器　凹石　磨石　砥石　スタンプ形石器　石剣　石錐　石棒　土版　土製勾玉　耳栓　土錘　土玉　弭形角製品　ヤス状刺突具　骨針　浮子 （平安時代）　瓦　（近代）陶磁器　ガラス製品　鉄製品",139.6866739,35.64782322,TRUE
13110001000,13110,"10","じんじゃうらいせき","神社裏遺跡","目黒区 上目黒三丁目","[旧石器時代]","包蔵地","","尖頭器",139.6939866,35.64352667,TRUE
13110001500,13110,"15","なかめぐろいせき","中目黒遺跡","目黒区 中目黒四丁目　中目黒五丁目　目黒三丁目","[旧石器時代][縄文時代（早期〜後期）][中世][近世]","集落","[旧石器時代]礫群　石器群　石器ブロック　[縄文時代]住居　土坑[近世]溝状遺構　畝状遺構　落とし穴状遺構","ナイフ形石器　尖頭器　角錐状石器　掻器　剥片　縄文土器　打斧　礫器　石鏃　石槌　石皿　スタンプ形石器　敲石　煙管　磨石　火打石　土器片錘　陶磁器　土製円盤　瓦　石刃　凹石　磨製石斧",139.7015397,35.63607692,TRUE
13110003200,13110,"32","かんななどおりいせき","環七通り遺跡","目黒区 柿の木坂二丁目","[旧石器時代]","包蔵地","","掻器",139.6772433,35.62602431,TRUE
13110003300,13110,"33","とうこうじうらやまいせき","東光寺裏山遺跡","目黒区 八雲一丁目","[旧石器時代][縄文時代（草創期〜後期）][平安時代][中世][近世]","集落","[縄文時代]土坑　落とし穴　焼土　[平安時代]住居　火葬墓　[中世][近世]土坑　溝　井戸　道路状遺構","縄文土器　打斧　石鏃　石皿　土師器　須恵器　カワラケ　板碑　陶磁器　煙管　銭貨　瓦質陶製印板　尖頭器　ナイフ形石器　掻器　剥片　スタンプ形石器　磨石　敲石",139.6726427,35.62084051,TRUE
13110004700,13110,"47","おおはしいせき","大橋遺跡","目黒区 大橋二丁目","[旧石器時代][縄文時代（草創期〜晩期）][弥生時代（後期）][古墳時代][平安時代][中世][近世][近代]","集落　その他（軍施設）","[旧石器時代]石器集中　礫集中部　[縄文時代]住居　集石　炉穴　土坑　小穴　埋甕　土器敷き遺構　[弥生時代][古墳時代]住居　[平安時代]火葬墓　[中世]土坑　[近世]溝　小穴　[近代]煉瓦構造物","ナイフ形石器　角錐状石器　剥片　礫器　縄文土器　打斧　磨斧　耳栓　有舌尖頭器　石鏃　掻器　石匙　石皿　石棒　磨石　敲石　土製円盤　けつ状耳飾　土偶　弥生土器　陶磁器　銭貨　彫刻刀形石器　管状土錘　土師器　中世土器　瓦　（近世）陶磁器　金属製品　銭貨　(近代)陶磁器　金属製品　ガラス製品　煉瓦",139.684373,35.65446715,TRUE
13110005000,13110,"50","ちゃやざかいせき","茶屋坂遺跡","目黒区 中目黒二丁目","[旧石器時代][近世][近代]","包蔵地・その他（用水　軍施設）","[旧石器時代]礫群　[近世]用水遺構　[近代]用水遺構　煉瓦構造物","ナイフ形石器　陶磁器　鉄釘　煙管　泥面子　銭貨　[近代]磁器　煉瓦",139.705872,35.640827,TRUE
13110005100,13110,"51","えびすいせき","恵比寿遺跡","目黒区 三田一丁目","[旧石器時代][縄文時代（前期〜後期）][弥生時代（後期）][近世]","集落","[弥生時代]住居　[近世]溝状遺構","ナイフ形石器　角錐状石器　剥片　縄文土器　弥生土器　陶磁器",139.713776,35.640392,TRUE
13110005300,13110,"53","かわらけづかいせき","土器塚遺跡","目黒区 大橋二丁目　駒場一丁目　駒場二丁目","[旧石器時代][縄文時代（中期）][弥生時代（後期）][近世][近代]","集落　その他（軍施設）","[縄文時代]土坑　落とし穴　小穴　焼土　[弥生時代]住居　掘立柱建物跡　環濠　道路状遺構　[近世]土壙　溝状遺構　小穴　区画溝　土坑・柱穴列　[近代]煉瓦構造物　地下式遺構","[旧石器時代]石刃　ナイフ形石器　剥片 [縄文時代]縄文土器　打製石斧　土器片錘　石鏃　スタンプ形石器　石錘 [弥生時代]弥生土器　土製品　砥石　土製品　石鏃　双角有孔土製品　土製勾玉　土玉　ガラス小玉　炭化種子 [近世]陶磁器　火打ち石 [近代]陶磁器　ガラス製品　金属製品　銭貨",139.6816957,35.65566243,TRUE
13110005400,13110,"54","はちやまちょう・さるがくちょう17ばんいせき","鉢山町・猿楽町17番遺跡","目黒区 青葉台一丁目","[旧石器時代][縄文時代（早期〜中期・晩期）][弥生時代（後期）][近世]","集落","[旧石器時代]石器集中部　 [縄文時代]住居　土坑　小穴　集石　 [弥生時代]住居　環濠　小穴　 [近世]溝","掻器　ナイフ形石器　角錐状石器　尖頭器　抉入石器　剥片　縄文土器　石鏃　打製石斧　スタンプ形石器　磨石　石皿　弥生土器　土師器　陶磁器　煙管　銭貨",139.6977975,35.64944134,TRUE
13111005700,13111,"57","ゆきがやかいづか","雪ヶ谷貝塚","大田区 南雪谷二丁目　 南雪谷三丁目　 南雪谷四丁目　 南雪谷五丁目","[旧石器時代][縄文時代（早期〜前期）][弥生時代（後期）][古墳時代][平安時代]","集落・貝塚・その他の墓","","縄文土器　縄文石器　石鏃　石槍　弥生土器",139.6844687,35.58976951,TRUE
13111006700,13111,"67","おおたに・しもたにいせき","大谷・下谷遺跡","大田区 西馬込二丁目　 仲池上一丁目","[旧石器時代][縄文時代（前期〜中期）]","集落","[旧石器時代]礫群　[縄文時代]住居　竪穴状遺構　土坑","剥片　焼礫　縄文土器　石器　土製品　土錘",139.7014033,35.58769331,TRUE
13111009001,13111,"90-1","こうみょうじいせき","光明寺遺跡","大田区 鵜の木一丁目","[旧石器時代][縄文時代（早期）][弥生時代][古墳時代][奈良時代][中世][近世]","集落・その他（墓地）","[旧石器時代]石器集中　礫群　[縄文時代]陥し穴　[弥生時代]住居　方形周溝墓　[中世][近世]竪穴状遺構　墓地　集石土坑　集石","石器　礫　縄文土器　弥生土器　陶磁器　蔵骨器　板碑",139.684314,35.57385397,TRUE
13112000100,13112,"1","からすやまいせき","烏山遺跡","世田谷区 北烏山六丁目　 北烏山七丁目　 北烏山八丁目　 北烏山九丁目","[旧石器時代][縄文時代（早期〜後期）][古墳時代][奈良時代][平安時代][近世]","集落","ピット　陥穴　円形土坑　溝　畝　道路","縄文土器　石器　土師器　石墨　陶磁器　銭貨　煙管",139.59153,35.67412332,TRUE
13112000300,13112,"3","そしがやおおみちきたいせき","祖師谷大道北遺跡","世田谷区 上祖師谷六丁目　上祖師谷七丁目　給田一丁目","[旧石器時代][縄文時代（中期〜後期）][弥生時代（後期）][古墳時代][奈良時代][平安時代][中世][近世]","集落","[旧石器時代]ブロック　[縄文時代]住居　竪穴　[古墳時代]住居　[中世][近世]井戸　地下式土坑　[時期不明]ピット　溝","ナイフ形石器　削器　縄文土器　石器　土師器　鉄鏃　陶器　カワラケ　土師質土器　羽釜　内耳鍋　鉄片　石臼　板碑　漆器　桶",139.596436,35.659981,TRUE
13112000500,13112,"5","めぐりさわきたいせき","廻沢北遺跡","世田谷区 船橋七丁目　 千歳台四丁目","[旧石器時代][縄文時代（早期〜後期）][近世]","集落","[旧石器時代]ブロック　[縄文時代]住居　集石土坑　土坑　土壙　[近世]溝","ナイフ形石器　尖頭器　細石刃　細石刃核　掻器　削器　彫器　錐　斧形石器　敲石　石核　縄文土器　土製品　陶磁器　和釘　玩具",139.6152536,35.65838154,TRUE
13112000900,13112,"9","きぬたちゅうがっこういせき","砧中学校遺跡","世田谷区 成城一丁目　 成城三丁目","[旧石器時代][縄文時代（早期〜晩期）][弥生時代][古墳時代][平安時代][近世]","集落","[縄文時代]住居址　土坑　集石　ピット　礫群　[弥生時代]住居址　[古墳時代]住居址　古墳周溝　[古（以降）]集石土坑　土坑　ピット　溝　[近世]竪穴　土坑　ピット　溝","（縄文）縄文土器・石器　（弥生）土器、　（古墳）土師器・須恵器・石器・刀子　（近世）陶器",139.6006734,35.63379948,TRUE
13112001800,13112,"18","しものしんめいいせき","下神明遺跡","世田谷区 成城一丁目　成城三丁目","[旧石器時代][縄文時代（早期・中期〜後期）][弥生時代][古墳時代][奈良時代][平安時代][中世][近世]","集落","[旧石器時代]ブロック　ブロック　礫群　[縄文時代]土坑　ピット　土坑　[古墳時代]住居址　[平安時代]住居址　[近世]溝　土坑　ピット　溝","（旧石器）石器・剥片　（縄文）縄文土器・石器　（古墳）土師器・石器　（平安）土師器・須恵器・砥石　（近世）煙管",139.5990011,35.63509307,TRUE
13112001900,13112,"19","かみのしんめいいせき","上神明遺跡","世田谷区 成城四丁目　 成城五丁目","[旧石器時代][縄文時代（早期〜晩期）][弥生時代][古墳時代][平安時代][中世][近世]","集落","[縄文時代]住居　土坑　[弥生時代][古墳時代]住居　ピット群　方形周溝墓","石器　縄文土器　弥生土器　土師器　須恵器　鉄製品　土製品",139.5923661,35.6414265,TRUE
13112002300,13112,"23","みやのはらいせき","宮之原遺跡","世田谷区 喜多見四丁目","[旧石器時代][縄文時代（早期〜中期）][古墳時代][奈良時代][平安時代][近世]","集落","[縄文時代]集石　[弥生時代]住居　[古墳時代]住居","縄文土器　石器　弥生土器　土師器　須恵器　灰釉陶器　鉄鏃　刀子　鉄製農工具　土師質土器　瓦　砥石　土器片錘　土錘",139.5935426,35.62879711,TRUE
13112004500,13112,"45","にしやとおうけつぼぐん・にしやといせき","西谷戸横穴墓群・西谷戸遺跡","世田谷区 大蔵四丁目　 岡本三丁目","[旧石器時代][古墳時代][奈良時代][平安時代]","集落・横穴墓","[旧石器時代]ブロック　礫群　[古墳時代]33基　[奈良〜平安時代]住居","縄文土器　弥生土器　土師器　須恵器　石器　鉄鏃　直刀　刀子　装飾品（玉類他）",139.611984,35.63039,TRUE
13112004800,13112,"48","うえのだいいせき","上之台遺跡","世田谷区 砧八丁目　 祖師谷三丁目","[旧石器時代][縄文時代（早期〜中期）][弥生時代（後期）][古墳時代][奈良時代][中世]","集落","[縄文時代]住居　集石　集石土坑　土坑　[古墳時代]住居　[時期不明]溝　段状遺溝","石器　縄文土器　石器　焼礫　弥生土器　土師器　須恵器　鉄鏃　鉄製品　青銅製品　泥人形",139.6035552,35.64107284,TRUE
13112005200,13112,"52","どうがやといせき","堂ヶ谷戸遺跡","世田谷区 岡本一丁目　 岡本二丁目　 岡本三丁目","[旧石器時代][縄文時代（早期〜晩期）][弥生時代（後期）][古墳時代][奈良時代][平安時代][中世][近世]","集落","[縄文時代]住居　集石　集石土坑　土坑　ピット　[弥生時代][古墳時代][奈良時代][平安時代]住居　竪穴　[近世]溝","石器　縄文土器　弥生土器　土製品　土師器　須恵器　鉄製品　銅鏃　玉類　陶磁器　砥石　煙管",139.6176809,35.62386155,TRUE
13112005800,13112,"58","むかいやまいせき","向山遺跡","世田谷区 桜上水三丁目","[旧石器時代][縄文時代（中期）][中世][近世]","集落","[縄文時代]住居　竪穴　土坑　ピット　[中世]井戸　溝","",139.6340721,35.66073805,TRUE
13112006300,13112,"63","あかつつみなかどおりいせき","赤堤中通遺跡","世田谷区 赤堤三丁目","[旧石器時代]","包蔵地","","石器",139.6369526,35.65846452,TRUE
13112006400,13112,"64","まえやといせき・あかつつみじんやあと","前谷戸遺跡・赤堤陣屋跡","世田谷区 赤堤一丁目　 赤堤二丁目　 豪徳寺一丁目","[旧石器時代][縄文時代（中期）][弥生時代][近世]","包蔵地・その他（陣屋）","","石器　縄文土器　弥生土器",139.646085,35.65595391,TRUE
13112007000,13112,"70","ねづやまいせき","根津山遺跡","世田谷区 代田四丁目 松原六丁目","[旧石器時代][縄文時代（草創期〜中期）][近世]","集落","","",139.6555,35.65914,TRUE
13112008600,13112,"86","さくらぎいせき","桜木遺跡","世田谷区 桜一丁目","[旧石器時代][縄文時代（早期〜後期）][弥生時代（中期）][古墳時代][平安][その他（近代）]","集落","","縄文土器 石器 貝斧",139.6412,35.64488,TRUE
13112009600,13112,"96","じゃくずれいせき","蛇崩遺跡","世田谷区 下馬一丁目 池尻一丁目","[旧石器時代][縄文時代（早期〜中期）][近世]","集落","[縄文時代]住居 集石 屋外炉 炉穴 土坑 [近世]溝","縄文土器 打斧 磨斧 土錘 土偶 土製品 陶磁器 銭貨",139.6846,35.6413,TRUE
13112010500,13112,"105","せたいせき・せたじょうせき","瀬田遺跡・瀬田城跡","世田谷区 瀬田一丁目 瀬田二丁目","[旧石器時代][縄文時代（早期〜後期）][弥生時代（後期）][古墳時代][奈良時代][平安時代][中世][近世]","集落・城館","[旧石器時代]ブロック 礫群 [縄文時代]住居 土坑 ピット [弥生時代〜古墳時代]住居 [奈良〜平安時代]住居 [近世]ピット 土坑 井戸 溝 配石","石器 縄文土器 石器 礫 けつ状耳飾 弥生土器 土師器 須恵器 陶器 灰釉陶器 土製品 陶磁器",139.6318,35.61599,TRUE
13112010700,13112,"107","しもやまいせき","下山遺跡","世田谷区 瀬田四丁目 瀬田五丁目","[旧石器時代][縄文時代（早期〜晩期）][弥生時代（後期）][古墳時代][奈良時代][平安時代][中世][近世]","集落","[旧石器時代]ブロック 礫群 [縄文時代]住居 集石 炉穴 土坑 ピット [弥生時代]環濠 住居 方形周溝墓 墓壙 甕棺 溝状遺構 [古墳時代]住居 円形周溝墓 [奈良時代][平安時代]住居","ナイフ形石器 尖頭器 礫器 縄文土器 打斧 石鏃 土錘 けつ状耳飾 弥生土器 抉入石斧 石包丁 石皿 土師器 須恵器 土製紡錘車 土製勾玉 ソロバン玉状土製品 石櫃 陶磁器 カワラケ 瓦質土器 煙管 銭貨",139.6244,35.62158,TRUE
13112011200,13112,"112","しもやまきたいせき","下山北遺跡","世田谷区 岡本一丁目","[旧石器時代][縄文時代（早期〜前期）][弥生時代][古墳時代][中世][近世]","集落","[旧石器時代]ブロック [縄文時代]住居 集石 土坑 [弥生時代]住居 溝 [古墳時代]住居 [中世]掘立柱建物 井戸 [近世]建物 門","石器 縄文土器 石器 弥生土器 土師器 ガラス玉",139.6227,35.62252,TRUE
13112011700,13112,"117","かまがやいせき","鎌ヶ谷遺跡","世田谷区 瀬田一丁目","[旧石器時代][縄文時代（早期〜中期）][弥生時代（後期）][古墳時代][奈良時代][平安時代][中世][近世]","集落","[旧石器時代]ブロック 礫群 [縄文時代]土坑 ピット [弥生時代][古墳時代]V字溝 溝状遺構","縄文土器 石器 弥生土器 土師器 須恵器 陶器",139.6336,35.6134,TRUE
13112012100,13112,"121","やがわうえいせき","谷川上遺跡","世田谷区 野毛一丁目","[旧石器時代][縄文時代（中期）][古墳時代][中世][近世]","集落","[縄文時代]住居 ピット [中世][近世]竪穴土坑 溝","縄文土器 石器 土師器 陶磁器",139.6451,35.60425,TRUE
13112012300,13112,"123","しものげいせき","下野毛遺跡","世田谷区 野毛一丁目 野毛二丁目","[旧石器時代][縄文時代（早期〜後期）][中世][近世]","集落","[縄文時代]住居 集石 炉 土坑","縄文土器 石器 剥片 礫 陶器",139.6424,35.60424,TRUE
13112014300,13112,"143","すわやまいせき","諏訪山遺跡","世田谷区 奥沢一丁目 奥沢三丁目","[旧石器時代][縄文時代（早期〜後期）][弥生時代（後期）][平安時代][中世][近世]","集落","[縄文時代]住居 竪穴 集石 集石土坑 焼土 土坑 ピット [平安時代]土坑 火葬墓 [中世]焼土 溝 [近世]溝","縄文土器 石器 土錘 耳栓 土製品 礫 土師器 須恵器 土師質土器 陶器 陶磁器 鉄板 人骨",139.6748,35.60334,TRUE
13112014500,13112,"145","おくさわだいいせき","奥沢台遺跡","世田谷区 奥沢六丁目 玉川田園調布二丁目","[旧石器時代][縄文時代（前期〜後期）][弥生時代（後期）][古墳時代][近世]","集落","[縄文時代]住居 竪穴 炉 屋外炉 土坑 ピット [弥生時代]住居 [古墳時代]竪穴 [近世]ピット 土坑 井戸 溝","縄文土器 石器 けつ状耳飾 石棒 石製品 土製品 礫 弥生土器 陶磁器",139.6635,35.6037,TRUE
13112015500,13112,"155","ふどうばし・ふどうざかいせき","不動橋・不動坂遺跡","世田谷区 成城三丁目 成城四丁目","[旧石器時代][縄文時代（早期〜後期）][古墳時代]","集落","[古墳時代]住居 [時期不明]集石 焼土 土坑 井戸","石器 縄文土器 石器 土師器",139.5937,35.63851,TRUE
13112015900,13112,"159","きたみじんやいせき","喜多見陣屋遺跡","世田谷区 喜多見一丁目 喜多見三丁目 喜多見四丁目","[旧石器時代][縄文時代（早期〜晩期）][弥生時代（中期〜後期][古墳時代][奈良時代][平安時代][中世][近世]","集落","[旧石器時代]ブロック [縄文時代]住居 炉穴 土坑 [弥生時代]住居 溝 [古墳時代]住居 竪穴 方形周溝墓 周溝 棺 墓壙 [奈良〜平安時代]住居 地下式土坑 [中世〜近世]掘立柱建物 ピット 礎石 土坑 井戸 溝 堀 池","石器 縄文土器 弥生土器 土師器 須恵器 埴輪 臼玉 ガラス玉 灰釉 緑釉 陶磁器 土師質土器 鉄製品 鉄鏃 釘 茶臼 羽口 瓦 板碑 銭貨 胞衣容器 人骨 灰釉陶器 円筒埴輪 土製品 鉱滓",139.5966,35.6261,TRUE
13112016000,13112,"160","ひがしざんやいせき","東山野遺跡","世田谷区 砧二丁目 砧四丁目","[旧石器時代][縄文時代（早期・中期）][近世]","集落","[旧石器時代]ブロック 礫群 [縄文時代]ピット [近世]土坑","石器 剥片 礫 縄文土器 石器 陶磁器 煙管",139.6154904,35.64397266,TRUE
13112017800,13112,"178","からすやまちゅうがっこういせき","烏山中学校遺跡","世田谷区 南烏山四丁目","[旧石器時代][縄文時代（中期）]","集落","","尖頭器",139.600928,35.67158016,TRUE
13112019000,13112,"190","なかのしんめいいせき","中神明遺跡","世田谷区 成城三丁目","[旧石器時代][縄文時代（早期・中期）][古墳時代][奈良時代][平安時代][近世]","集落","[旧石器時代]ブロック 礫群 配石 [古墳時代]住居 [縄文時代]住居址 土坑 ピット 集石 [近世]溝","旧石器 縄文土器 弥生土器 土師器 須恵器 瓦質土器 陶磁器 須恵器",139.5961315,35.63640558,TRUE
13112020000,13112,"200","かわらけづかいせき","土器塚遺跡","世田谷区 代沢一丁目 池尻四丁目","[旧石器時代][縄文時代（中期）][弥生時代（後期）][古墳時代]","集落","[弥生時代]後期住居跡 [近世以降]溝","縄文土器 弥生土器 石器 陶磁器類",139.6803853,35.65597217,TRUE
13112021500,13112,"215","しょうぎやまいせき","将監山遺跡","世田谷区 瀬田四丁目","[旧石器時代][縄文時代][古墳時代][奈良時代]","包蔵地","","剥片 縄文土器 石器 土師器 陶磁器",139.6279678,35.61990997,TRUE
13112024600,13112,"246","かるたいせき","嘉留多遺跡","世田谷区 成城一丁目","[旧石器時代][縄文時代（早期〜晩期）][奈良時代][平安時代]","集落","[旧石器時代]ブロック 礫群 炭化物集中箇所 [縄文時代]住居 竪穴状遺構 集石土坑 炉穴群 土坑 ピット [近世]溝状遺構 道路","縄文土器 石器 弥生土器 土師器 須恵器 炭化果核 銭貨",139.6031945,35.63250431,TRUE
13112024700,13112,"247","しものだいせき","下野田遺跡","世田谷区 喜多見五丁目 喜多見六丁目 喜多見七丁目","[旧石器時代][縄文時代（早期～晩期）][古墳時代][奈良時代][平安時代][中世][近世]","包蔵地・集落","[旧石器時代]遺物集中箇所[縄文時代]落し穴　ピット　集石[古墳時代]住居　竪穴　土坑　溝　ピット[古代]住居　土坑　ピット[中世]溝　井戸　集石[近世]溝","旧石器　縄文土器　石器(石槍)　土師器　鉄製品　石製品　古銭　陶磁器",139.601044,35.63098942,TRUE
13112026500,13112,"265","しものだやまいせき","下野田山遺跡","世田谷区 喜多見六丁目","[旧石器時代][古墳時代][奈良時代][平安時代][中世][近世]","集落","[旧石器時代]ブロック","石器 焼礫 土師器 陶器 カワラケ",139.6039245,35.6300624,TRUE
13112027400,13112,"274","たきがやいせき","滝ヶ谷遺跡","世田谷区 瀬田四丁目","[旧石器時代][縄文時代（早期〜中期）][奈良時代][近世]","集落","[旧石器時代]ブロック 礫群 [縄文時代]住居 土坑 溝 [古墳時代]土坑? [奈良時代]住居","主な出土品",139.6263713,35.62034255,TRUE
13112027800,13112,"278","からすやまじょう（とりで）せき・からすやまみなみはらいせき","烏山城(砦)跡・烏山南原遺跡","世田谷区 南烏山一丁目 南烏山二丁目","[旧石器時代][縄文時代（中期）][中世][近世]","集落・城館","[旧石器時代]ブロック 礫群 [近世]溝状遺構 [時期不明]溝","石器 焼礫 縄文土器 陶磁器",139.6085982,35.6676234,TRUE
13112028100,13112,"281","たなおしいせき","田直遺跡","世田谷区 大蔵五丁目","[旧石器時代][縄文時代(早期〜後期)][奈良時代][平安時代][中世][近世]","集落","[旧石器時代]ブロック [縄文時代]住居址 土坑 炉穴 集石 ピット 配石 遺物集中部 土器埋設土坑 [古代以降]溝 土坑 ピット [中世以降]土坑 [近世以降]段切り ピット","[旧石器時代]石器 [縄文時代]土器 石器 土製品 石製品（装飾品） [古代以降]土師器 須恵器 [中世以降]陶磁器 [近世以降]陶磁器",139.6064007,35.62882062,TRUE
13112028700,13112,"287","せんがわいせき","仙川遺跡","世田谷区 給田三丁目","[旧石器時代][縄文時代（前期）][古墳時代]","集落","[旧石器時代]ブロック [古墳時代]住居","",139.5875251,35.66436561,TRUE
13112029400,13112,"294","ひがしやまいせき","東山遺跡","世田谷区 池尻一丁目 池尻二丁目","[旧石器時代][縄文時代（中期）][弥生時代][古墳時代]","集落","[縄文時代]竪穴 土坑","縄文土器 石器",139.6837499,35.647854,TRUE
13112029600,13112,"296","とどろきはらいせき","等々力原遺跡","世田谷区 等々力一丁目","[旧石器時代][縄文時代（早期〜後期）][弥生時代（後期）][古墳時代][中世][近世]","集落","[縄文時代]住居 土坑 [弥生時代]住居","石器 縄文土器 石器 弥生土器 陶磁器 銭貨",139.6479353,35.60406427,TRUE
13112029700,13112,"297","とどろきねいせき","等々力根遺跡","世田谷区 等々力一丁目","[旧石器時代][縄文時代（早期〜後期）][古墳時代][中世][近世]","集落","","縄文土器 石器 土製品 陶磁器 銭貨 鉄製品 土錘 砥石 瓦 土師質土器 硯 礫 埴輪 須恵器 金属製品 ガラス製品",139.6479182,35.60188694,TRUE
13112031900,13112,"319","つるがくぼいせき","鶴ヶ久保遺跡","世田谷区 野沢一丁目 下馬三丁目","[旧石器時代][縄文時代（中期〜後期）][近世]","集落","[縄文時代]住宅 竪穴 土坑 集石土坑 野外炉 屋外埋甕 伏甕 掘立柱建物跡 ピット [近世]〜溝 地下式杭 井戸 土坑 建物跡 ピット","石器 縄文土器 土製品 石器 装飾品 陶磁器 土製品 石製品 銭貨 金属製品 硝子製品",139.6738242,35.63776747,TRUE
13112032500,13112,"325","たいしどうしもほんむらいせき","太子堂下本村遺跡","世田谷区 三宿二丁目 太子堂三丁目","[旧石器時代][縄文時代（早期〜後期）][古墳時代][奈良時代][平安時代][近世]","集落","","",139.6721799,35.65106232,TRUE
13112033300,13112,"333","てんじんやまいせき","天神山遺跡","世田谷区 野毛一丁目","[旧石器時代][縄文時代（後期）][近世]","集落","","",139.645084,35.60138591,TRUE
13113003900,13113,"39","","渋谷区No.39遺跡","渋谷区 桜丘町","[旧石器時代][縄文時代（中期）]","包蔵地","","礫　縄文土器　打斧　磨斧　石鏃　石槌　石皿　凹石",139.6980297,35.65605875,TRUE
13113005200,13113,"52","さるがくいせき","猿楽遺跡","渋谷区 猿楽町","[旧石器時代][弥生時代]","集落","[旧石器時代]礫群　[弥生時代]住居　溝","弥生土器　ナイフ形石器",139.7021153,35.65131628,TRUE
13113009600,13113,"96","はちやまちょう・さるがくちょう17ばんいせき","鉢山町・猿楽町17番遺跡","渋谷区 鉢山町　 猿楽町","[旧石器時代][縄文時代][弥生時代][中世][近世]","集落","[旧石器時代]土坑　[縄文時代]住居　土坑　[弥生時代]環濠　住居　土坑　[中世]溝　[近世]掘立柱建物　溝","掻器　剥片　縄文土器　打斧　石鏃　削器　弥生土器　陶磁器",139.6984231,35.65017962,TRUE
13113009700,13113,"97","えびすいせき","恵比寿遺跡","渋谷区 恵比寿四丁目","[旧石器時代][縄文時代][古墳時代][近世]","集落","[縄文時代]土坑　[古墳時代]住居　[近世]土坑　溝","ナイフ形石器　掻器　剥片　縄文土器　打斧　石槍　土師器　陶磁器　砥石　玩具　人形",139.7135822,35.64322554,TRUE
13113009800,13113,"98","きたあおやまいせき","北青山遺跡","渋谷区 神宮前五丁目","[旧石器時代][縄文時代（後期）][近世]","包蔵地・屋敷","[縄文時代]土坑　[近世]掘立柱建物　土坑　地下室　井戸　溝","ナイフ形石器　石鏃　縄文土器　打製石斧　陶磁器",139.708212,35.66314738,TRUE
13113010100,13113,"101","せんだがやごちょうめいせき","千駄ヶ谷五丁目遺跡","渋谷区 千駄ヶ谷五丁目","[旧石器時代][縄文時代][近世]","その他（武家屋敷跡）","[縄文時代]陥穴　土坑　[近世]堀　溝　柵列　地下室　墓壙　井戸","ナイフ形石器　縄文土器　陶磁器　せっ器　漆器　木製品　金属製品　有舌尖頭器　土製品",139.7030381,35.68387873,TRUE
13114000200,13114,"2","さぎのみやはちまんじんじゃいせき","鷺の宮八幡神社遺跡","中野区 白鷺一丁目","[旧石器時代][縄文時代（中期〜後期）]","集落跡","[旧石器時代]礫群","縄文土器　打製石斧　凹石",139.6390995,35.72158396,TRUE
13114000500,13114,"5","","中野区No.5遺跡","中野区 白鷺二丁目","[旧石器時代]","包蔵地","[旧石器時代]礫群","",139.6349453,35.72024603,TRUE
13114000600,13114,"6","","中野区No.6遺跡","中野区 白鷺二丁目","[旧石器時代][縄文時代（早期・中期〜後期）]","包蔵地","","縄文土器　打製石斧",139.6360782,35.7208035,TRUE
13114005300,13114,"53","へいわのもりこうえんきたいせき","平和の森公園北遺跡","中野区 新井三丁目　 新井四丁目","[旧石器時代][縄文時代（早期〜後期）][弥生時代][古墳時代][近世]","集落","[縄文時代]竪穴住居跡　土坑　小形円形竪穴　[弥生時代]竪穴住居跡　土坑　[古墳時代]竪穴住居跡　溝　[近世]空堀　方形竪穴","縄文土器　弥生土器　炭化物　土師器　滑石製紡錘車　陶磁器　高田徳利　キセル　燈明皿　擂り鉢　寛永通宝　ミニチュア製品",139.6622065,35.71639621,TRUE
13114006400,13114,"64","","中野区No.64遺跡","中野区 東中野五丁目","[旧石器時代]","包蔵地","[旧石器時代]礫群","石核　剥片　スクレイパー",139.689224,35.708805,TRUE
13114009300,13114,"93","むかいだい（ひろまち）せき","向田（広町）遺跡","中野区 弥生町六丁目　 南台五丁目","[旧石器時代][縄文時代（後期）][弥生時代][古墳時代]","集落","[古墳時代]竪穴住居跡","土師器　須恵器　支脚形土製品　玉類　縄文土器　石掻　弥生土器　土錘　獣魚骨",139.6613553,35.6853642,TRUE
13115000300,13115,"3","いぐさせきしーちてん","井草遺跡C地点","杉並区 上井草三丁目","[旧石器時代][縄文時代（早期・中期）][古墳時代][近世]","包蔵地","[旧石器時代]ブロック　礫群　[縄文時代]炉穴　遺物集中部　[近世]溝状遺構　土坑","ナイフ形石器　台形石器　縄文土器　敲石　土師器　磁器　陶器",139.6024605,35.72136304,TRUE
13115000400,13115,"4","いぐさいせき","井草遺跡","杉並区 上井草四丁目","[旧石器時代][縄文時代（草創期〜早期）][古墳時代]","包蔵地　集落","[縄文時代]住居　土坑","[縄]縄文土器　斧形石器　敲石　特殊磨石　石皿",139.5971733,35.71977425,TRUE
13115000600,13115,"6","いぐさいせきびーちてん","井草遺跡Ｂ地点","杉並区 上井草四丁目","[旧石器時代][縄文時代（中期）]","包蔵地","[旧石器時代]ブロック","[旧]ナイフ形石器　スクレイパー　剥片",139.5987869,35.72261732,TRUE
13115001500,13115,"15","ぜんぷくじいせき","善福寺遺跡","杉並区 善福寺二丁目　 善福寺三丁目　 善福寺四丁目","[旧石器時代][縄文時代（早期〜後期）]","集落","[旧石器時代]礫群　土坑　[縄文時代]炉穴　土坑　土坑群","縄文土器　打斧　磨斧　石鏃　石匙　土偶　細石刃　細石刃核　スクレイパー　土器　石鏃　石斧　スタンプ型石器　磨石　石皿　礫器",139.5875779,35.7171043,TRUE
13115001600,13115,"16","なかどおりきたいせき","中通北遺跡","杉並区 今川二丁目","[旧石器時代][縄文時代][近世]","包蔵地","[旧石器時代]ブロック　[縄文時代]土坑　[近世]土坑　溝","縄文土器　尖頭状石器　剥片　陶器　磁器　金属製品",139.6106675,35.71645749,TRUE
13115001700,13115,"17","おそのいいせき","遅ノ井遺跡","杉並区 今川三丁目　 今川四丁目　 上井草三丁目","[旧石器時代][縄文時代（早期・中期）]","包蔵地","[旧石器時代]石器集中部　礫群　炭化物集中部[縄文時代]ピット","[旧石器時代]ナイフ形石器　彫器　掻器　敲石[縄文時代]縄文土器　打斧　石鏃　土師器",139.6013414,35.71743311,TRUE
13115002600,13115,"26","こうみょういんみなみいせき","光明院南遺跡","杉並区 上荻二丁目　南荻窪四丁目","[旧石器時代][縄文時代（草創期〜後期）][近世]","集落","[旧石器時代]ブロック　礫群　[縄文時代]住居 屋外埋甕　焼土跡　土坑　遺物集中部　集石　[近世]溝状遺構","[旧]剥片　彫器　ナイフ形石器　スクレイパー　尖頭器　石核　[縄]縄文土器　土器片鐘　石鏃　打製石斧　磨製石斧　石皿　磨石　石棒　軽石製石製品　有舌尖頭器　楔形石器　敲石　スタンプ形石器　スクレイパー　凹石　[近]磁器　陶器",139.614063,35.70405415,TRUE
13115003700,13115,"37","かわなみいせき","川南遺跡","杉並区 荻窪二丁目","[旧石器時代][縄文時代][古墳時代][奈良時代][平安時代]","包蔵地","","縄文土器　土師器　ナイフ形石器　掻器　石核　剥片",139.6222201,35.69617963,TRUE
13115005400,13115,"54","おおみや（わだぼり）いせき","大宮(和田堀)遺跡","杉並区 大宮二丁目","[旧石器時代][縄文時代（草創期〜後期）][弥生時代]","集落（方形周溝墓）","[弥生時代]方形周溝墓　都指定史跡-大宮遺跡　（昭和54.3.31）","縄文土器　礫器　石鏃　石匙　弥生土器　勾玉　ガラス小玉　土師器",139.6395824,35.68339886,TRUE
13115005600,13115,"56","","杉並区No.56遺跡","杉並区 大宮二丁目","[旧石器時代][古墳時代]","集落","[旧石器時代]礫群","土師器",139.6425349,35.6828969,TRUE
13115006000,13115,"60","ほうなんちょうみねいせきぐん（ほうなんみね・みねみなみ・ほうなん・みね・かまでらひがし・かまでら）いせき","方南町峰遺跡群（方南峰・峰南・方南・峯・釜寺東・釜寺）遺跡","杉並区 堀ノ内一丁目　 方南二丁目","[旧石器時代][縄文時代（早期〜後期）][弥生時代（後期）][古墳時代][奈良時代][近世]","集落","[旧石器時代]ブロック　礫群　[縄文時代]住居　炉穴　遺物集中部　炉跡　[弥生時代]住居　環濠　[古墳時代]住居　[近世]溝状遺構　地下室　地下坑","ナイフ形石器　彫器　スクレイパー　敲石　石核　剥片　縄文土器　土製蓋　ミニチュア土器　土偶　打製石斧　磨製石斧石鏃　石錘　石皿　磨石　凹石　石棒　炭化材　炭化米　弥生土器　ガラス小玉　砥石　土師器　須恵器　支脚　紡錘車　鉄環　磁器　陶器",139.6573439,35.68350464,TRUE
13115006200,13115,"62","せいびだいいせき","済美台遺跡","杉並区 大宮一丁目　 堀ノ内一丁目","[旧石器時代][縄文時代（草創期〜後期）][弥生時代][古墳時代][奈良時代]","集落","[旧石器時代]礫群　[縄文時代]住居　[弥生時代]周溝(方形周溝墓?)　杉並125参照","剥片　縄文土器　打斧　石鏃　石槍　石匙　土錘　土偶　弥生土器　滑石製勾玉　土師器　須恵器　炭化物",139.6471873,35.68778392,TRUE
13115006400,13115,"64","じょうづかくぼいせき","定塚久保遺跡","杉並区 堀ノ内二丁目","[旧石器時代][縄文時代（草創期〜早期）][縄文時代（中期）][近世]","包蔵地","[旧石器時代]礫群　[縄文時代]石器集中部　土坑　[近世]焼土集中部　溝状遺構","[旧]剥片　[縄]縄文土器　槍先形尖頭器　[近]陶磁器",139.654872,35.68802212,TRUE
13115007600,13115,"76","むかいのはらいせき","向ノ原遺跡","杉並区 久我山二丁目","[旧石器時代][縄文時代（早期〜中期）][中世][近世][近代]","集落","[旧石器時代]ユニット　礫群　[縄文時代]集石　炉穴　土坑","ナイフ形石器　尖頭器　角錐状石器　台形様石器　掻器　彫器　縄文土器　打斧　磨斧　局部磨斧　礫器　石槍　石鏃　掻器　彫器　石錘　石皿　磨石　スタンプ形石器　石核",139.6043231,35.68376139,TRUE
13115008100,13115,"81","どうのしたいせき","堂の下遺跡","杉並区 高井戸東一丁目","[旧石器時代][縄文時代（早期〜中期）][弥生時代（後期）][近世]","包蔵地・集落","[旧石器時代]礫群　ブロック　[縄文時代]竪穴式遺構　炉穴　ピット　焼土跡　集石　集石土坑　陥し穴　土坑　[弥生時代]方形周溝墓　[近世]溝　炭焼窯　地下室","ナイフ型石器　角錐状石器　スクレイパー　彫器　楔形石器　石斧　敲石　石核　剥片　削石　縄文土器　石鏃　有舌尖頭器　打製石斧　磨製石斧　　礫斧　磨石　スタンプ型石器　石皿　弥生土器　陶磁器",139.6235149,35.67968988,TRUE
13115008300,13115,"83","じゃばみいせき","蛇場美遺跡","杉並区 下高戸三丁目","[旧石器時代][縄文時代（草創期〜後期）][中世][近世]","包蔵地","[縄文時代]炉穴　[中世][近世]溝状遺構","ナイフ形石器　角錐状石器　台形様石器　縄文土器　打斧　礫器　石槍　石鏃　掻器　削器　楔形石器　磨石　スタンプ形石器　抉入磨石　敲石　石盤　陶磁器　カワラケ",139.6348998,35.67259893,TRUE
13115008500,13115,"85","しもたかいどつかやまいせき","下高井戸塚山遺跡","杉並区 下高井戸四丁目　下高井戸五丁目","[旧石器時代][縄文時代（早期〜後期）]","集落","[縄文時代]住居　集石　炉　土坑　ピット群","ナイフ形石器　局部磨製石器　掻器　縄文土器　打斧　磨石　土錘",139.6248919,35.67479842,TRUE
13115008900,13115,"89","めいじだいがくいずみこうちいせき","明治大学和泉校地遺跡","杉並区 永福一丁目","[旧石器時代][縄文時代（中期）]","集落","[旧石器時代]ブロック　礫群","ナイフ形石器　尖頭器　削器　敲石　石核　縄文土器",139.6477824,35.67085512,TRUE
13115009200,13115,"92","ねがわらいせき","根河原遺跡","杉並区 和泉三丁目","[旧石器時代][縄文時代（早期・後期）][古墳時代]","集落","[旧石器時代]ブロック　[古墳時代]住居　[縄文時代]土坑　炉跡","縄文土器　打斧　石棒　土師器　鋸歯　縁石器　尖頭状石器　剥片　石斧",139.647891,35.67707286,TRUE
13115009500,13115,"95","","杉並区No.95遺跡","杉並区 堀ノ内一丁目","[旧石器時代]","包蔵地","","剥片",139.6495906,35.68385205,TRUE
13115010100,13115,"101","ひがしはらいせき","東原遺跡","杉並区 久我山五丁目","[旧石器時代][縄文時代（草創期〜後期）][近世]","集落","[旧石器時代]ユニット　礫群　[縄文時代]住居　炉穴　土坑","ナイフ形石器　尖頭器　掻器　彫器　石核　縄文土器　有舌尖頭器　石鏃",139.6058681,35.68638266,TRUE
13115011000,13115,"110","たかいどひがしいせき","高井戸東遺跡","杉並区 高井戸西二丁目　 高井戸東三丁目","[旧石器時代][縄文時代（草創期〜後期）][古墳時代][中世][近世]","集落","[旧石器時代]ブロック　[縄文時代]陥し穴　[古墳時代]住居　[中世]地下式坑　段切り状遺構　土坑　ピット　溝状遺構","ナイフ形石器　台形石器　スクレイパー　局部磨製石斧　敲石　石棒　剥片　縄文土器　弥生土器　土師器　須恵器　陶器　瓦質土器　瓦",139.6161334,35.68459797,TRUE
13115011500,13115,"115","","杉並区No.115遺跡","杉並区 上井草三丁目","[旧石器時代][縄文時代（中期〜後期）][古墳時代]","包蔵地","","ナイフ形石器　縄文土器　土師器",139.5996452,35.72072195,TRUE
13115011900,13115,"119","むかいのはらびーいせき","向ノ原B遺跡","杉並区 久我山二丁目","[旧石器時代][縄文時代（草創期〜後期）][古墳時代]","集落","[旧石器時代]礫群　[縄文時代]住居　竪穴状遺構　炉穴　土坑　柱穴群","ナイフ形石器　切出形石器　角錐状石器　石核　縄文土器　打斧　礫器　石槍　有舌尖頭器　尖頭状石器　石鏃　掻器　削器　磨石　スタンプ形石器　抉入磨石　凹石　砥石　石盤　土製品",139.6006496,35.68621535,TRUE
13115012100,13115,"121","にしのはらいせき","西ノ原遺跡","杉並区 久我山四丁目","[旧石器時代][縄文時代（中期）]","集落","[旧石器時代]礫群　[縄文時代]住居跡　土坑","打斧　礫群構成礫　敲石　磨石　石皿　縄文土器",139.5904033,35.69262014,TRUE
13115012300,13115,"123","おおがいといせき","大ヶ谷戸遺跡","杉並区 荻窪二丁目","[旧石器時代][縄文時代（早期・中期〜後期）][近世]","包蔵地・集落","[旧石器時代]ブロック　[縄文時代]住居　集石　土坑　[近世]地下式坑　溝　土坑","細石刃　細石刃核削片　スクレイパー 石核　剥片　縄文土器　土器片鐘　抉状耳飾　石鏃　ノミ状石器　石斧　スタンプ形石器　石皿　敲石　陶磁器　砥石　加工円礫　銭貨",139.6191302,35.69854957,TRUE
13115012900,13115,"129","にっしょうじいせきびーちてん","日性寺遺跡B地点","杉並区 成田西二丁目","[旧石器時代][縄文時代（中期）][弥生時代][古墳時代][近世]","集落","[縄文時代]土坑　[古墳時代]住居　[不]ピット群","掻器　縄文土器　石皿　磨石　弥生土器　土師器　土玉　陶磁器",139.628926,35.68857844,TRUE
13115013300,13115,"133","じぞうざかいせき","地蔵坂遺跡","杉並区 善福寺一丁目","[旧石器時代][縄文時代（早期）]","集落","[旧石器時代]礫群　[縄文時代]住居　炉穴","ナイフ形石器　縄文土器",139.596212,35.70998996,TRUE
13115016000,13115,"160","あさがやほんむら","阿佐谷本村遺跡","杉並区 阿佐谷北一丁目","[旧石器時代][縄文時代（中期～後期）][古墳時代][近世]","包蔵地","[旧石器時代]石器集中部[縄文時代]土坑　ピット[近世]地下室　土坑　ピット","[旧石器時代]ナイフ形石器[縄文時代]縄文土器[古墳時代]土師器[近世]陶磁器　土器",139.6374104,35.70698175,TRUE
13115017600,13115,"176","かまくらばしうえいせき","鎌倉橋上遺跡","杉並区 浜田山一丁目　 浜田山二丁目","[旧石器時代][縄文時代（早期〜後期）]　[弥生時代（後期）][古墳時代][中世][近世]","集落","[旧石器時代]礫群　ブロック　[縄文時代]住居　土坑　[弥生時代]住居　環濠","細石器　細石刃　ナイフ形石器　角錐状石器　スクレイパー　石刃　石核　細石核　縄文土器　尖頭器　打製石斧　石匙　磨石　土偶　弥生土器　石器　ミニチュア土器　被熱粘土塊　陶磁器　銭貨　鉄鏃　土師器",139.6274325,35.67714111,TRUE
13115018000,13115,"180","たかちほだいがくおおみやいせき","高千穂大学大宮遺跡","杉並区 大宮二丁目","[旧石器時代][縄文時代（早期・中期）][古墳時代][中世]","集落・古墳","[旧石器時代]礫群　ブロック　[縄文時代]陥し坑　土坑　[古墳時代]円墳（周溝）　住居　[中世]溝状遺構　溝　土坑","剥片　縄文土器　土師器　埴輪　鉄製品　陶磁器",139.6376941,35.68312,TRUE
13115018100,13115,"181","どうのうえいせき","堂の上遺跡","杉並区 浜田山二丁目","[旧石器時代][縄文時代（中期）]","集落","[旧石器時代]ユニット　[縄文時代]住居跡","石核　ナイフ形石器　スクレイパー　台石　縄文土器",139.6254375,35.67740305,TRUE
13115018300,13115,"183","おそのいいせきびーちてん","遅ノ井遺跡B地点","杉並区 上井草二丁目","[旧石器時代]","包蔵地","[旧石器時代]ブロック","[旧]ナイフ形石器　錘状石器　斧状石器　敲石　石核　剥片",139.6094299,35.72437329,TRUE
13115018400,13115,"184","むこうやまだいしょうじざかいせき","向山大聖寺坂遺跡","杉並区 堀ノ内一丁目","[旧石器時代][縄文時代（草創期〜早期）]","包蔵地","[旧石器時代]礫群　[縄文時代]石器集中部　礫集中部　炉穴　土坑　焼土集中部","縄文土器　石器",139.6487347,35.68465179,TRUE
13115018500,13115,"185","ねがわらいせきびーちてん","根河原遺跡B地点","杉並区 和泉四丁目","[旧石器時代][縄文時代（早期〜後期）][弥生時代][中世][近世]","包蔵地","[縄文時代]礫集中部","縄文土器　弥生土器　土師器　石器　陶器　土製品　ガラス製品",139.6492415,35.67842914,TRUE
13115018600,13115,"186","しらはたいせき","白幡遺跡","杉並区 成田東二丁目","[旧石器時代]","包蔵地","[旧石器時代]ブロック　礫群　炭化物集中部","[旧石器時代]ナイフ形石器　台形様石器　錐状石器　楔形石器　彫器　スクレイパー　剥片　石核　局部磨製石斧",139.6341235,35.69056537,TRUE
13116000300,13116,"3","がくしゅういんだいがくしゅうへんいせき","学習院大学周辺遺跡","豊島区 目白一丁目　 目白二丁目","[旧石器時代][縄文時代（後期）]","包蔵地","整地層　土坑　溝状遺構　石組遺構　畝状遺構","縄文土器　剥片　土師器　陶磁器　土器　土製品　石製品　瓦　硝子製品　金属製品",139.7094095,35.71868978,TRUE
13117000500,13117,"5","あかばねだいいせき","赤羽台遺跡","北区 赤羽台四丁目","[旧石器時代][縄文時代][弥生時代][古墳時代][奈良時代][平安時代][中世][近世]","集落","[旧石器時代]石器ブロック　[縄文時代]住居址　集石　炉穴　土坑　[弥生時代]環濠　方形周溝墓　土坑　住居址　[古墳時代]住居址　溝状遺構　[奈良時代][平安時代]住居址　掘立柱建物址　特殊遺構　[平安時代]住居　[中世]土坑　地下式土坑溝　[中世][近世]地下式壙　溝址　[近世]地下室　溝　[近代]近衛工兵隊関連施設","旧石器　石器　縄文土器　石斧　礫器　有舌尖頭器　石鏃　敲石　弥生土器　ガラス玉　土師器　須恵器　鉄器　蔵骨器　板碑　陶磁器類",139.712228,35.7839379,TRUE
13117000800,13117,"8","きりがおかいせき","桐ヶ丘遺跡","北区 赤羽北三丁目　桐ヶ丘一丁目　桐ヶ丘二丁目","[旧石器時代][縄文時代（早期・中期〜後期）][弥生時代][古墳時代][奈良時代][平安時代]","集落","[旧石器時代]礫群　[縄文時代][弥生時代][古墳時代][奈良時代][平安時代]住居","石器　縄文土器　弥生土器　土師器　須恵器　鎌　刀子　砥石　鉄滓",139.7056019,35.77984366,TRUE
13117001200,13117,"12","だいろくてんいせき","大六天遺跡","北区 赤羽台二丁目","[旧石器時代][縄文時代（前期）][平安時代][近世]","集落跡","[旧石器時代]遺物集中地点　[縄文時代]住居址　柱穴群　土坑　竪穴状遺構　ピット　[平安時代]住居址　[近世]溝址　地下式土坑　土坑","旧石器　縄文土器　石器　土師器　須恵器　陶磁器類　銭貨",139.7122218,35.77544557,TRUE
13117001900,13117,"19","じゅうじょうだいいせきぐん","十条台遺跡群","北区 中十条一丁目　 中十条二丁目　 中十条三丁目　 王子本町一丁目　 王子本町二丁目　 王子本町三丁目","[旧石器時代][縄文時代][弥生時代][古墳時代][奈良時代][平安時代][近世]","集落・その他の墓","[縄文時代]住居　[弥生時代][古墳時代]住居址　方形周溝墓　[弥生時代]環濠　方形周溝墓　[古墳時代]周溝　溝址　[奈良時代]住居址　[近世]溝","縄文土器　石斧　弥生土器　土師器　須恵器　人骨　鉄製品　土製品",139.7293239,35.7586086,TRUE
13117002700,13117,"27","にしがはらいせきぐん","西ヶ原遺跡群","北区 西ヶ原一丁目　 西ヶ原二丁目　 西ヶ原三丁目　 上中里一丁目　 王子一丁目","[旧石器時代][縄文時代][弥生時代][古墳時代][奈良時代][平安時代][中世][近世]","集落・貝塚・その他の墓・城館","[縄文時代]住居址　土坑　ピット群　土壙墓　墓壙　貝塚　[弥生時代]住居址　土坑　溝址　方形周溝墓　環濠　[弥生時代][古墳時代]方形周溝墓　[古墳時代]住居址　土坑　溝址　古墳　[奈良時代][平安時代]住居址　掘立柱建物址　ピット　土坑　溝　正倉大溝　溝址　[中世][近世]溝址　土坑　[近世]建物　ピット土坑　地下式土坑　井戸　溝　区画溝　道路　土壙墓群　柵列　集石　特殊埋葬遺構","掻器　彫器　縄文土器　打斧　磨斧　石鏃　抉入石器　石器　ヤス状鹿角製品　耳飾　土板　埋葬人骨　動物遺存体　石皿　磨石　凹石　敲石　石核　大珠　骨角器　弥生土器　石皿　磨石　敲石　滑石製玉　土師器　須恵器　支脚　砥石　紡錘車　土錘　羽口　土玉　鉄製品　陶磁器類　土製品　鉄製品　銭貨　鳥獣魚骨　貝　剥片石器",139.7428408,35.74611874,TRUE
13118000400,13118,"4","どうかんやまいせき","道灌山遺跡","荒川区 西日暮里四丁目　 西日暮里五丁目","[旧石器時代][縄文時代（前期〜後期）][弥生時代][奈良時代][平安時代][中世][近世]","集落","[弥生時代]環濠　住居　[平安時代]住居　掘立柱建物　土坑　柵状遺構　[平安時代〜近世]溝状遺構","ナイフ形石器　縄文土器　石鏃　敲石　石器　弥生土器　土師器　須恵器　鞴　紡錘車　人形　銭貨　陶磁器片",139.7651699,35.73318334,TRUE
13119000200,13119,"2","なりますずうこう／なりますしんでんばらいせき","成増百向／成増新田原遺跡","板橋区 成増二丁目　 成増三丁目","[旧石器時代][縄文時代（早期〜中期）][弥生時代（後期）]","包蔵地・集落","[縄文時代]住居　竪穴状遺構　集石　[弥生時代]住居","縄文土器　石器　弥生土器",139.6277597,35.78089564,TRUE
13119000300,13119,"3","なりますとのやまいせき","成増との山遺跡","板橋区 成増三丁目","[旧石器時代][縄文時代（早期〜後期）][弥生時代（中期〜後期）]","包蔵地・集落","[旧石器時代]ブロック　礫群　[縄文時代]土坑　[弥生時代]住居","ナイフ形石器　角錐状石器　台形様石器　楔形石器　掻器　彫器　敲石　石核　剥片　焼礫　縄文土器　石器　弥生土器",139.6312273,35.78042215,TRUE
13119000700,13119,"7","すがわらじんじゃだいちうえいせき","菅原神社台地上遺跡","板橋区 成増四丁目　 成増五丁目","[旧石器時代][縄文時代（前期）][弥生時代（後期）][古墳時代][平安時代][近世]","集落・古墳","[旧石器時代]ブロック　礫群　[縄文時代]住居　炉穴　焼土　土坑　墓壙　[弥生時代]住居　掘立柱建物　ピット　焼土　土坑　[古墳時代]円墳　方形周溝墓　[平安時代]住居　[近世]土坑　溝状遺構","ナイフ形石器　台形様石器　剥片　礫　縄文土器　磨斧　石鏃　石皿　台石　弥生土器　土師器　須恵器　土製玉類　ガラス小玉　けつ状耳飾　陶磁器　鉄製品　ガラス製品",139.6316049,35.78356942,TRUE
13119000800,13119,"8","なりますてんじんわきいせき","成増天神脇遺跡","板橋区 成増四丁目　 成増五丁目","[旧石器時代][縄文時代（早期・中期〜後期）][弥生時代（後期）][古墳時代][奈良時代][近世]","包蔵地","","縄文土器　弥生土器",139.6324976,35.78490628,TRUE
13119000900,13119,"9","あかつかおおつかはらいせき","赤塚大塚原遺跡","板橋区 赤塚一丁目","[旧石器時代][縄文時代（後期）]","包蔵地・集落","[旧石器時代]ブロック　[縄文時代]陥し穴　土坑　ピット","ナイフ形石器　縄文土器　スタンプ形石器　弥生土器",139.6501444,35.77145313,TRUE
13119002200,13119,"22","あかつかひかわじんじゃほっぽういせき","赤塚氷川神社北方遺跡","板橋区 赤塚四丁目","[旧石器時代][縄文時代（晩期）][弥生時代（中期〜後期）][古墳時代][奈良時代][近世]","包蔵地・集落","[弥生時代][古墳時代]住居","ナイフ形石器　縄文土器　石器　弥生土器　土師器　須恵器",139.6390894,35.78652162,TRUE
13119003300,13119,"33","しょうげついんけいだい・だいもん・あかつかしもじけばんじょうめんいせき","松月院境内・大門・赤塚下寺家番匠免遺跡","板橋区 赤塚五丁目　 赤塚六丁目　 赤塚七丁目　 赤塚八丁目　 大門","[旧石器時代][縄文時代（早期〜晩期）][弥生時代（中期〜後期）][古墳時代][奈良時代][平安時代][中世][近世]","包蔵地・集落","[旧石器時代]ブロック　礫群　[縄文時代]住居　炉穴　[弥生時代]住居　方形周溝墓　[古墳時代]住居　方形周溝墓　[奈良時代][平安時代]住居　[中世]土坑　地下式土壙　ピット　[近世]土坑","ナイフ形石器　石刃　角錐状石器　掻器　縄文土器　石器　弥生土器　土師器　須恵器　紡錘車　青銅環　陶磁器　カワラケ　板碑　五輪塔",139.6476467,35.78156758,TRUE
13119004000,13119,"40","よつばちくいせき","四葉地区遺跡","板橋区 四葉二丁目","[旧石器時代][縄文時代（早期〜中期）][弥生時代（後期）][古墳時代][奈良時代][平安時代][中世][近世]","包蔵地","[弥生時代]環濠　住居　[平安時代]住居　土坑　溝　井戸　[近世]土壙墓　[時代不明]ピット","弥生土器　土師器　須恵器　釘　金銅製観音立像　銭貨",139.653294,35.78173754,TRUE
13119004200,13119,"42","よつばちくいせき","四葉地区遺跡","板橋区 四葉二丁目　 徳丸八丁目","[旧石器時代][縄文時代（早期〜晩期）][弥生時代（後期）][古墳時代][奈良時代][平安時代][中世][近世]","包蔵地・集落","[旧石器時代]ブロック　炭化物集中　[縄文時代]住居　陥し穴　[弥生時代][古墳時代]環濠　住居　方形周溝墓　円形周溝墓　[古墳時代]土坑　[奈良時代][平安時代]住居　土坑　地下式土坑　[中世][近世]段切り　溝　[近世]地下室　ゴミ穴　溝　[時代不明]井戸　火葬墓","ナイフ形石器　細石刃　掻器　抉入石器　敲石　石核　縄文土器　打斧　磨斧　局部磨斧　有舌尖頭器　石鏃　楔形石器　石皿　磨石　スタンプ形石器　敲石　土製品　弥生土器　磨斧　石包丁　石皿　台石　土師器　須恵器　鉄鏃　陶磁器　銭貨　獣骨",139.6548046,35.7812362,TRUE
13119004800,13119,"48","","板橋区No.48遺跡","板橋区 徳丸四丁目","[旧石器時代]","包蔵地","","石器",139.6524596,35.77128805,TRUE
13119005100,13119,"51","とくまるもりのきいせき","徳丸森木遺跡","板橋区 徳丸五丁目　 四葉一丁目","[旧石器時代][縄文時代（早期〜中期・晩期）][弥生時代（後期）][古墳時代]","包蔵地・集落","[旧石器時代]ブロック　[縄文時代]土坑　[弥生時代]住居　[古墳時代]方形周溝墓　[時代不明]土坑　溝","剥片　縄文土器　石鏃　弥生土器　石器　土師器",139.6539016,35.77900372,TRUE
13119005800,13119,"58","にしだいごとうだいせき","西台後藤田遺跡","板橋区 西台一丁目　 西台三丁目　 西台四丁目　 若木二丁目","[旧石器時代][縄文時代（早期〜後期）][弥生時代（後期）][古墳時代][奈良時代][平安時代][近世]","包蔵地・集落・貝塚","","縄文土器",139.670392,35.77291791,TRUE
13119006300,13119,"63","ごたんだいせき","五段田遺跡","板橋区 西台三丁目","[旧石器時代][縄文時代（中期〜晩期）][弥生時代（後期）][古墳時代][奈良時代][平安時代][中世][近世]","包蔵地・集落・墳墓","[旧石器時代]ブロック　[縄文時代]住居　炉穴　土坑　[弥生時代]住居　方形周溝墓　土坑　溝　[奈良時代][平安時代]溝　[中世]掘立柱建物　竪穴状遺構　地下式土壙　段切状遺構　[近世]土坑　井戸　畝状遺構　道路状遺構","ナイフ形石器　石刃　剥片　縄文土器　石器　弥生土器　土師器　埴輪　陶磁器　土師質土器　金属製品　銭貨",139.6682525,35.77443569,TRUE
13119007600,13119,"76","なかだいひがしだにいせき","中台東谷遺跡","板橋区 中台一丁目　 中台二丁目","[旧石器時代][縄文時代（早期〜中期・晩期）][平安時代]","包蔵地・集落","[旧石器時代]ユニット　礫群　[縄文時代]住居　ピット　土壙墓","ナイフ形石器　角錐状石器　掻器　石核　剥片　焼礫　縄文土器　石鏃　須恵器　陶磁器",139.6811884,35.76948992,TRUE
13119007900,13119,"79","なかだいさんちょうめひがしきゅうりょう／なかだいはたなかいせき","中台三丁目東丘陵／中台畠中遺跡","板橋区 中台二丁目　 中台三丁目","[旧石器時代][縄文時代（早期〜晩期）][弥生時代（中期〜後期）][古墳時代][奈良時代][平安時代]","包蔵地・集落","[縄文時代]住居　土坑　[弥生時代]住居　[古墳時代]住居　[平安時代]住居","ナイフ形石器　掻器　縄文土器　石器　弥生土器　土師器　須恵器　鉄鎌　土製勾玉　金環",139.6824426,35.77380927,TRUE
13119008300,13119,"83","なかだいさんちょうめみなみ／なかだいさんちょうめみなみのおかいせき","中台三丁目南／中台三丁目南の丘遺跡","板橋区 中台三丁目","[旧石器時代][縄文時代（早期〜後期）][弥生時代（後期）][古墳時代][奈良時代][平安時代]","集落","[縄文時代]炉穴　土坑　[弥生時代]住居　[古墳時代]住居　[奈良時代][平安時代]住居　[時代不明]土坑","ナイフ形石器　縄文土器　石器　弥生土器　土師器　須恵器　土玉",139.6780481,35.77322432,TRUE
13119009400,13119,"94","まえのひぐらしくぼ／まえのうさぎやついせき","前野日暮久保／前野兎谷遺跡","板橋区 前野町五丁目","[旧石器時代][縄文時代（早期〜後期）][弥生時代][古墳時代][奈良時代][平安時代][近世]","包蔵地・集落","[縄文時代]小竪穴　[弥生時代]住居","縄文土器　石器　弥生土器　土師器",139.6853711,35.77037696,TRUE
13119009900,13119,"99","しまいはた／しむら／しむらさかうえいせき","四枚畑／志村／志村坂上遺跡","板橋区 前野町三丁目　 前野町四丁目　 志村一丁目","[旧石器時代][縄文時代（早期〜晩期）][弥生時代（後期）][古墳時代][奈良時代][平安時代][中世][近世]","包蔵地・集落・貝塚","[旧石器時代]ブロック　礫群　[縄文時代]住居　土坑　ピット　[弥生時代]住居　[古墳時代]住居　[奈良時代][平安時代]溝　[近世]溝　道路","ナイフ形石器　掻器　縄文土器　石器　けつ状耳飾　土偶　骨角器　弥生土器　土師器　須恵器",139.6953217,35.7739031,TRUE
13119010100,13119,"101","しむらしろやまいせき・しむらじょうし","志村城山遺跡・志村城址","板橋区 志村二丁目","[旧石器時代][縄文時代（早期〜後期）][弥生時代（中期〜後期）][古墳時代][奈良時代][平安時代][中世][近世]","包蔵地・集落・城館","[弥生時代]環濠　[古墳時代]方形周溝墓　[奈良時代][平安時代]住居　掘立柱建物　柵列　[中世]土壙　溝　堀","縄文土器　打斧　磨斧　石鏃　掻器　磨石　弥生土器　土師器　須恵器　支脚　羽口　鉄針　陶磁器",139.6877743,35.7758087,TRUE
13119010600,13119,"106","くりはらいせき","栗原遺跡","板橋区 桜川一丁目","[旧石器時代][縄文時代（早期・後期）][弥生時代][古墳時代][平安時代]","集落","[旧石器時代]礫群　[弥生時代]住居　[奈良時代]住居","掻器　礫　剥片　縄文土器　打斧　磨斧　弥生土器　土師器　須恵器　紡錘車　砥石　鎌　手斧　刀子　鑿　鉄鏃　鋸　鎖　金具",139.6739624,35.75658133,TRUE
13119011300,13119,"113","ねのかみいせき","根ノ上遺跡","板橋区 小茂根一丁目　 小茂根二丁目","[旧石器時代][縄文時代（早期）][弥生時代][平安時代]","包蔵地・集落","[縄文時代]住居　[弥生時代]住居　溝状遺構　[平安時代]住居","ナイフ形石器　細石刃核　角錐状石器　縄文土器　石器　弥生土器　土師器　須恵器　　炭化米",139.6818858,35.74661532,TRUE
13119011800,13119,"118","こやまだい／こもねこやまいせき","小山台／小茂根小山遺跡","板橋区 小茂根二丁目　 小茂根三丁目","[旧石器時代][弥生時代]","集落","[弥生時代]住居","剥片　弥生土器",139.6816798,35.7500147,TRUE
13119011900,13119,"119","もろやまとうほういせき","茂呂山東方遺跡","板橋区 小茂根三丁目","[旧石器時代][縄文時代（前期）]","包蔵地","[旧石器時代]礫群　[時代不明]住居","ナイフ形石器　剥片　縄文土器",139.6787959,35.74976393,TRUE
13119012200,13119,"122","もろいせき","茂呂遺跡","板橋区 小茂根五丁目","[旧石器時代][縄文時代（早期〜中期）][弥生時代（後期）][奈良時代][平安時代]","包蔵地・集落","[旧石器時代]礫群　[平安時代]住居","ナイフ形石器　角錐状石器　掻器　石核　剥片　縄文土器　弥生土器　土師器　須恵器",139.6764957,35.75316317,TRUE
13119012400,13119,"124","むかいはらいせき","向原遺跡","板橋区 向原一丁目　 大谷口二丁目","[旧石器時代][縄文時代（草創期・前期）][弥生時代（後期）][近世]","包蔵地・集落","[旧石器時代]ブロック　[縄文時代]炉　ピット　[弥生時代]住居　ピット　[近世]土坑　溝状遺構","ナイフ形石器　尖頭器　石核　縄文土器　打斧　有舌尖頭器　石鏃　石錐　楔形石器　磨石　スタンプ形石器　土製けつ状耳飾　土製耳飾　土製品　弥生土器　土師器　紡錘車　陶磁器　瓦　砥石　金属製品　銭貨",139.686966,35.740913,TRUE
13119017100,13119,"171","にしはらいせき","西原遺跡","板橋区 双葉町","[旧石器時代][縄文時代（早期〜後期）][弥生時代（後期）]","包蔵地・集落","[旧石器時代]ブロック　礫群　[縄文時代]住居　土坑　[弥生時代]住居　土坑","ナイフ形石器　石核　弥生土器",139.6984951,35.7582046,TRUE
13119017200,13119,"172","くぼたいせき","久保田遺跡","板橋区 栄町　 中板橋","[旧石器時代][縄文時代（草創・前期〜後期）][弥生時代（前期・後期）][奈良時代][平安時代][中世][近世]","包蔵地・集落","[弥生時代][中世][近世]土坑　[中世]掘立柱建物　[近世]溝　[時代不明]井戸","縄文土器　弥生土器",139.7003833,35.7555021,TRUE
13120000600,13120,"6","びくにばしいせきびーちてん","比丘尼橋遺跡Ｂ地点","練馬区 大泉町二丁目","[旧石器時代][縄文時代（草創期〜晩期）][弥生時代（後期）][近世]","包蔵地・集落","[旧石器時代]石器ブロック　礫群　[縄文時代]炉穴　竪穴住居跡　土坑　ピット　陥穴　集石土坑","ナイフ型石器　彫器　縄文土器　石鏃　打製石斧　けつ状耳飾　陶磁器　近世陶磁器",139.5997269,35.7575946,TRUE
13120001000,13120,"10","がいかんどうろかんれん","外かん道路関連遺跡","練馬区 大泉町三丁目　 大泉町四丁目","[旧石器時代][縄文時代（草創期〜後期）][弥生時代（中期〜後期）][古墳時代][奈良時代][平安時代][中世][近世]","包蔵地・集落・その他（低湿地）","[縄文時代]石器製作址（石鏃）　[弥生時代]方形周溝墓　[古墳時代]竪穴住居跡","（旧石器）尖頭器　ナイフ型石器　（縄文）縄文土器　打製石斧　石鏃　垂飾り　（弥生〜古墳）土器　木器（段梯子　農耕具）　ガラス玉　（奈良・平安）土師器　須恵器",139.5996239,35.76386297,TRUE
13120001300,13120,"13","えちごやまにしいせき","越後山西遺跡","練馬区 大泉町一 丁目","[旧石器時代][縄文時代（中期）][弥生時代（後期）]","集落","[弥生時代]竪穴住居跡","石器　縄文土器　弥生土器",139.6026108,35.76826411,TRUE
13120001500,13120,"15","","練馬区No.15遺跡","練馬区 大泉町二丁目","[旧石器時代][縄文時代（早期）]","包蔵地","","石器　縄文土器",139.6020615,35.76230288,TRUE
13120001700,13120,"17","おおいずみなかざといせき","大泉中里遺跡","練馬区 大泉町二丁目","[旧石器時代][縄文時代（早期〜後期）]","集落","[旧石器時代]礫群　[縄文時代]住居　集石　土坑","石器　縄文土器　石器",139.6058037,35.76442013,TRUE
13120001800,13120,"18","","練馬区No.18遺跡","練馬区 大泉町一丁目","[旧石器時代][縄文時代（早期・中期）][弥生時代]","包蔵地","ピット","（旧石器）細部調整剥片　（縄文）土器（早期撚糸文）　（弥生）土器",139.6059067,35.76787411,TRUE
13120002000,13120,"20","まるやまいせき","丸山遺跡","練馬区 大泉町三丁目","[旧石器時代][縄文時代（早期〜後期）][弥生時代][奈良時代][平安時代][中世]","集落","[旧石器時代]礫群　[弥生時代]住居　[中世]地下式土坑　[時代不明]溝状遺構","石器　縄文土器　弥生土器　土師器　須恵器",139.5983193,35.7636401,TRUE
13120002200,13120,"22","やつがやといせき","八ヶ谷戸遺跡","練馬区 大泉町二丁目","[旧石器時代][縄文時代（草創期〜後期）]","集落","[旧石器時代]礫群　[縄文時代]竪穴住居跡　竪穴状遺構　集石　土坑　埋甕　屋外炉　ピット","旧石器（剥片）　縄文土器　石器（石鏃　打製石斧　磨製石斧　石皿　凹石）　耳栓　土錘　垂飾り",139.6028512,35.75923835,TRUE
13120002900,13120,"29","とやまいせきだい1ちてん","外山遺跡第1地点","練馬区 東大泉三丁目","[旧石器時代][縄文時代（草創期〜後期）]","集落","[旧石器時代]石器ブロック　竪穴状遺構　陥穴","旧石器　縄文土器　石器",139.5911858,35.75242004,TRUE
13120003700,13120,"37","かわきたいせき","川北遺跡","練馬区 関町北四丁目","[旧石器時代][縄文時代（早期〜中期）][近世]","集落","[旧石器時代]石器ブロック　[縄文時代]炉穴　陥穴　住居","［旧石器時代］黒曜石石核　［縄文時代］縄文土器（早期・中期）",139.5701736,35.72943562,TRUE
13120003800,13120,"38","ふじみいけいせきぐん","富士見池遺跡群","練馬区 関町北三丁目　 関町南四丁目","[旧石器時代][縄文時代（早期〜後期）][中世]","集落","[旧石器時代]石器ブロック　礫群　[縄文時代]住居","石器（石鏃　打製石斧）　石棒　縄文土器",139.5691093,35.72575664,TRUE
13120004200,13120,"42","むさしせききたいせき","武蔵関北遺跡","練馬区 関町北四丁目","[旧石器時代][縄文時代（草創期〜中期）]","集落","[旧石器時代]石器ブロック　礫群　[縄文時代]集石　陥穴　土坑　貯蔵穴","石器　縄文土器",139.5746712,35.72885034,TRUE
13120004300,13120,"43","ふじみいけきたいせき","富士見池北遺跡","練馬区 関町北四丁目","[旧石器時代][縄文時代（早期〜中期）]","集落","[旧石器時代]石器ブロック　炉穴","縄文土器　石器",139.5684227,35.72885034,TRUE
13120004500,13120,"45","しろやまいせき・あたごやまるい","城山遺跡・愛宕山塁","練馬区 上石神井三丁目","[旧石器時代][縄文時代（早期〜晩期）][弥生時代][中世]","集落・城館","[旧石器時代]礫群　[縄文時代]住居　石器集中部　礫群　炉穴　集石土坑　濠状遺構　住居址　[中世]堀","石器　縄文土器　弥生土器　ナイフ形石器　尖頭器　細石刃　細石刃核　石鏃　扶入磨石　鉄製品",139.5927615,35.732401,TRUE
13120005000,13120,"50","しゃくじいだいいせき・しゃくじいじょうあと","石神井台遺跡・石神井城跡","練馬区 石神井台一丁目","[旧石器時代][縄文時代（早期〜後期）][古墳時代][奈良時代][平安時代][中世]","集落・城館","[旧石器時代]礫群　[中世]ピット　地下式土坑　溝状遺構　[時代不明]住居　柱穴群　溝状遺構","石器　縄文土器　弥生土器　土師器　須恵器　陶磁器　木製品　素焼土器　瓦器　鉄器　石臼",139.5958224,35.73608288,TRUE
13120005600,13120,"56","","練馬区No.56遺跡","練馬区 石神井台一丁目","[旧石器時代][縄文時代（中期〜後期）]","包蔵地","","縄文土器",139.596818,35.73934338,TRUE
13120005700,13120,"57","おうぎやまいせき","扇山遺跡","練馬区 石神井台四丁目","[旧石器時代][縄文時代（草創期・中期〜後期）]","集落","[旧石器時代]礫群　ブロック　[縄文時代]竪穴住居址　土坑　礫群　石器ブロック　住居址　集中土坑　土器埋設遺構　集石","縄文土器　石器　細石刃　ナイフ形石器　尖頭器　有舌尖頭器　打製石斧　石鏃　石皿",139.5870967,35.73256821,TRUE
13120005800,13120,"58","","練馬区No.58遺跡","練馬区 石神井台七丁目","[旧石器時代]","集落","[旧石器時代]礫群","石器",139.578791,35.73024386,TRUE
13120006000,13120,"60","","練馬区No.60遺跡","練馬区 下石神井六丁目","[旧石器時代][縄文時代（中期）]","包蔵地","","剥片　縄文土器　石器",139.6059847,35.73457799,TRUE
13120006400,13120,"64","いけぶちいせき","池淵遺跡","練馬区 石神井町五丁目","[旧石器時代][縄文時代（草創期〜後期）][弥生時代（後期）][古墳時代][中世]","集落","[旧石器時代]礫群　[縄文時代]住居　土坑　ピット　[中世]溝状遺構","石器（打製石斧　石皿　石鏃）　縄文土器　弥生土器　土師器　須恵器　陶磁器",139.6020365,35.73797788,TRUE
13120006800,13120,"68","","練馬区No.68遺跡","練馬区 石神井町三丁目","[旧石器時代][縄文時代（中期）]","包蔵地","","（旧石器）剥片　ナイフ形石器　（縄文）　土器",139.6060534,35.7412383,TRUE
13120006900,13120,"69","わだいせき","和田遺跡","練馬区 石神井町三丁目","[旧石器時代][縄文時代（中期）]","集落","[旧石器時代]礫群　[縄文時代]住居　石器ブロック　礫群　陥穴　土坑","縄文土器　削器　剥片　調整剥片　尖頭器",139.607049,35.74299386,TRUE
13120007300,13120,"73","たかまつにちょうめいせき","高松二丁目遺跡","練馬区 高松二丁目","[旧石器時代][縄文時代（早期・中期）]","集落","[旧石器時代]石器ブロック　礫群","縄文土器　削器　ナイフ形石器　錐　礫器　ハンマーストーン　ノッヂ　焼礫",139.6302749,35.74707284,TRUE
13120007400,13120,"74","","練馬区No.74遺跡","練馬区 旭町三丁目","[旧石器時代][縄文時代（後期）]","包蔵地","","石器　縄文土器",139.6270604,35.77399357,TRUE
13120008300,13120,"83","","練馬区No.83遺跡","練馬区 下石神井三丁目　 南田中五丁目","[旧石器時代][縄文時代（中期・後期）]","集落","[古墳時代]竪穴住居址","(旧石器)剥片　（縄文）土器　(古墳)土師器",139.6087656,35.73914831,TRUE
13120008400,13120,"84","ふじみだいさんちょうめいせき","富士見台三丁目遺跡","練馬区 富士見台三丁目","[旧石器時代][縄文時代（中期）]","集落","住居址　集石","縄文土器　石器",139.6208736,35.73914837,TRUE
13120008500,13120,"85","はるきやまいせき","春木山遺跡","練馬区 富士見台四丁目","[旧石器時代][縄文時代（中期〜後期）]","包蔵地","","縄文土器　石器",139.6223499,35.7447773,TRUE
13120008700,13120,"87","","練馬区No.87遺跡","練馬区 石神井町一丁目","[旧石器時代][縄文時代(中期)]","集落","[旧石器時代]礫群","縄文土器",139.6110546,35.7407089,TRUE
13120008900,13120,"89","なかむらばしいせき","中村橋遺跡","練馬区 貫井二丁目","[旧石器時代][縄文時代（中期〜後期）][弥生時代（後期）][古墳時代][奈良時代][平安時代]","集落","[縄文時代]住居　炉　集石土坑　土坑　[平安時代]住居址","縄文土器　石器　土偶　弥生土器　土師器　打製石斧　石匙　掻器　須恵器坏（墨書土器）",139.6368036,35.73993539,TRUE
13120009100,13120,"91","ぬくいにちょうめいせき","貫井二丁目遺跡","練馬区 貫井二丁目","[旧石器時代][縄文時代（中期〜後期）][弥生時代（後期）][奈良時代][平安時代][近世]","集落・その他の墓","[縄文時代]住居　土坑　[弥生時代]住居　[奈良時代][平安時代]住居　土師器焼成坑　[近世]墓壙　溝状遺構","石器　縄文土器　弥生土器　土師器　須恵器　馬具　家牛骨　人骨",139.633851,35.74043699,TRUE
13120009400,13120,"94","たじまいせき","田島遺跡","練馬区 貫井四丁目","[旧石器時代][縄文時代（草創期〜中期）][弥生時代（後期）]","集落","[旧石器時代]石器ブロック　[縄文時代]集石　[弥生時代]住居","縄文土器　石器　弥生土器",139.6271906,35.74341865,TRUE
13120009800,13120,"98","おさきいせき","尾崎遺跡","練馬区 春日町五丁目","[旧石器時代][縄文時代（早期〜晩期）][弥生時代][奈良時代][平安時代][中世][近世]","集落・墓地","[旧石器時代]礫群　[縄文時代]焼土　[弥生時代]土坑　溝状遺構　[平安時代]住居　井戸　[中世]柱穴群　井戸　土坑　溝状遺構　[近世]溝状遺構","石器　縄文土器　弥生土器　土師器　須恵器　陶磁器　木器",139.6398092,35.74706462,TRUE
13120010000,13120,"100","","練馬区No.100遺跡","練馬区 早宮一丁目","[旧石器時代][縄文時代（中期）][弥生時代]","集落","[弥生時代]住居址","縄文土器　弥生土器",139.661941,35.75106414,TRUE
13120010200,13120,"102","","練馬区No.102遺跡","練馬区 早宮三丁目","[旧石器時代]","包蔵地","[旧石器時代]礫群","石器",139.6520189,35.74568643,TRUE
13120010400,13120,"104","","練馬区No.104遺跡","練馬区 氷川台二丁目","[旧石器時代]","集落","[旧石器時代]礫群","石器",139.6674685,35.75675087,TRUE
13120010500,13120,"105","","練馬区No.105遺跡","練馬区 氷川台二丁目","[旧石器時代][縄文時代（後期）]","包蔵地","","縄文土器",139.6675715,35.7554414,TRUE
13120010800,13120,"108","くりやま・うまのかみやしきあといせき","栗山・右馬頭屋敷跡遺跡","練馬区 練馬二丁目","[旧石器時代][縄文時代（草創期〜後期）][弥生時代（後期）][古墳時代][平安時代][中世]","集落","[旧石器時代]石器ブロック　礫群　[縄文時代]住居　炉穴　陥穴　土坑　ピット　[平安時代]住居　[時代不明]溝状遺構","縄文土器　石器　弥生土器　土師器　須恵器",139.6531301,35.74299634,TRUE
13120011400,13120,"114","たかいなりいせき","高稲荷遺跡","練馬区 桜台六丁目","[旧石器時代][縄文時代（早期・中期）][弥生時代]","集落","[縄文時代]土坑　[弥生時代]溝状遺構","",139.6583018,35.74844499,TRUE
13120011600,13120,"116","こたけいせき","小竹遺跡","練馬区 小竹一丁目","[旧石器時代][縄文時代（早期・中期）][近世]","集落","[縄文時代]住居　土坑　住居址　屋外埋甕","縄文土器　石器　石鏃　スタンプ形石器　大珠　ナイフ形石器",139.67833,35.74126865,TRUE
13120011800,13120,"118","こたけちょうにちょうめいせき","小竹町二丁目遺跡","練馬区 小竹二丁目","[旧石器時代][縄文時代（早期、中期、後期）][近世]","包蔵地","[縄文時代]土坑　柱穴","旧石器　縄文土器　石器（打製石斧　石鏃等）　陶磁器　土器　瓦　鉄釘　銭貨",139.6760859,35.74359656,TRUE
13120012000,13120,"120","なかむらみなみいせき","中村南遺跡","練馬区 中村南一丁目","[旧石器時代][縄文時代（中期）][古墳時代]","集落","[縄文時代]住居　竪穴住居址　屋外炉址　集石土坑　土坑　ピット","石器　縄文土器　土師器",139.6473182,35.7279641,TRUE
13120012700,13120,"127","","練馬区No.127遺跡","練馬区 豊玉南三丁目","[旧石器時代][縄文時代（中期〜後期）]","集落","[縄文時代]住居","石器　縄文土器",139.6505251,35.72902318,TRUE
13120012800,13120,"128","きたあらいいせき","北新井遺跡","練馬区 豊玉北二丁目","[旧石器時代][縄文時代（中期）][近世]","集落","[旧石器時代]石器ブロック[縄文時代]堅穴住居跡　屋外炉　[近世]溝状遺構","ナイフ形石器　縄文土器　土偶　耳栓　石鏃　石皿　打製石斧　磨製石斧　近世陶磁器",139.665527,35.734074,TRUE
13120012900,13120,"129","くりはらいせき","栗原遺跡","練馬区 氷川台一丁目","[旧石器時代][縄文時代（早期〜後期）][弥生時代（後期）][奈良時代][平安時代]","集落","[旧石器時代]礫群　[弥生時代][奈良時代][平安時代]住居","石器　縄文土器　弥生土器　土師器　須恵器　砥石　石製紡錘車",139.6725153,35.75546926,TRUE
13120013000,13120,"130","ねりまじょうあと","練馬城跡","練馬区 向山三丁目","[旧石器時代][縄文時代（早期〜中期）][弥生時代][古墳時代][奈良時代][平安時代][中世]","集落・城館","[旧石器時代]石器ブロック　[縄文時代]炉穴　集石　土坑　[古墳時代]住居[中世]堀切り","縄文土器　石器　土師器　須恵器",139.6458275,35.74255871,TRUE
13120014300,13120,"143","ひがしはやぶちいせき","東早淵遺跡","練馬区 早宮一丁目","[旧石器時代][縄文時代（早期〜前期）][弥生時代][古墳時代][平安時代]","集落","[縄文時代]住居　炉穴　土坑　ピット　[弥生時代]方形周溝墓　[古墳時代]住居","縄文土器　石器　弥生土器",139.6597437,35.75106414,TRUE
13120014600,13120,"146","くずはらいせきび−ちてん","葛原遺跡B地点","練馬区 関町北二丁目","[旧石器時代][縄文時代（早期〜前期）]","集落","[旧石器時代]礫群　[縄文時代]住居　炉穴","縄文土器　石器",139.5759071,35.72595174,TRUE
13120015000,13120,"150","あたごしたいせき","愛宕下遺跡","練馬区 大泉町四丁目","[旧石器時代][縄文時代（草創期〜後期）][弥生時代（後期）][近世]","集落","[旧石器時代]礫群　石器ブロック　[縄文時代]住居　陥穴　集石　竪穴住居","縄文土器　石器　陶磁器",139.5999673,35.75929407,TRUE
13120015100,13120,"151","おおいずみなかじまいせき","大泉中島遺跡","練馬区 大泉学園町二丁目","[旧石器時代][縄文時代（早期〜後期）]","集落","[旧石器時代]礫群　[縄文時代]住居　土坑　ピット","縄文土器　石器",139.5844902,35.75482149,TRUE
13120015200,13120,"152","みなみおはやしいせき","南於林遺跡","練馬区 豊玉中一丁目","[旧石器時代][縄文時代（早期〜晩期）][古墳時代]","包蔵地・その他（水田跡）","[古墳時代]ピット　溝状遺構　水田","縄文土器　石器　土師器",139.662674,35.730206,TRUE
13120015400,13120,"154","とやまいせきだい2ちてん","外山遺跡第2地点","練馬区 東大泉三丁目","[旧石器時代][縄文時代（草創期〜後期）][古墳時代][近世]","集落","[旧石器時代]石器ブロック　[縄文時代]炉穴","（縄文）縄文土器　石器　(古墳)土師器　須恵器　(近世)陶磁器",139.5902169,35.75333147,TRUE
13120015500,13120,"155","びくにばしいせきしーちてん","比丘尼橋遺跡Ｃ地点","練馬区 東大泉二丁目","[旧石器時代][縄文時代（早期〜後期）]","集落","[旧石器」遺物集中部　礫群　[縄文時代]炉穴　落とし穴　土坑　外[古代以降]土坑","黒曜石製剥片　縄文土器",139.5986626,35.75583901,TRUE
13201007304,13201,"73-4","うつぎだいいせきぐんでぃーちく","宇津木台遺跡群D地区","八王子市 宇津木町","[旧石器時代][奈良時代]","集落・塚（経塚）","[旧石器時代]]遺物集中 炭化物集中 [縄文時代]住居 集石 集石土坑 炉穴 焼土 陥し穴 土坑 [古墳時代]住居 土坑 円形土坑 [平安時代]住居 集石 土坑 円形土坑 井戸 [中世]井戸 地下式横穴 溝 [中世][近世]掘立柱建物 集石土坑 墓壙 配石","ナイフ形石器 尖頭器 石刃 台形石器 削器 礫器 敲石 磨石 石核 縄文土器 礫器 磨石 スタンプ形石器 土師器 須恵器 支脚 鉄器 紡錘車 土玉 陶磁器 燈明皿 砥石 石臼 農工具 金具 煙管 ガラス瓶 くし 仏具 数珠 碁石 石盤 土人形 銭貨 板碑 五輪塔 墓石 人骨",139.3594077,35.68621577,TRUE
13201009600,13201,"96","たんぎさかいいせき","丹木境遺跡","八王子市 丹木町二丁目","[旧石器時代][縄文時代（早期〜後期）][古墳時代][平安時代][中世][近世]","集落・城館","[縄文時代]竪穴状遺構　炉穴　陥穴　集石　土坑　[中世]腰曲和錠遺構　掘状遺構　館址状遺構　溝","縄文土器",139.323392,35.69210337,TRUE
13201010100,13201,"101","きたおおや・かすがだいいせき","北大谷・春日台遺跡","八王子市 大谷町　 宇津木町　 石川町","[旧石器時代][縄文時代（早期〜後期）][弥生時代][古墳時代][奈良時代][平安時代][近世]","集落","[縄文時代]集石　炉穴　土坑　[弥生時代]住居","縄文土器　打斧　磨石　弥生土器　土師器　須恵器　炭化材",139.3479008,35.67423993,TRUE
13201010800,13201,"108","にしのいせき","西野遺跡","八王子市 石川町","[旧石器時代][縄文時代（早期〜後期）][古墳時代][平安時代][近世]","集落","[縄文時代]住居　集石　焼土　土壙　[古墳時代]住居　溝状遺構　墓壙","掻器　縄文土器　打斧　磨斧　礫器　石槍　石鏃　掻器　石匙　石錐　石皿　磨石　凹石　敲石　砥石　剥片　耳飾　土偶　土製模造品　土師器　須恵器　支脚　鉄鏃　丸玉　陶磁器",139.3581504,35.67635206,TRUE
13201013900,13201,"139","かみやはら（くぬぎだだいに）いせき","神谷原(椚田第II）遺跡","八王子市 椚田町　 小比企町","[旧石器時代][縄文時代（早期〜中期）][弥生時代][古墳時代][奈良時代][平安時代]","集落","[縄文時代]住居　集石　小竪穴　炉穴　陥し穴　土坑　ピット　[弥生時代][古墳時代]住居　方形周溝墓　円形周溝墓","",139.314497,35.6365017,TRUE
13201014000,13201,"140","くぬぎだだいさんいせき","椚田第III遺跡","八王子市 椚田町","[旧石器時代][縄文時代（中期）][古墳時代][平安時代]","集落","[縄文時代]住居　敷石住居　集石　土坑　埋甕　配石　[古墳時代]住居","",139.3083173,35.63652945,TRUE
13201014800,13201,"148","てらだいせきぐんNo.4いせき","寺田遺跡群No.4遺跡","八王子市 寺田町","[旧石器時代][縄文時代（前期・後期）]","集落","[旧石器時代]]礫群　[縄文時代]ピット　溝","縄文土器　礫器　石皿　磨石",139.3052712,35.62251166,TRUE
13201015300,13201,"153","なめざか（みなみはちおうじちくNo.7）いせき","滑坂（南八王子地区No.7）遺跡","八王子市 みなみ野五丁目　 みなみ野六丁目","[旧石器時代][縄文時代（早期〜中期）][平安時代][近世]","集落","[縄文時代]住居　敷石住居　集石　焼土　土坑　方形周溝　[平安時代]住居　土坑　[近世]溝","ナイフ形石器　尖頭器　礫器　縄文土器　打斧　磨斧　石匙　石皿　磨石　凹石　剥片　土製円板",139.3210576,35.6316486,TRUE
13201015700,13201,"157","こびきむこうはら（みなみはちおうじちくNo.7）いせき","小比企向原（南八王子地区No.7）遺跡","八王子市 小比企町　 西片倉三丁目　 みなみ野五丁目　 みなみ野六丁目","[旧石器時代][縄文時代（早期〜後期）][弥生時代][古墳時代][奈良時代][平安時代][近世]","集落","[縄文時代]住居　敷石住居　竪穴状遺構　集石　炉穴　土坑　埋甕　配石　[古墳時代]住居　土坑　[奈良時代]住居　掘立柱建物　[平安時代]住居　道路状遺構　[近世]溝状遺構　道路状遺構　[時代不明]住居","尖頭器　細石刃　縄文土器　打斧　磨斧　石鏃　石匙　石皿　磨石　凹石　有頭石棒　土偶　土鈴　土師器　須恵器",139.3222592,35.6351645,TRUE
13201016400,13201,"164","かたくら（みなみはちおうじちくNo.2）いせき","片倉（南八王子地区No.2）遺跡","八王子市 片倉町","[旧石器時代][縄文時代（早期〜後期）][弥生時代][古墳時代][奈良時代][平安時代][中世][近世]","集落","[時代不明]住居","ナイフ形石器　刃器　縄文土器　打斧　磨斧　土師器　陶磁器",139.334502,35.63893341,TRUE
13201016600,13201,"166","ごうだばら（みなみはちおうじちくNo.12）いせき","郷田原(南八王子地区No.12）遺跡","八王子市 西片倉二丁目　 西方倉三丁目　 みなみ野一丁目","[旧石器時代][縄文時代（早期〜後期）][弥生時代][古墳時代][奈良時代][平安時代][中世][近世]","集落","[縄文時代]住居　柄鏡形住居　小堅穴　炉穴　埋甕　集石　土坑　[弥生時代]住居　[古墳時代]住居　[奈良時代]住居　[中世]地下式坑　[近世]胞衣埋納","旧石器　縄文土器　石器　土製品　土師器　須恵器　石製品　胞衣容器",139.3302584,35.63549962,TRUE
13201021800,13201,"218","たまにゅーたうんNo.309いせき","多摩ニュータウンNo.309遺跡","八王子市 鑓水町","[旧石器時代][縄文時代（早期〜後期）][平安時代][近世]","集落","[旧石器時代]]遺物集中地点　[縄文時代]住居　集石　炉穴　焼土　土坑　[平安時代]土坑　墓壙　[近世]土坑　貯蔵穴　溝　道路","ナイフ形石器　尖頭器　掻器　石核　剥片　縄文土器　打斧　礫器　石鏃　石皿　磨石　スタンプ形石器　抉入磨石　土師器　須恵器　陶磁器",139.3566351,35.61317426,TRUE
13201022000,13201,"220","たまにゅーたうんNo.320いせき","多摩ニュータウンNo.320遺跡","八王子市 鑓水","[旧石器時代][縄文時代（早期〜中期）][平安時代][近世]","集落","[縄文時代]集石　土坑　[平安時代]住居　土坑　[近世]建物","石器　縄文土器　打斧　石鏃　磨石　土師器　須恵器　　瓦　陶磁器　煙管　銭貨",139.3479319,35.61260208,TRUE
13201022600,13201,"226","たまにゅーたうんNo.231いせき","多摩ニュータウンNo.231遺跡","八王子市 鑓水","[旧石器時代][縄文時代（早期〜中期）][平安時代]","包蔵地","[縄文時代]集石　土坑　[平安時代]竪穴状遺構　土坑　工房","尖頭器　剥片　礫器　石鏃　石皿　スタンプ形石器　加工礫　石核　土師器　須恵器　陶器（灰釉）　鉄製品　瓦　炭化材",139.3531507,35.60922709,TRUE
13201024100,13201,"241","たまにゅーたうんNo.304いせき","多摩ニュータウンNo.304遺跡","八王子市 鑓水","[旧石器時代][縄文時代（前期〜後期）][弥生時代（中期）][古墳時代][奈良時代][平安時代][中世]","集落","[縄文時代]敷石住居　集石　陥し穴　土坑　[古墳時代]?[中世]土坑　[平安時代]住居　焼成坑　[平安時代][中世]土坑","ナイフ形石器　礫器　縄文土器　打斧　礫器　有舌尖頭器　削器　石皿　磨石　両面加工石　器　弥生土器　土師器　須恵器　土師質土器　陶器（灰釉）　砥石　鉄製品　瓦",139.3622479,35.6096875,TRUE
13201024900,13201,"249","たまにゅーたうんNo.301いせき","多摩ニュータウンNo.301遺跡","八王子市 鑓水","[旧石器時代][縄文時代（早期〜後期）][平安時代]","集落","[旧石器時代]]遺物集中地点　[縄文時代]土坑　[平安時代]住居　土坑","尖頭器　細石刃　細石核　掻器　剥片　縄文土器　石器　土師器　須恵器　陶器",139.3638482,35.60967527,TRUE
13201025800,13201,"258","たまにゅーたうんNo.213いせき","多摩ニュータウンNo.213遺跡","八王子市 上柚木","[旧石器時代][縄文時代（早期〜後期）][古墳時代][奈良時代][平安時代][中世][近世]","集落","[旧石器時代]]石器製作址　土坑　[近世]建物　柱穴　土坑　室　階段　畝　配石　段切状遺構　削平面　溝　墓壙","ナイフ形石器　掻器　石核　剥片　炭化材　縄文土器　打斧　礫器　尖頭器　石鏃　石皿　磨石　凹石　土師器　須恵器　瓦　陶磁器　舶載陶磁器　硯　砥石　金属製品　銭貨　人骨",139.3653004,35.61815663,TRUE
13201026600,13201,"266","たまにゅーたうんNo.488いせき","多摩ニュータウンNo.488遺跡","八王子市 上柚木","[旧石器時代][縄文時代（早期〜中期）][平安時代][近世]","集落","[旧石器時代]]遺物集中地点　[縄文時代]土坑　[近世]土坑　溝","掻器　削器　彫器　石核　剥片　礫　炭化物　縄文土器　石器　土師器　須恵器　陶磁器",139.3707785,35.62110702,TRUE
13201026700,13201,"267","たまにゅーたうんNo.177いせき","多摩ニュータウンNo.177遺跡","八王子市 上柚木","[旧石器時代][縄文時代（早期〜中期）][中世][近世]","包蔵地","[縄文時代]集石　土坑　[近世]土坑　炭窯","ナイフ形石器　縄文土器　打斧　礫器　板碑　陶磁器　瓦質土器　鉄鎌",139.3727011,35.62159541,TRUE
13201026800,13201,"268","たまにゅーたうんNo.298いせき","多摩ニュータウンNo.298遺跡","八王子市 上柚木","[旧石器時代][縄文時代（早期〜中期）][奈良時代][平安時代][近世]","包蔵地","[縄文時代]集石　土坑　[奈良時代][平安時代]土坑　[時代不明]焼土","縄文土器　石器　陶磁器",139.3719926,35.6209605,TRUE
13201026900,13201,"269","たまにゅーたうんNo.489いせき","多摩ニュータウンNo.489遺跡","八王子市 上柚木","[旧石器時代][縄文時代（前期）][近世]","包蔵地","[縄文時代]土坑　[近世]溝","剥片　縄文土器　打斧　陶磁器",139.371306,35.62075503,TRUE
13201027000,13201,"270","たまにゅーたうんNo.491いせき","多摩ニュータウンNo.491遺跡","八王子市 上柚木","[旧石器時代][縄文時代（早期〜中期）][奈良時代][平安時代][近世]","包蔵地","[縄文時代]集石　土坑　[奈良時代][平安時代]土坑　[近世]溝　[時代不明]焼土","剥片　縄文土器　打斧　土師器　陶磁器",139.3709403,35.62017484,TRUE
13201027100,13201,"271","たまにゅーたうんNo.167いせき","多摩ニュータウンNo.167遺跡","八王子市 下柚木","[旧石器時代][縄文時代（前期）][平安時代][近世]","包蔵地","[旧石器時代]]ユニット [縄文時代]集石 土坑 [近世]土坑 集石 井戸","ナイフ形石器 掻器 削器 彫器 石核 縄文土器 土師質土器 陶磁器 銭貨",139.3759485,35.6223473,TRUE
13201027200,13201,"272","たまにゅーたうんNo.174いせき","多摩ニュータウンNo.174遺跡","八王子市 上柚木","[旧石器時代][縄文時代（早期〜中期）][古墳時代][奈良時代][平安時代]","集落","[縄文時代]土坑　集石土坑　[平安時代]住居　[近世]炭窯","縄文土器　打斧　礫器　石鏃　石匙　石錘　石皿　磨石　凹石　土製耳飾　土師器　須恵器　陶磁器",139.3737859,35.62130433,TRUE
13201027500,13201,"275","たまにゅーたうんNo.496いせき","多摩ニュータウンNo.496遺跡","八王子市 上柚木　 下柚木","[旧石器時代][縄文時代（早期〜中期）][奈良時代][平安時代][中世][近世]","集落","[旧石器時代]]遺物集中地点　[縄文時代]住居　集石　土坑　[平安時代][中世]ピット　土坑　集石　井戸　[中世][近世]建物　竪穴状遺構　ピット　土坑　地下式土坑　焼土　井戸　段切状遺構　溝","ナイフ形石器　尖頭器　掻器　敲石　石核　剥片　縄文土器　打斧　礫器　石鏃　掻器　石皿　須恵器　陶磁器　土師質土器　瓦器　舶載陶磁器　鉄製品　砥石　石臼　編み石　銭貨",139.3780428,35.6225287,TRUE
13201027600,13201,"276","たまにゅーたうんNo.490いせき","多摩ニュータウンNo.490遺跡","八王子市 上柚木","[旧石器時代][縄文時代（早期〜中期）][古墳時代][奈良時代][平安時代][近世]","包蔵地","[縄文時代]集石　土坑　[奈良時代][平安時代]土坑　[近世]炭窯　溝　[時代不明]住居　焼土　土坑","剥片　縄文土器　石器　土師器　陶磁器　擂鉢",139.371951,35.62018999,TRUE
13201029700,13201,"297","たまにゅーたうんNo.493いせき","多摩ニュータウンNo.493遺跡","八王子市 上柚木","[旧石器時代][縄文時代（前期）][奈良時代][平安時代][中世][近世]","集落","[縄文時代]集石　焼土　土坑　[奈良時代][平安時代]住居　[平安時代][中世]水溜め　[近世]ピット　井戸　溝　[時代不明]土坑","剥片　縄文土器　石器　土師器　須恵器　鉄斧　鉄鏃　木製品　陶磁器　土人形",139.3793244,35.62359721,TRUE
13201029800,13201,"298","たまにゅーたうんNo.492いせき","多摩ニュータウンNo.492遺跡","八王子市 上柚木　 下柚木","[旧石器時代][縄文時代（前期）][縄文時代（中期）][近世]","集落","[旧石器時代]]礫群　[縄文時代]土坑　[近世]建物　ピット　土坑　室　井戸　段切状遺構　溝","石器　縄文土器　石器　陶磁器　砥石　銭貨",139.3803182,35.62368536,TRUE
13201030000,13201,"300","たまにゅーたうんNo.115いせき","多摩ニュータウンNo.115遺跡","八王子市 下柚木","[旧石器時代][縄文時代（早期〜中期）][奈良時代][平安時代][中世][近世]","集落","[旧石器時代]]礫群　[縄文時代]住居　集石　土坑　[近世]土坑　井戸　炭窯　溝","尖頭器　縄文土器　石器　陶磁器　カワラケ",139.3806864,35.62418919,TRUE
13201030100,13201,"301","たまにゅーたうんNo.113いせき","多摩ニュータウンNo.113遺跡","八王子市 下柚木","[旧石器時代][縄文時代（前期〜中期）][奈良時代][平安時代][中世][近世]","集落・社寺","[旧石器時代]]礫群　[縄文時代]住居　集石　炉　土坑　配石　[奈良時代][平安時代]住居　土坑　[中世]ピット　集石　土坑　井戸　土坑　地下式横穴　炭窯　墓壙　[近世]土坑　井戸　段切状遺構　溝","ナイフ形石器　尖頭器　剥片　縄文土器　打斧　磨斧　石鏃　土師器　須恵器　鉄斧　刀子　陶磁器　カワラケ　和鏡　銭貨",139.381579,35.62494268,TRUE
13201030600,13201,"306","たまにゅーたうんNo.106いせき","多摩ニュータウンNo.106遺跡","八王子市 堀之内　 越野","[旧石器時代][縄文時代（前期〜中期）][奈良時代][平安時代][近世]","集落","[縄文時代]集石　土坑　[奈良時代][平安時代]住居　土坑　溝　[近世]土坑　炭窯　溝　道路状遺構","掻器　縄文土器　打斧　磨斧　礫器　石鏃　石皿　耳飾　土師器　須恵器　陶器（灰釉）　鉄鏃　陶磁器",139.3928959,35.63136399,TRUE
13201030700,13201,"307","たまにゅーたうんNo.433いせき","多摩ニュータウンNo.433遺跡","八王子市 越野","[旧石器時代][縄文時代（早期〜中期）][奈良時代][平安時代][中世][近世]","集落","[縄文時代]住居　土坑　[奈良時代][平安時代]土坑　[中世][近世]建物　柱穴群　焼土　井戸　地下式土坑　墓塚　段切り　溝","石核　剥片　縄文土器　石器　板碑　陶磁器　砥石　桶　曲物　漆器",139.3940519,35.62817418,TRUE
13201030800,13201,"308","たまにゅーたうんNo.105いせき","多摩ニュータウンNo.105遺跡","八王子市 越野　 堀之内","[旧石器時代][縄文時代（早期〜後期）][古墳時代][平安時代][中世][近世]","集落・塚","[旧石器時代]]礫群　[縄文時代]住居　集石　焼土　陥し穴　土坑　[古墳時代]土坑　[平安時代]住居　火葬墓　[中世][近世]建物　竪穴状遺構　地下室　地下式土坑　焼土　井戸　炭窯　[近世]建物　土坑　池　井戸　暗渠　段切状遺構　溝　道　墓壙","ナイフ形石器　尖頭器　敲器　剥片　縄文土器　打斧　磨斧　礫器　磨製尖頭器　石鏃　掻器　石皿　磨石　スタンプ形石器　土製円板　ミニチュア土器　土師器　陶器　釘　陶磁器　土師質土器　舶載陶磁器　板碑　瓦質土器　砥石　石臼　硯　鉄製品　柄鏡　煙管　桶　人骨",139.3945743,35.62913746,TRUE
13201030900,13201,"309","たまにゅーたうんNo.432いせき","多摩ニュータウンNo.432遺跡","八王子市 越野","[旧石器時代][縄文時代（早期〜中期）][奈良時代][平安時代][中世][近世]","集落","[縄文時代]住居　集石　焼土　土坑　[奈良時代][平安時代]住居　火葬墓　[奈良時代][平安時代][中世]土坑　[中世]堀　[近世]馬埋設遺構","石器　縄文土器　石器　土師器　須恵器　陶磁器　鉄製品",139.391271,35.63153676,TRUE
13201031100,13201,"311","たまにゅーたうんNo.394いせき","多摩ニュータウンNo.394遺跡","八王子市 南大沢","[旧石器時代][縄文時代（早期〜中期）][奈良時代][平安時代][中世][近世]","包蔵地","[時代不明]集石状遺構　炭窯　段状遺構　溝状遺構","尖頭器　縄文土器　打斧　土師器　陶磁器",139.3830498,35.61800697,TRUE
13201032700,13201,"327","たまにゅーたうんNo.406いせき","多摩ニュータウンNo.406遺跡","八王子市 南大沢","[旧石器時代][縄文時代（早期〜中期）][弥生時代][奈良時代][平安時代][近世]","集落","[縄文時代]住居　集石　炉　炉穴　焼土　土坑　[奈良時代][平安時代]土坑　[近世]土坑　室　炭窯","剥片　縄文土器　石器　土製品　弥生土器",139.3748338,35.6132013,TRUE
13201032900,13201,"329","たまにゅーたうん No.352いせき","多摩ニュータウンNo.352遺跡","八王子市 南大沢","[旧石器時代][縄文時代（早期〜中期）][奈良時代][平安時代][中世][近世]","集落","[縄文時代]土坑　[奈良時代][平安時代]住居　炉　焼土　土坑　[中世]地下式土坑　[近世]掘立柱建物　土坑　井戸　炭窯　墓","尖頭器　縄文土器　石器　土師器　須恵器　陶磁器　鉄器　鉄鎌　石臼　銭貨　炭化物",139.3736002,35.61338142,TRUE
13201033000,13201,"330","たまにゅーたうんNo.355いせき","多摩ニュータウンNo.355遺跡","八王子市 南大沢","[旧石器時代][縄文時代（早期〜前期）][奈良時代][平安時代]","集落","[縄文時代]集石　土坑　[奈良時代]住居","石核　剥片　縄文土器　石器　土師器　鉄製品",139.3710285,35.611689,TRUE
13201033800,13201,"338","たまにゅーたうんNo.144いせき","多摩ニュータウンNo.144遺跡","八王子市 南大沢","[旧石器時代][縄文時代（早期〜中期）][奈良時代][平安時代][中世][近世]","集落","[縄文時代]土坑　[平安時代]住居　円形土坑　[近世]炭窯","ナイフ形石器　尖頭器　縄文土器　石器　土師器　須恵器　鉄製品　土製品",139.3790646,35.60725164,TRUE
13201034000,13201,"340","たまにゅーたうんNo.206いせき","多摩ニュータウンNo.206遺跡","八王子市 南大沢","[旧石器時代][縄文時代（早期〜中期）][古墳時代][奈良時代][平安時代]","集落","[縄文時代]集石　土坑　[古墳時代]住居　土坑　[平安時代]住居　土坑　配石","石器　縄文土器　石器　土師器　須恵器　陶磁器",139.3795585,35.60549376,TRUE
13201034400,13201,"344","たまにゅーたうんNo.139いせき","多摩ニュータウンNo.139遺跡","八王子市 南大沢","[旧石器時代][縄文時代（早期・中期）]","集落","[縄文時代]住居　土坑　配石　[時代不明]落込み","剥片　縄文土器　打斧　磨斧　石鏃　石匙　石錘　石皿　磨石　凹石　敲石　土製円板　耳飾　土玉　土偶",139.3824244,35.61370451,TRUE
13201034700,13201,"347","たまにゅーたうんNo.300いせき","多摩ニュータウンNo.300遺跡","八王子市 南大沢","[旧石器時代][縄文時代（早期・中期）]","集落","[縄文時代]住居　土坑　配石　[時代不明]落込み","剥片　縄文土器　打斧　磨斧　石鏃　石匙　石錘　石皿　磨石　凹石　敲石　土製円板　耳飾　土玉　土偶",139.3829877,35.61428982,TRUE
13201035600,13201,"356","たまにゅーたうんNo.207いせき","多摩ニュータウンNo.207遺跡","八王子市 南大沢","[旧石器時代][縄文時代（早期〜後期）][弥生時代][古墳時代][奈良時代][平安時代][近世]","集落","[縄文時代]住居　集石　土坑　[弥生時代]焼土　[古墳時代]住居　土坑　[平安時代]土坑　[近世]土坑","尖頭器　縄文土器　石器　弥生土器　土師器　須恵器",139.3801593,35.60345604,TRUE
13201036600,13201,"366","たまにゅーたうんNo.125・126（まつきやしきあと）いせき","多摩ニュータウンNo.125・126（松木屋敷跡）遺跡","八王子市 松木","[旧石器時代][縄文時代（草創期・前期〜晩期）][古墳時代][奈良時代][平安時代][中世][近世]","集落・城館・その他の墓","[旧石器時代]]遺物集中地点　礫群　[縄文時代]住居　集石土坑　[古墳時代]住居　井戸　[奈良時代][平安時代]住居　建物　焼土　土坑　溝　[中世][近世]建物　竪穴状遺構　ピット群　土坑　地下式土坑　地下室　墓壙　溝","ナイフ形石器　尖頭器　掻器　彫器　磨石　石核　打面再生剥片　剥片　縄文土器　打斧　礫器　尖頭器　有舌尖頭器　石鏃　掻器　石皿　磨石　凹石　石核　円板　けつ状耳飾　陶磁器　土師質土器　瓦質土器　舶載陶磁器　石製品　板碑　宝篋印塔　宝篋印塔",139.3935576,35.62377666,TRUE
13201036800,13201,"368","たまにゅーたうんNo.402いせき","多摩ニュータウンNo.402遺跡","八王子市 松木","[旧石器時代][縄文時代（早期〜中期）][古墳時代][奈良時代][平安時代][近世]","集落","[旧石器時代]]遺物集中地点　[縄文時代]住居　土坑　[奈良時代][平安時代]土坑　[近世]土坑　炭窯","ナイフ形石器　尖頭器　掻器　石核　剥片　礫　縄文土器　打斧　礫器　石鏃　石錐　磨石　スタンプ形石器　土師器　須恵器　陶磁器",139.3920191,35.62191102,TRUE
13201036900,13201,"369","たまにゅーたうんNo.401いせき","多摩ニュータウンNo.401遺跡","八王子市 松木","[旧石器時代][縄文時代（早期〜中期）][平安時代][近世]","集落","[旧石器時代]]遺物集中地点　礫群　[縄文時代]住居　土坑　[平安時代]集石　溝　[近世]掘立柱建物　柱穴群　土坑　室　井戸　溝","尖頭器　石核　剥片　縄文土器　打斧　磨斧　礫器　石鏃　石皿　磨石　土師器　須恵器　陶磁器　瓦　石製品　鉄製品　木製品",139.3926825,35.62275799,TRUE
13201037000,13201,"370","たまにゅーたうんNo.400いせき","多摩ニュータウンNo.400遺跡","八王子市 松木","[旧石器時代][縄文時代（早期・中期）][奈良時代][平安時代][中世]","集落","[旧石器時代]]ユニット　[縄文時代]炉穴　土坑　[奈良時代][平安時代]住居　土坑　[中世]地下式土坑","ナイフ形石器　尖頭器　細石核　細石刃　掻器　削器　縄文土器　石器　土師器　須恵器　陶磁器　鉄器",139.391429,35.62049749,TRUE
13201037200,13201,"372","たまにゅーたうんNo.393いせき","多摩ニュータウンNo.393遺跡","八王子市 松木","[旧石器時代][縄文時代（前期〜中期）][中世][近世]","集落","[旧石器時代]]ユニット　[縄文時代]集石　土坑　[中世][近世]竪穴状遺構　地下式土坑　溝","尖頭器　剥片　礫　縄文土器　石器　陶磁器　鉄滓",139.3898794,35.61902245,TRUE
13201037800,13201,"378","たまにゅーたうんNo.396いせき","多摩ニュータウンNo.396遺跡","八王子市 松木","[旧石器時代][縄文時代（早期〜中期）][奈良時代][平安時代][中世][近世]","集落","[旧石器時代]]ユニット　[縄文時代]集石　焼土　土坑　[平安時代]住居　土坑　[中世]地下式土坑","石器　縄文土器　石器　土師器　須恵器　陶器（灰釉）　陶磁器",139.3878649,35.61793403,TRUE
13201038200,13201,"382","たまにゅーたうんNo.287・290・405いせき","多摩ニュータウンNo.287・290・405遺跡","八王子市 松木","［旧石器時代］[縄文時代（草創期〜後期）][弥生時代（中期）][奈良時代][平安時代][中世][近世]","集落・城館","［旧石器時代］遺物集中地点　礫群　［縄文時代］集石　集石土坑　陥し穴　土坑　[奈良時代]?[平安時代]住居　土坑　[中世]?[近世]建物　竪穴状遺構　ピット　土坑　土蔵状遺構　焼土　池　井戸　炭窯　段切状遺構　基壇状遺構　溝　道路　墓壙　集石墓　石組　配石","ナイフ形石器　尖頭器　削器　彫器　剥片　炭化物　縄文土器　打斧　磨斧　礫器　石鏃　石匙　石皿　磨石　敲石　台石　骨角器　弥生土器　土師器　須恵器　鉄製品　紡錘車　土鈴　飾金具　瓦　陶磁器　カワラケ　舶載陶磁器　陶鈴　石製品　土錘　漆器桶　木製品　碁石　銭貨　煙管　板碑　宝篋印塔　宝塔　写経石　人歯",139.3892553,35.62578506,TRUE
13201038600,13201,"386","たまにゅーたうんNo.512いせき","多摩ニュータウンNo.512遺跡","八王子市 松木","[旧石器時代][縄文時代（早期〜中期）][弥生時代][平安時代][近世]","集落","[旧石器時代]]ユニット　[縄文時代]住居　集石　土坑　土器埋設土坑　[平安時代]住居　土坑　[近世]焼土　炭窯","ナイフ形石器　尖頭器　掻器　石核　剥片　植物遺体　縄文土器　石器　有孔磨製石鏃　土師器　須恵器　土師質土器　砥石　鉄製品　紡錘車　瓦",139.3876933,35.62383664,TRUE
13201038900,13201,"389","たまにゅーたうんNo.107いせき","多摩ニュータウンNo.107遺跡","八王子市 松木","[旧石器時代][縄文時代（早期〜後期）][古墳時代][奈良時代][平安時代][中世][近世]","集落・城館","[縄文時代]住居　集石　土坑　[古墳時代]土坑　溝　[平安時代]?[中世]住居　ピット　土坑　溝　[中世]建物　墓　段切状遺構　[近世]土坑　集石　水路（水車）　炭窯　溝　濠状遺構（道）","縄文土器　打斧　礫器　石鏃　石皿　磨石　スタンプ形石器　敲石　土錘　耳飾　垂飾　土偶　土師器　須恵器　鉄製品　炭化種子　陶磁器　土師質土器　舶載陶磁器　火鉢　金属製品　砥石　瓦　板碑　石臼　杭板",139.3882042,35.62683922,TRUE
13201039300,13201,"393","たまにゅーたうんNo.388いせき","多摩ニュータウンNo.388遺跡","八王子市 松木","[旧石器時代][縄文時代（早期〜後期）][弥生時代][古墳時代][奈良時代][平安時代][中世][近世]","集落","[旧石器時代]]遺物集中地点 [縄文時代]土坑 [古墳時代]土坑 [奈良時代]住居 [平安時代]住居 土坑 [中世][近世]建物 柱穴 土坑 地下式土坑 井戸 削平面 溝","ナイフ形石器 尖頭器 細石刃 細石刃核 掻器 削器 彫器 打斧 礫器 敲石 磨石 剥片 礫 縄文土器 打斧 礫器 尖頭器 石鏃 石皿 磨石 土師器 須恵器 砥石 鉄製品 紡錘車 陶磁器 板碑 銭貨 瓦質土器 土製品 瓦 石製品 金属製品",139.3963559,35.62458597,TRUE
13201039700,13201,"397","たまにゅーたうんNo.799えーいせき","多摩ニュータウンNo.799A遺跡","八王子市 越野","[旧石器時代][縄文時代（早期〜中期）][古墳時代][奈良時代][平安時代][中世][近世]","集落","[縄文時代]集石 集石土坑 土坑 [古墳時代]焼土 [中世]掘立柱建物 竪穴状遺構 井戸 土坑 地下式土坑 墓壙 溝 [近世]建物 竪穴状遺構 ピット 土坑 池 焼土 井戸 段切状遺構 溝 道路状遺構","ナイフ形石器 尖頭器 石核 縄文土器 石器 炭化物 土師器 須恵器 陶器（灰釉） 舶載陶磁器 陶磁器 カワラケ 土師質土器 茶臼 土製品 石製品 金属製品 木製品 ガラス製品 板碑 五輪塔 銭貨",139.3910135,35.63019733,TRUE
13201040000,13201,"400","たまにゅーたうんNo.72・795いせき","多摩ニュータウンNo.72・795遺跡","八王子市 堀之内","[旧石器時代][縄文時代（前期〜中期）][奈良時代][平安時代][中世]［近世］","包蔵地・集落","[旧石器時代]]遺物集中地点　[縄文時代]土坑　住居跡　埋設土器　方形柱穴列　集石　墓壙　陥穴土坑　焼土跡　炉穴　埋甕　ピット群　配石　[古墳時代]土坑　溝　[奈良時代]住居跡　建物跡　溝　[平安時代]土坑　住居跡　[中世]土坑　水田　[近世]竪穴状遺構　井戸　階段状　土坑　[古代]土坑　地下式坑　建物跡　溝　竪穴状遺構","尖頭器　削器　剥片　掻器　石核　石斧素材　局部磨製石斧　台石　槍先形尖頭器　スクレイパー　ハンマー　打製石斧未製品　ナイフ形石器　細石核　礫器　石核　ポイント　打製石斧　磨製石斧　縄文土器　石棒　土偶　土製品　土鈴　弥生土器　土師器　須恵器　灰釉陶器　鉄製品　土製紡錘車　帯金具　銀環　陶磁器　瓦器　羽釡　石臼　銭貨　器台　ミニュチュア土器　耳飾　垂飾　仮面状　三角柱状　鍬形土",139.3996898,35.62983028,TRUE
13201040100,13201,"401","たまにゅーたうんNo.446いせき","多摩ニュータウンNo.446遺跡","八王子市 東中野","[旧石器時代][縄文時代（早期〜後期）][古墳時代][奈良時代][平安時代][中世]［近世］","集落","[縄文時代]住居　敷石住居　集石　炉　土坑　[古墳時代]住居　[奈良時代][平安時代]住居　土坑　[中世]地下式土坑","ナイフ形石器　細石刃　縄文土器　石器　垂飾　土偶　ミニチュア土器　土師器　須恵器　円筒埴輪　板碑",139.4024807,35.63351068,TRUE
13201041100,13201,"411","たまにゅーたうんNo.420いせき","多摩ニュータウンNo.420遺跡","八王子市 堀之内","[旧石器時代][縄文時代（早期〜中期）][奈良時代][平安時代][近世]","集落","[縄文時代]集石　土坑　[平安時代]住居　土坑　[近世]土坑　山砂採掘坑　炭窯","石器　縄文土器　石器　土師器　須恵器　陶磁器",139.4005516,35.62401126,TRUE
13201041800,13201,"418","たまにゅーたうんNo.421いせき","多摩ニュータウンNo.421遺跡","八王子市 堀之内","[旧石器時代][縄文時代（早期〜後期）][弥生時代（中期）][古墳時代][奈良時代][平安時代][中世][近世]","集落","[旧石器時代]]ユニット　[縄文時代]集石　土坑　埋甕　[奈良時代][平安時代]住居　建物　土坑　[中世]井戸　[中世][近世]柱穴群　溝　[近世]柱穴群　井戸　墓群","ナイフ形石器　尖頭器　礫器　石核　剥片　縄文土器　石器　弥生土器　土師器　須恵器　陶器（灰釉）　鉄製品　円面硯　土製品　陶磁器　土器　舶載陶磁器　石製品　銅製品　煙管　板碑　銭貨　人骨",139.4003084,35.62568867,TRUE
13201042000,13201,"420","たまにゅーたうんNo.424いせき","多摩ニュータウンNo.424遺跡","八王子市 堀之内","[旧石器時代][縄文時代（早期〜後期）][古墳時代][奈良時代][平安時代][中世][近世]","集落","[縄文時代]住居　集石　土坑　埋甕　[古墳時代]ピット　井戸　溝　[奈良時代][平安時代]住居　土坑　[中世][近世]建物　柱穴群　井戸　土坑　炭窯　段切状遺構　溝　道路状遺構","ナイフ形石器　尖頭器　有茎尖頭器　掻器　削器　礫器　剥片　縄文土器　石器　硬玉製垂飾　土製品　土師器　須恵器　砥石　鉄製品　紡錘車　滑石製紡錘車　円面硯　陶磁器　土師質土器　舶載陶磁器　砥石　石臼　瓦　木製品　銭貨",139.4061105,35.62778164,TRUE
13201042100,13201,"421","たまにゅーたうんNo.426いせき","堀ノ内（多摩ニュータウンNo.426）遺跡","八王子市 堀之内","[旧石器時代][縄文時代（草創期〜晩期）][弥生時代（中期）][古墳時代][奈良時代][平安時代][中世][近世]","集落","[旧石器時代]]ユニット　[縄文時代]住居　集石　集石土坑　炉穴　焼土　土坑　墓壙　[古墳時代]住居　土坑　[奈良時代][平安時代]住居　土坑　[中世]建物　竪穴状遺構　ピット　柱穴列　集石　井戸　土坑　地下式土坑　溝　[近世]建物　柱穴群　土坑　井戸　炭窯　段切状遺構　溝　墓壙","ナイフ形石器　尖頭器　有茎尖頭器　細石刃　掻器　削器　石錐　石斧　礫器　敲石　台石　石核　剥片　原石　礫　縄文土器　石槍　有茎尖頭器　石器　土製円板　弥生土器　土師器　須恵器　支脚　鉄製品　石製品　紡錘車　炭化材　陶磁器　土師質土器　陶器（灰釉・緑釉）　舶載陶磁器　石臼　瓦　銭貨　骨粉",139.4063912,35.62935982,TRUE
13201042400,13201,"424","たまにゅーたうんNo.392いせき","多摩ニュータウンNo.392遺跡","八王子市 別所","[旧石器時代][縄文時代（前期）][奈良時代][平安時代][近世]","包蔵地","[縄文時代]土坑　[近世]竪穴状遺構　土坑　炭窯","縄文土器　石器　土師器　陶磁器",139.3961083,35.62155377,TRUE
13201043500,13201,"435","たまにゅーたうんNo.387いせき","多摩ニュータウンNo.387遺跡","八王子市 別所　 堀之内","[旧石器時代][縄文時代（早期〜後期）][弥生時代（中期）][古墳時代][奈良時代][平安時代][中世][近世]","集落","[縄文時代]土坑　[古墳時代]土坑　[奈良時代]住居　集石　[平安時代]住居　[中世]ピット　井戸　土坑　溝　[中世]?[近世]室　井戸　溝","ナイフ形石器　槍先形尖頭器　剥片　縄文土器　打斧　磨斧　礫器　石鏃　石匙　土版　弥生土器　管玉　土師器　須恵器　陶器（灰釉・緑釉）　紡錘車　瓦　陶磁器　須恵質土器　石製品　板碑　銭貨　燈明具",139.3982318,35.62541471,TRUE
13201045200,13201,"452","たまにゅーたうんNo.59いせき","多摩ニュータウンNo.59遺跡","八王子市 鹿島","[旧石器時代][縄文時代（早期・中期）]","包蔵地","","剥片　縄文土器　打斧　磨斧　石鏃",139.4268523,35.63526811,TRUE
13201047200,13201,"472","","八王子市No.472遺跡","八王子市 丹木町二丁目","[旧石器時代][縄文時代（早期〜中期）][中世][近世]","集落","","縄文土器",139.3269438,35.69314715,TRUE
13201047700,13201,"477","うめつぼ・おきのまえいせき","梅坪・沖の前遺跡","八王子市 梅坪町","[旧石器時代][縄文時代（早期〜後期）][古墳時代][奈良時代][平安時代][中世][近世]","集落","[旧石器時代]]ブロック　[縄文時代]土坑　炉穴　埋甕　[古墳]住居　土坑　[平安時代]住居　土坑　[近世]土坑　[時代不明]溝","旧石器（加工痕のある剥片・礫器）　縄文土器　石器　土師器　土製品",139.3389432,35.68568121,TRUE
13201051300,13201,"513","くぬぎだだい4いせき","椚田第4遺跡","八王子市 椚田町　 館町","[旧石器時代][縄文時代（早期〜晩期）][弥生時代][古墳時代][平安時代]","集落","[縄文時代]住居　配石　集石　土坑　埋甕　[弥生時代]再葬墓　[古墳時代]住居　[平安時代]住居","縄文土器　石器　土製品　土偶　弥生土器　土師器　須恵器　瓦　旧石器",139.306841,35.63627833,TRUE
13201051700,13201,"517","しもてらだいせき","下寺田遺跡","八王子市 寺田町","[旧石器時代][縄文時代（早期〜後期）][弥生時代][古墳時代][奈良時代][平安時代][近世]","集落","[旧石器時代]]配石遺構　[縄文時代]住居　集石　土坑　[古墳時代]住居　[奈良時代]住居　[平安時代]住居　[近世]土坑","ナイフ形石器　剥片　縄文土器　石斧　磨斧　礫器　石鏃　掻器　削器　石匙　石皿　磨石　凹石　敲石　剥片　土製円板　弥生土器　土師器　須恵器　刀子　竹籠状炭化物",139.3121033,35.63163697,TRUE
13201052400,13201,"524","たまにゅーたうんNo.527いせき","多摩ニュータウンNo.527遺跡","八王子市 南大沢","[旧石器時代][縄文時代（早期〜後期）][古墳時代][奈良時代][平安時代][中世][近世]","包蔵地","[縄文時代]集石　土坑　[古墳時代]土坑　[平安時代][中世]土坑　[近世]炭窯　溝","掻器　剥片　縄文土器　打斧　磨斧　礫器　石鏃　石匙　石皿　磨石　けつ状耳飾　土師器　陶磁器",139.3846672,35.60300226,TRUE
13201061400,13201,"614","たまにゅーたうんNo.617いせき","多摩ニュータウンNo.617遺跡","八王子市 松木","[旧石器時代][縄文時代（早期〜前期）][奈良時代][平安時代][中世][近世]","集落","[旧石器時代]]ユニット　礫群　[縄文時代]土坑　[中世]竪穴状遺構　地下式土坑　[近世]建物","剥片　礫　縄文土器　打斧　土師器　須恵器　陶磁器　瓦器　板碑",139.3855778,35.61945768,TRUE
13201063000,13201,"630","たまにゅーたうんNo.633いせき","多摩ニュータウンNo.633遺跡","八王子市 下柚木","[旧石器時代][縄文時代（早期〜中期）][平安時代]","包蔵地","[縄文時代]土坑　[平安時代]土坑","ナイフ形石器　縄文土器　石器　土師器　須恵器　砥石",139.3820597,35.62040768,TRUE
13201069708,13201,"97-8","いけのしたいせき","池の下遺跡","八王子市 元八王子二丁目","[旧石器時代][縄文時代（早期〜中期）][中世][近世]","集落","[縄文時代]住居　土坑　ピット　[中世][近世]掘立柱建物　井戸　土坑　地下式土坑","ナイフ形石器　尖頭器　細石刃　削器　剥片　縄文土器　打斧　石鏃　掻器　削器　石皿　磨石　土師質土器　陶磁器　木製品　魚骨　獣骨",139.2824567,35.66274327,TRUE
13201071201,13201,"12-1","たてまちだい1ちてんいせき","館町第1地点遺跡","八王子市 館町","[旧石器時代][縄文時代（早期〜後期）][弥生時代][古墳時代][平安時代][中世][近世]","集落","[旧石器時代]]ブロック　[縄文時代]住居　集石　焼土　陥し穴　土坑　[平安時代][中世]ピット群　大溝　[古墳時代]?[中世]溝","ナイフ形石器　石核　剥片　縄文土器　打斧　磨斧　礫器　石槍　石鏃　削器　石匙　石皿　磨石　凹石　砥石　土師器　須恵器　瓦　陶磁器　鎌　鉄鏃　鉄釘　煙管　刀子　銭貨　動物遺体(馬歯)",139.3005715,35.63034917,TRUE
13201071202,13201,"12-2","たてまちだい2ちてんいせき","館町第2地点遺跡","八王子市 館町","[旧石器時代][縄文時代（早期〜後期）][弥生時代][平安時代][中世][近世]","包蔵地","[縄文時代]集石　焼土　陥し穴　土坑　[平安時代]溝　[近世]溝","ナイフ形石器　尖頭器　削器　剥片　縄文土器　打斧　礫器　石鏃　削器　石皿　磨石　凹石　砥石　石核　土師器　須恵器　陶磁器　金属製品　銭貨",139.2997132,35.6294562,TRUE
13201071207,13201,"12-7","たてまちだい7ちてんいせき","館町第7地点遺跡","八王子市 館町","[旧石器時代][縄文時代（前期〜後期）][平安時代][近世]","包蔵地","[縄文時代]集石　焼土　陥し穴　土坑　[平安時代]土坑　円形土坑　溝　井戸　[近世]溝","尖頭器　縄文土器　打斧　磨斧　礫器　石鏃　削器　石匙　石皿　磨石　凹石　敲石　砥石　剥片　土師器　須恵器　陶磁器　石製有孔円板　釘　火打鎌　煙管　泥面子　銭貨",139.3015328,35.63071193,TRUE
13201071208,13201,"12-8","たてまちだい8ちてんいせき","館町第8地点遺跡","八王子市 館町","[旧石器時代][縄文時代（早期〜後期）][古墳時代][平安時代][近世]","包蔵地","[縄文時代]陥し穴　土坑　集石　焼土　[平安時代]土坑　[近世]溝","剥片　縄文土器　打斧　礫器　石槍　石鏃　削器　石匙　石皿　磨石　凹石　敲石　砥石　石核　剥片　弥生土器　土師器　須恵器　陶磁器　鉋　釘　火打鎌　鉄鏃　刀子　煙管　碁石　泥面子　銭貨",139.3014872,35.62977433,TRUE
13201071211,13201,"12-1","たてまちだい12ちてんいせき","館町第12地点遺跡","八王子市 館町","[旧石器時代][縄文時代（早期〜後期）][中世][近世]","包蔵地","[縄文時代]陥し穴","ナイフ形石器　縄文土器　打斧　石鏃　石皿　陶磁器　鉄鏃　煙管",139.3000565,35.62591215,TRUE
13201071215,13201,"12-5","たてまちだい16ちてんいせき","館町第16地点遺跡","八王子市 館町　 寺田町","[旧石器時代][縄文時代（前期〜後期）][中世]","包蔵地","[縄文時代]住居　陥し穴　土坑　袋状土坑　[中世]溝","縄文土器　陶器　銭貨",139.3018036,35.62583261,TRUE
13201073300,13201,"733","したごうちいせき","下耕地遺跡","八王子市 大谷町","[旧石器時代][縄文時代（早期〜後期）][古墳時代][平安時代][近世]","集落","[旧石器時代]]ユニット　[縄文時代]集石　炉穴　土坑　[平安時代]住居　[旧石器時代]][近世]建物","細石刃　細石刃核　礫器　剥片　縄文土器　石斧　局部磨製石鏃　磨石　凹石　敲石　剥片石器　土師器　須恵器",139.3552836,35.67635206,TRUE
13201073400,13201,"734","いしかわあまのいせき","石川天野遺跡","八王子市 石川町　 大谷町","[旧石器時代][縄文時代（早期〜後期）][弥生時代][古墳時代][奈良時代][平安時代][近世]","集落","[縄文時代]住居　集石　炉穴　焼土　土坑　[弥生時代]住居　焼土　方形周溝墓　溝状遺構　[古墳時代]住居　焼土　土坑　溝　[奈良時代]住居　[平安時代]住居","ナイフ形石器　細石刃　縄文土器　打斧　磨斧　礫器　石槍　石鏃　掻器　石匙　磨石　砥石　石杵　剥片　弥生土器　土錘　敲石　石臼　炉石　土師器　須恵器　土製支脚　紡錘車　刀子　土製小玉　鉄製耳環　環状鉄製品　陶磁器　煙管　炭化物",139.357807,35.67265025,TRUE
13201074100,13201,"741","みなみはちおうじちくNo.18いせき","南八王子地区No.18遺跡","八王子市 大船町　 みなみ野五丁目","[旧石器時代][縄文時代（早期〜中期）]","集落","[旧石器時代]]ユニット　石器　[縄文時代]炉穴　土坑","旧石器　縄文土器　石器",139.3164571,35.62994641,TRUE
13201074700,13201,"747","みなみはちおうじちくNo.25いせき","南八王子地区No.25遺跡","八王子市 七国一丁目","[旧石器時代][縄文時代（早期〜後期）][弥生時代][古墳時代][奈良時代][平安時代][中世][近世]","集落","[旧石器時代]]ユニット　礫群　[縄文時代]住居　炉穴　集石　土坑　陥穴　[中世]段切り遺構　堀立柱建物跡　竪穴状遺構　土坑　溝　[古墳時代]住居　堀立柱建物跡　土坑","旧石器　縄文土器　石器　土師器　鉄製品",139.3278785,35.6250451,TRUE
13201075900,13201,"759","みなみはちおうじちくNo.38いせき","南八王子地区No.38遺跡","八王子市 七国二丁目","[旧石器時代][縄文時代（早期〜前期）][平安時代]","集落・その他（工房）","[平安時代]竪穴状遺構","旧石器 土師器 須恵器 瓦",139.3270888,35.61996589,TRUE
13201079200,13201,"792","たまにゅーたうんNo.408いせき","多摩ニュータウンNo.408遺跡","八王子市 別所","[旧石器時代][縄文時代（早期〜中期）][奈良時代][平安時代][近世]","集落","","",139.3938022,35.61769019,TRUE
13201080000,13201,"800","たまにゅーたうんNo.907いせき","多摩ニュータウンNo.907遺跡","八王子市 堀之内","[旧石器時代][縄文時代（早期〜中期）][奈良時代][平安時代][中世][近世]","集落","NT　432参照","",139.3914312,35.63262962,TRUE
13201080100,13201,"801","たまにゅーたうんNo.908いせき","多摩ニュータウンNo.908遺跡","八王子市 越野","[旧石器時代][縄文時代（早期）][縄文時代（前期）][縄文時代（ｋ荒中期）][奈良時代][平安時代][中世][近世]","集落","NT　432参照","",139.3903612,35.63195533,TRUE
13201080400,13201,"804","たまにゅーたうんNo.644いせき","多摩ニュータウンNo.644遺跡","八王子市 南大沢","[旧石器時代][縄文時代（早期〜後期）][奈良時代][平安時代][近世]","包蔵地","[旧石器時代]]ユニット　[縄文時代]集石　炉穴　土坑　[近世]炭窯","ナイフ形石器　剥片　縄文土器　石器　土師器　陶磁器",139.3871001,35.60166985,TRUE
13201081900,13201,"819","たまにゅーたうんNo.661いせき","多摩ニュータウンNo.661遺跡","八王子市 別所　 南大沢","[旧石器時代][縄文時代（早期〜後期）][平安時代][近世]","包蔵地","[縄文時代]集石　炉穴　土坑　[近世]溝　道路状遺構　[時代不明]焼土塊","石器　縄文土器　石器　土師器　須恵器",139.3900084,35.61053464,TRUE
13201082000,13201,"820","たまにゅーたうんNo.662いせき","多摩ニュータウンNo.662遺跡","八王子市 南大沢","[旧石器時代][縄文時代（早期〜前期）]","包蔵地","[縄文時代]土坑","剥片　縄文土器　石器",139.3886742,35.61082023,TRUE
13201082500,13201,"825","たまにゅーたうんNo.667いせき","多摩ニュータウンNo.667遺跡","八王子市 松木　 南大沢","[旧石器時代][縄文時代（前期）][奈良時代][平安時代]","包蔵地","[縄文時代]土坑　[時代不明]配石","石刃　縄文土器",139.3883819,35.61551415,TRUE
13201083900,13201,"839","たまにゅーたうんNo.681いせき","多摩ニュータウンNo.681遺跡","八王子市 松木","[旧石器時代][縄文時代（早期〜中期）][奈良時代][平安時代][近世]","包蔵地","[縄文時代]集石　土坑　[近世]土坑　炭窯　墓壙","ナイフ形石器　縄文土器　土師器　須恵器　陶磁器　銭貨　獣骨",139.3949031,35.62394827,TRUE
13201085700,13201,"857","たまにゅーたうんNo.699いせき","多摩ニュータウンNo.699遺跡","八王子市 別所","[旧石器時代][縄文時代（早期）][縄文時代（前期）][縄文時代（中期）]","集落","[縄文時代]住居　焼土　土坑","尖頭器　縄文土器　打斧　礫器　石鏃",139.3929154,35.60911976,TRUE
13201086400,13201,"864","たまにゅーたうんNo.706いせき","多摩ニュータウンNo.706遺跡","八王子市 別所","[旧石器時代][縄文時代（早期）][縄文時代（前期）]","包蔵地","[縄文時代]土坑","石核　剥片　縄文土器　礫",139.3963215,35.61272266,TRUE
13201086500,13201,"865","たまにゅーたうんNo.707いせき","多摩ニュータウンNo.707遺跡","八王子市 別所","[旧石器時代][縄草][縄文時代（早期）][縄文時代（前期）][縄文時代（中期）]","包蔵地","[縄文時代]陥し穴　土坑","細石刃　剥片　縄文土器　有茎尖頭器　石器",139.3970613,35.61301061,TRUE
13201087700,13201,"877","たまにゅーたうんNo.721いせき","多摩ニュータウンNo.721遺跡","八王子市 堀之内","[旧石器時代][縄文時代（前期）][縄文時代（中期）][奈良時代][平安時代][中世][近世]","集落","[縄文時代]集石　集石土坑　土坑　[奈良時代][平安時代]住居　集石　土坑　[中世]井戸　土坑　[近世]ピット","細石刃　縄文土器　打斧　石鏃　石皿　磨石　敲石　土師器　須恵器　陶磁器　陶器（灰釉・緑釉）　鉄製品　羽口　銅製品　銭貨",139.4073784,35.62828296,TRUE
13201087800,13201,"878","たまにゅーたうんNo.722いせき","多摩ニュータウンNo.722遺跡","八王子市 東中野","[旧石器時代][縄文時代（早期）][縄文時代（前期）][縄文時代（中期）][縄文時代（後期）][奈良時代][平安時代][中世][近世]","集落","[縄文時代]焼土　[平安時代]住居　[近世]溝","ナイフ形石器　縄文土器　石器　土師器　須恵器　陶器（灰釉）　陶磁器",139.408139,35.62995041,TRUE
13201088300,13201,"883","たまにゅーたうんNo.727いせき","多摩ニュータウンNo.727遺跡","八王子市 堀之内","[旧石器時代][縄文時代（早期）][縄文時代（前期）][奈良時代][平安時代][中世][近世]","集落","[縄文時代]住居　土坑　[近世]溝","剥片　縄文土器　石器　土師器　陶器（灰釉）",139.4043347,35.62517555,TRUE
13201089900,13201,"899","たまにゅーたうんNo.806いせき","多摩ニュータウンNo.806遺跡","八王子市 上柚木","[旧石器時代][縄文時代（前期〜中期）][奈良時代][平安時代][中世][近世]","集落","[縄文時代]土坑　[近世]建物　ピット　土坑　井戸　溝","台形石器　礫器　石核　剥片　縄文土器　有舌尖頭器　土師器　須恵器　土師質土器　陶磁器　砥石",139.3740058,35.62090469,TRUE
13201090600,13201,"906","たまにゅーたうんNo.813いせき","多摩ニュータウンNo.813遺跡","八王子市 上柚木","[旧石器時代][縄文時代（早期〜前期）][平安時代][近世]","包蔵地","[縄文時代]焼土　土坑　[平安時代]焼土　[近世]土坑　炭窯　溝","尖頭器　打斧　縄文土器　石器　土師器",139.3707223,35.61403385,TRUE
13201092400,13201,"924","たまにゅーたうんNo.836いせき","多摩ニュータウンNo.836遺跡","八王子市 鑓水","［旧石器時代］[縄文時代（早期〜中期）]［平安時代］［中世］［近世］","集落","","焼礫",139.3444812,35.61242181,TRUE
13201092700,13201,"927","たまにゅーたうんNo.839・840いせき","多摩ニュータウンNo.839・840遺跡","八王子市 鑓水","［旧石器時代］[縄文時代][平安時代][近世]","集落","[縄文時代]集石　[奈良時代][平安時代]住居　窯体　ピット　土坑　[近世]炭窯","縄文土器　石器　土師器　須恵器　陶器（灰釉・緑釉）　鉄滓　焼礫　磨斧　鉄製品　羽口",139.3503318,35.60958743,TRUE
13202000300,13202,"3","まつなかっぱらいせき","松中ッ原遺跡","立川市 一番町五丁目","[旧石器時代][縄文時代（早期）]","包蔵地","","尖頭器 石鏃",139.3754836,35.73202607,TRUE
13202000400,13202,"4","てんのうばしびーちてんいせき","天王橋B地点遺跡","立川市 一番町一丁目","[旧石器時代]","包蔵地","","ナイフ形石器 掻器 石核",139.3843413,35.72494691,TRUE
13202000500,13202,"5","じょうすいむこういせき","上水向遺跡","立川市 上砂町四丁目","[旧石器時代]","包蔵地","","尖頭器 掻器",139.3938857,35.72862592,TRUE
13202000600,13202,"6","みやのはしいせき","宮ノ橋遺跡","立川市 砂川町四丁目","[旧石器時代]","包蔵地","","尖頭器",139.404254,35.7270094,TRUE
13202000700,13202,"7","おおやまどうひがしいせき","大山道東遺跡","立川市 砂川町二丁目","[旧石器時代][縄文時代]","包蔵地","","尖頭器 掻器 磨石 スタンプ形石器",139.4020567,35.72115623,TRUE
13202000900,13202,"9","かんのんじはらいせき","観音寺原遺跡","立川市 栄町四丁目","[旧石器時代][縄文時代]","包蔵地","","ナイフ形石器 尖頭器 縄文土器 石鏃",139.4243041,35.71245929,TRUE
13202001400,13202,"14","おおわだいせき","大和田遺跡","立川市 柴崎町四丁目 錦町五丁目","[旧石器時代][縄文時代（早期・中期〜後期）][奈良時代][平安時代][中世][近世]","集落","[縄文時代]住居 集石 土坑 [奈良時代][平安時代]住居 土坑 溝","尖頭器 礫器 縄文土器 打斧 磨斧 石皿 磨石 スタンプ形石器 土師器 須恵器 陶磁器 銭貨",139.4089033,35.69072429,TRUE
13202001800,13202,"18","むかいごういせき","向郷遺跡","立川市 錦町四丁目 羽衣町三丁目","[旧石器時代][縄文時代（早期〜後期）][奈良時代][平安時代]","集落","[縄文時代]住居 集石 土坑 炉穴","ナイフ形石器 縄文土器 打斧 磨斧 石鏃 磨石 土師器",139.4234894,35.69047063,TRUE
13203000300,13203,"3","ごてんやまいせき","御殿山遺跡","武蔵野市 御殿山一丁目","[旧石器時代][縄文時代（早期〜後期）]","包蔵地","[縄文時代]住居跡 土坑 屋外炉 敷石住居","ナイフ形石器 剥片 縄文土器 打斧 磨斧 石槍 石鏃 石皿 磨石 凹石 敲石 砥石 土錘 台状土製品 叩石 尖頭器 石錐",139.5718583,35.7008842,TRUE
13203000400,13203,"4","きちじょうじみなみちょういっちょうめいせき","吉祥寺南町一丁目遺跡","武蔵野市 吉祥寺南町一丁目","[旧石器時代] [縄文時代（早期〜中期）]","包蔵地","［旧石器時代］ブロック 礫群［縄文土器］土坑 陥し穴 ピット 埋甕","尖頭器 縄文土器 石鏃 打斧 灯明皿 スクレイパー ナイフ形石器 磨斧 敲石",139.5801838,35.70059146,TRUE
13203000500,13203,"5","きちじょうじみなみちょうさんちょうめいせき","吉祥寺南町三丁目遺跡","武蔵野市 吉祥寺南町三丁目","[旧石器時代] [縄文時代（早期〜後期）] [平安時代]","包蔵地","ブロック 礫群 土坑 集石 ピット","石器 縄文土器 細石刃 スクレイパー 打製石斧 敲石 剥片",139.5855193,35.69715673,TRUE
13204000100,13204,"1","あいしーゆーこうないいせきぐん","ICU構内遺跡群","三鷹市 大沢三丁目","[旧石器時代][縄文時代（早期〜後期）][奈良時代][平安時代][近世]","集落","[旧石器時代]ユニット　礫群　[縄文時代]住居　小竪穴　土坑　配石","石器　縄文土器　石器　土製円板　耳栓　土偶　土師器　陶磁器",139.5281783,35.6866886,TRUE
13204000200,13204,"2","のがわこうえんいせき","野川公園遺跡","三鷹市 大沢三丁目","[旧石器時代][縄文時代（中期）][近世]","包蔵地","","縄文土器　陶磁器",139.5294654,35.68325278,TRUE
13204000300,13204,"3","さかうえいせき","坂上遺跡","三鷹市 大沢二丁目","[旧石器時代][縄文時代（早期〜後期）]","集落","[旧石器時代]ユニット　礫群　[縄文時代]住居　敷石住居　集石　集石土坑　溝状遺構","石器　縄文土器　石器　土偶",139.5313359,35.68085111,TRUE
13204000600,13204,"6","でやまいせき","出山遺跡","三鷹市 大沢二丁目","[旧石器時代][縄文時代（早期〜後期）][古墳時代][近世]","集落","[旧石器時代]ユニット　礫群　[縄文時代]住居　小竪穴　集石　集石土坑　炉穴　土坑　溝状遺構","石器　縄文土器　石器　土師器　須恵器　カワラケ　陶磁器",139.5331371,35.67883908,TRUE
13204001000,13204,"10","のみずばしいせき","野水橋遺跡","三鷹市 大沢二丁目","[旧石器時代][縄文時代（早期・中期）][中世]","包蔵地","","石器　縄文土器　石器　板碑",139.5326815,35.67554427,TRUE
13204001200,13204,"12","てんもんだいこうないいせき","天文台構内遺跡","三鷹市 大沢二丁目","[旧石器時代][縄文時代（早期〜中期）][奈良時代][平安時代][近世]","集落","[旧石器時代]ユニット　礫群　性格不明遺構　[縄文時代]住居　集石　集石土坑　土坑　[時代不明]ピット","石器　縄文土器　石器　土師器　陶磁器",139.5359284,35.67582296,TRUE
13204001400,13204,"14","ふるはちまんいせき","古八幡遺跡","三鷹市 大沢二丁目　 大沢五丁目","[旧石器時代][縄文時代（早期〜晩期）][古墳時代][奈良時代][平安時代][中世][近世]","包蔵地","[縄文時代]集石","石器　縄文土器　石器　土器片錘　陶磁器　石臼　木製高杯　ガラス製品　銭貨　種子材",139.5358014,35.67239775,TRUE
13204001500,13204,"15","しもはらいせき","下原遺跡","三鷹市 大沢四丁目　 大沢五丁目","[旧石器時代][縄文時代（早期〜中期）][奈良時代][平安時代]","包蔵地","[時代不明]皿鉢状遺構　溝状遺構　[旧石器時代]石器集中部　礫群　炭化物集中　[縄文時代]住居跡　土坑　陥し穴　ピット　[中世][近世]溝","石器　縄文土器　須恵器　陶磁器　鉄製品",139.5373271,35.66874042,TRUE
13204001800,13204,"18","はらいせき","原遺跡","三鷹市 大沢一丁目","[旧石器時代][縄文時代（草創期〜中期）][近世]","集落","[旧石器時代]ユニット　礫群　[縄文時代]住居　集石　集石土坑　溝状遺構　[時代不明]ピット","石器　縄文土器　石器　土製円板　人形状土製品　陶磁器　銭貨",139.5407709,35.67571175,TRUE
13204002000,13204,"20","はねざわだいいせき","羽根沢台遺跡","三鷹市 大沢一丁目　 大沢四丁目","[旧石器時代][縄文時代（早期〜中期）][近世]","集落","[旧石器時代]ユニット　礫群　[縄文時代]集石　集石土坑　炉穴　[時代不明]土坑　ピット　溝状遺構","ナイフ形石器　斧形石器　敲石　台石　礫　縄文土器　打斧　磨斧　石皿　磨石　スタンプ形石器　けつ状耳飾　陶磁器　銭貨",139.5404034,35.66997304,TRUE
13204002300,13204,"23","ながくぼいせき","長久保遺跡","三鷹市 新川六丁目","[旧石器時代][縄文時代（早期・中期）][近世]","包蔵地","[旧石器時代]ユニット　[縄文時代]土坑　[近世]土坑　ピット　地下室　溝　[時代不明]皿鉢状遺構","石器　縄文土器　石器　陶磁器　ガラス製品",139.5651184,35.68168289,TRUE
13204002400,13204,"24","ながしまいせき","長嶋遺跡","三鷹市 新川三丁目　 新川六丁目","[旧石器時代][縄文時代（早期・中期〜後期）][近世]","集落","[旧石器時代]ユニット　礫群　[縄文時代]集石　炉穴　陥し穴　[時代不明]ピット　溝状遺構","石器　縄文土器　陶磁器　石製品　銭貨　人骨",139.5677619,35.67933557,TRUE
13204002600,13204,"26","まるいけいせき","丸池遺跡","三鷹市 新川二丁目 新川三丁目 新川五丁目","[旧石器時代][縄文時代（前期〜中期）][奈良時代][平安時代][中世][近世]","集落","[旧石器時代]ユニット [縄文時代]住居 集石土坑 配石 [時代不明]土坑 溝状遺構","石器 縄文土器 石器 土師器 須恵器 カワラケ",139.5718234,35.67743606,TRUE
13204002700,13204,"27","しまやしきいせき","島屋敷遺跡","三鷹市 新川四丁目 新川五丁目","[旧石器時代][縄文時代（早期〜中期）][古墳時代][奈良時代][平安時代][中世][近世]","集落","[旧石器時代]ユニット 礫群 [縄文時代]集石 陥し穴 [時代不明]掘立柱建物 ピット 柱穴 地下室 井戸 水田 溝状遺構","石器 縄文土器 石器 土師器 須恵器 板碑 陶磁器 瓦 石製品 金属製品 木製品",139.5714801,35.67469486,TRUE
13204002800,13204,"28","しもはらびーいせき","下原B遺跡","三鷹市 大沢五丁目 大沢六丁目","[旧石器時代][縄文時代（前期〜後期）][中世][近世]","集落・その他の墓","墓形態：L字型 [旧石器時代]礫群 焼土遺構 [縄文時代]住居跡 集石土坑 焼土跡 陥し穴 [中世]地下式坑 土坑 [時代不明]溝状遺構 ピット 皿鉢状遺構","ナイフ形石器 スクレイパー 縄文土器 石器 土器 陶磁器類",139.5313421,35.67334676,TRUE
13204003000,13204,"30","きたのいせき","北野遺跡","三鷹市 北野四丁目","[旧石器時代][縄文時代（草創期〜後期）][古墳時代][近世]","集落","[旧石器時代]ユニット 礫群 [縄文時代]住居 集石 炉穴 土坑 溝状遺構 [時代不明]集石土坑 ピット","縄文土器 石器 土錘 土製円板 耳栓 土師器 陶器 カワラケ 瓦 碁石 泥人形",139.5793099,35.67363438,TRUE
13204003100,13204,"31","しりつだいごちゅうがっこういせき","市立第五中学校遺跡","三鷹市 新川一丁目 新川四丁目","[旧石器時代][縄文時代（早期〜中期）][弥生時代][古墳時代][奈良時代][平安時代][中世][近世]","集落","[旧石器時代]ユニット 礫群 [縄文時代]住居 集石 集石 土坑 [時代不明]土坑 溝状遺構","縄文土器 石器 土錘 土製円板 耳栓 土偶 弥生土器 土師器 須恵器 陶磁器 カワラケ 玉類 銭貨",139.5768721,35.6710462,TRUE
13204003200,13204,"32","あずまいせき","東遺跡","三鷹市 中原二丁目 新川一丁目 新川四丁目","[旧石器時代][縄文時代（中期）][古墳時代][近世]","包蔵地","[時代不明]溝状遺構","縄文土器 土師器 陶磁器 碁石 泥人形 銭貨",139.5725805,35.66920539,TRUE
13204003300,13204,"33","なかせんがわいせき","中仙川遺跡","三鷹市 中原一丁目 新川一丁目","[旧石器時代][縄文時代（早期・中期）][近世]","包蔵地","[時代不明]皿状遺構","石器 縄文土器 陶磁器 ガラス製品",139.5773527,35.66647198,TRUE
13204003800,13204,"38","なかはらいせき","中原遺跡","三鷹市 中原四丁目","[旧石器時代][縄文時代（前期〜中期）][奈良時代][平安時代][中世][近世]","包蔵地・陣屋","[中世]溝状遺構 [時代不明]畝状遺構","石器 縄文土器 石器 須恵器 カワラケ 瓦 土鍋 陶磁器 鉄製品 泥人形 銭貨",139.566847,35.66797816,TRUE
13204003900,13204,"39","なかにしいせき","中西遺跡","三鷹市 中原四丁目","[旧石器時代][縄文時代（中期）][近世]","包蔵地","[縄文時代]集石 [時代不明]溝状遺構","石器 縄文土器 陶磁器",139.5686323,35.66775502,TRUE
13204004100,13204,"41","なかはらばしいせき","中原橋遺跡","三鷹市 中原二丁目","[旧石器時代][縄文時代（前期〜中期）]","包蔵地","","縄文土器",139.5711386,35.66605359,TRUE
13204004200,13204,"42","はねげいせき","羽毛遺跡","三鷹市 中原二丁目","[旧石器時代][縄文時代（前期〜中期）][古墳時代]","集落","[古墳時代]住居 [時代不明]土坑 ピット 溝状遺構","縄文土器 土師器 陶磁器 銭貨",139.5711042,35.6648821,TRUE
13204004300,13204,"43","たきさかいせき","滝坂遺跡","三鷹市 中原一丁目 中原二丁目","[旧石器時代][縄文時代（早期〜後期）][弥生時代][古墳時代][奈良時代][平安時代][近世]","集落","[旧石器時代]ユニット 礫群 [縄文時代]住居 集石 炉穴 土坑 [時代不明]ピット 溝状遺構","石器 縄文土器 石器 弥生土器 土師器 陶器 泥人形 泥面子 銭貨 骨片",139.5756361,35.66485421,TRUE
13204004800,13204,"48","いのかしらいせきぐんえーいせき","井の頭池遺跡群A遺跡","三鷹市 井の頭四丁目 井の頭五丁目","[旧石器時代][縄草][縄文時代（早期〜後期）][弥生時代][古墳時代][奈良時代][平安時代][中世][近世]","集落","[旧石器時代]ユニット 礫群 [縄文時代]住居 小竪穴 集石 集石土坑 炉穴 土坑 ピット 配石 溝状 遺構","石器 縄文土器 石器 弥生土器 土師器 須恵器 板碑 陶磁器",139.5754818,35.6984234,TRUE
13204004900,13204,"49","いのかしらいせきぐんびーいせき","井の頭池遺跡群B遺跡","三鷹市 井の頭三丁目 井の頭四丁目","[旧石器時代][縄文時代（早期・中期〜後期）]","集落","[縄文時代]住居 集石 土坑 炉穴 土坑 ピット 理甕","石器 縄文土器 石器 土錘 土製円板 大珠 陶磁器",139.5797733,35.69741966,TRUE
13204005200,13204,"52","まるやまえーいせき","丸山A遺跡","三鷹市 井の頭二丁目","[旧石器時代][縄文時代（草創期〜中期）]","集落","[旧石器時代]ユニット 礫群 [縄文時代]住居 ピット 溝状遺構","石器 縄文土器 石器 土錘 土偶 土師器 陶磁器 カワラケ",139.5856784,35.69320944,TRUE
13205000900,13205,"9","こなかおいせき","小中尾遺跡","青梅市 成木二丁目","[旧石器時代][縄文時代（早期〜後期）][奈良時代][平安時代]","集落","[縄文時代]堅穴状遺構","尖頭器　掻器　縄文土器　打斧　石鏃　けつ状耳飾　須恵器",139.2674997,35.83373834,TRUE
13205006800,13205,"68","うらじゅく（てぃー-39）いせき","裏宿(T-39)遺跡","青梅市 裏宿町","[旧石器時代][縄文時代（早期〜後期）][奈良時代][平安時代]","集落","[縄文時代]住居　竪穴状遺構　土坑　[奈良時代][平安時代]住居　集石　土坑","縄文土器　打斧　磨斧　石鏃　掻器　石皿　磨石　凹石　剥片　石棒　土師器　須恵器　板碑　銭貨",139.2465644,35.79033151,TRUE
13205010900,13205,"109","ばば（けー-6・7）いせき","馬場(K-6・7)遺跡","青梅市 師岡町一丁目　 師岡町二丁目","[旧石器時代][縄文時代（早期〜後期）][弥生時代（中期〜後期）][古墳時代][奈良時代][平安時代][中世]","集落","[旧石器時代]ユニット　[縄文時代]集石　土坑　[弥生時代]住居　方形周溝墓　[奈良時代][平安時代]土坑　井戸状遺構　鍛冶工房","細石刃　細石刃核　掻器　縄文土器　石器　弥生土器　抉入石斧　片刃石斧　石鏃　土師器　須恵器　陶磁器(青磁)　木器　鉄器",139.2824037,35.79595433,TRUE
13205011600,13205,"116","かすみだい（けー-27・28・29）いせき","霞台(K-27・28・29)遺跡","青梅市 大門二丁目　 今寺三丁目　 野上町二丁目","[旧石器時代][縄文時代（前期〜中期）]［弥生時代（後期）］[古墳時代][奈良時代][平安時代][中世]","集落","[縄文時代]土坑　ピット　[弥生時代][古墳時代]住居　ピット　輪土坑　[奈良時代]住居","ナイフ形石器　尖頭器　縄文土器　石槍　石鏃　掻器　炭化材　弥生土器　土師器　須恵器　砥石　滑石製管玉　木器　炭化米",139.2931154,35.79653912,TRUE
13205012400,13205,"124","けー-18いせき","K-18遺跡","青梅市 塩船","[旧石器時代][縄文時代（早期〜前期）]［平安時代］","包蔵地","","尖頭器　縄文土器",139.2848757,35.80447508,TRUE
13205013900,13205,"139","じょうがさきいせき","城ヶ崎遺跡","青梅市 藤橋二丁目","[旧石器時代][縄文時代（中期）][古墳時代][奈良時代][平安時代][中世]","包蔵地","[旧石器時代]ユニット　土坑　[縄文時代]〜[中世]土坑","尖頭器　削器　石核　剥片　縄文土器　土師器　須恵器",139.3033807,35.8043637,TRUE
13205014000,13205,"140","まるやま（K-34・35・36）いせき","丸山(K-34・35・36)遺跡","青梅市 藤橋一丁目","[旧石器時代][縄文時代（前期〜後期）][古墳時代][奈良時代][平安時代]","集落","[旧石器時代]ユニット　[縄文時代]住居　土坑　[古墳時代]住居　[平安時代]土坑　溝","尖頭器　剥片　縄文土器　石器　土師器　須恵器",139.3024538,35.8087908,TRUE
13205014400,13205,"144","しろのこし（けー-39）いせき","城の腰(K-39)遺跡","青梅市 今井","[旧石器時代][縄文時代（早期〜後期）][奈良時代][平安時代][中世]","集落・城館","[旧石器時代]ユニット　礫群　[縄文時代]土坑　[中世]堅穴状遺構　地下式土坑","ナイフ形石器　石核　剥片　縄文土器　石斧　石鏃　土師器　須恵器　陶器　板碑",139.3126848,35.81029428,TRUE
13206000100,13206,"1","むさしこくぶんじあとかんれんいせき","武蔵国分寺跡関連遺跡","府中市 栄町一丁目　 栄町二丁目　 栄町三丁目　 武蔵台一丁目　 武蔵台二丁目","[旧石器時代][縄文時代（前期〜後期）][奈良時代][平安時代][中世][近世]","集落","[旧石器時代]炭化物集中部　[縄文時代]集石　土坑　焼土　[奈良時代][平安時代]土坑　火葬墓　[平安時代]住居　掘立柱建物　土坑　道路　溝　[中世][近世]柱穴列　土坑　道路　溝","ナイフ形石器　尖頭器　細石刃　石核　縄文土器　打斧　磨斧　石鏃　石匙　石錐　石錘　ピエス・エスキーユ　石皿　スタンプ形石器　剥片　凹石　敲石　土師器　須恵器　陶器(緑釉・灰釉)　磁器　擂鉢　瓦　石製品　砥石　鉄製品　瓦　銭貨　漆紙文書　土製品　木製くし　煙管",139.470458,35.69050485,TRUE
13206000200,13206,"2","むさしこくふかんれんいせき","武蔵国府関連遺跡","府中市 日鋼町、片町一丁目、片町二丁目、片町三丁目 寿町一丁目、寿町二丁目、寿町三丁目、小柳町一丁目、小柳町二丁目 清水が丘一丁目、清水が丘二丁目、清水が丘三丁目 白糸台一丁目、白糸台二丁目、白糸台三丁目、白糸台四丁目、白糸台五丁目、白糸台六丁目 八幡町一丁目、八幡町二丁目、八幡町三丁目 府中町一丁目、府中町二丁目、府中町三丁目 分梅町一丁目、分梅町二丁目、分梅町三丁目 本宿町一丁目、本宿町二丁目、本宿町三丁目、本宿町四丁目 緑町一丁目、緑町二丁目、緑町三丁目 宮西町一丁目、宮西町二丁目、宮西町三丁目、宮西町四丁目、宮西町五丁目 宮町一丁目、宮町二丁目、宮町三丁目 美好町一丁目、美好町二丁目、美好町三丁目 若松町一丁目、若松町二丁目、若松町三丁目、日吉町 西府町一丁目、西府町二丁目、西府町三丁目、西府町四丁目、西府町五丁目、日新町二丁目","[旧石器時代][縄文時代][弥生時代][古墳時代][奈良時代][平安時代][中世][近世]","官衙・集落","奈良時代][平安時代]住居　掘立柱建物　土坑　柵　道路　溝　井戸　土壙墓　地下式横穴墓　火葬墓　火葬遺構","須恵器　土師器　二彩　緑釉　刀子　鉄鏃　鉄斧　紡錘車　石帯　土錘　瓦",139.4847811,35.67019899,TRUE
13206000500,13206,"5","むさしだいいせき","武蔵台遺跡","府中市 武蔵台二丁目","[旧石器時代][縄文時代（早期・中期）]［奈良時代］［平安時代］","集落","[旧石器時代]礫群 炭化物集中地点 土坑 [縄文時代]住居 集石 土坑 配石","ナイフ形石器 尖頭器 掻器 彫器 錐 斧形石器 礫器 敲石 石核 縄文土器 打斧 磨斧 石鏃 掻器 石皿 磨石 スタンプ形石器 敲石 土製円板",139.463979,35.69131208,TRUE
13206001300,13206,"13","てんじんちょういせき","天神町遺跡","府中市 天神町一丁目 天神町二丁目 天神町三丁目 天神町四丁目 幸町二丁目 幸町三丁目","[旧石器時代][縄文時代（早期〜後期）][奈良時代][平安時代]","包蔵地","[旧石器時代]ユニット [縄文時代]集石 集石土坑 焼土 土坑 [奈良時代][平安時代]土坑 溝 [近世]地下室","ナイフ形石器 尖頭器 槍先形尖頭器 細石刃 細石刃核 角錐状石器 掻器 削器 礫器 剥片 縄文土器 打斧 磨斧 礫器 石鏃 石匙 石錐 ピエス・エスキーユ 石皿 磨石 スタンプ形石器 凹石 敲石 台石 石製円盤 土玉 土師器 須恵器 土師質土器 陶器 鉄製品 瓦",139.4877678,35.68257138,TRUE
13206001500,13206,"15","","府中市№15遺跡","府中市 若松町四丁目","[旧石器時代][縄文時代（中期）][奈良時代][平安時代]","包蔵地","","掻器 石核 剥片 縄文土器 石鏃 土師器",139.5013089,35.67732925,TRUE
13206001800,13206,"18","むさしのこうえんいせき","武蔵野公園遺跡","府中市 多磨町三丁目","[旧石器時代][縄文時代（早期〜後期）][弥生時代]","集落","[旧石器時代]礫群 [縄文時代]住居 土坑 配石","細石刃核 石核 縄文土器 打斧 土錘 磨斧 石鏃 石匙 石錘 磨石 敲石 弥生土器",139.5178956,35.69068281,TRUE
13206002100,13206,"21","とびたきゅうきたいせき","飛田給北遺跡","府中市 朝日町三丁目","[旧石器時代][縄文時代（中期）][古墳時代][奈良時代][平安時代][近世]","包蔵地・集落","[旧石器時代]礫群 [縄文時代]土坑 [古墳時代]住居 竪穴遺構 溝 [奈良時代][平安時代]土坑 [近世]ピット列 土坑","ナイフ形石器 掻器 敲石 磨石 石核 焼礫 縄文土器 打斧 礫器 石槍 石皿 磨石 土師器 須恵器 砥石 青銅鉈尾 陶磁器",139.5230149,35.66873577,TRUE
13206002900,13206,"29","","府中市No.29遺跡","府中市 朝日町三丁目","[旧石器時代]","集落","[旧石器時代]礫群","ナイフ形石器 尖頭器 掻器 削器 彫器 敲石 石核 焼礫",139.521367,35.67629403,TRUE
13206003300,13206,"33","むさしこくぶんじあとかんれん（むさしだいひがし）いせき","武蔵国分寺跡関連（武蔵台東）遺跡","府中市 武蔵台二丁目","[旧石器時代][縄文時代（早期・中期）]［奈良時代］［平安時代］","集落","[旧石器時代]遺物集中区 礫群 炭化物集中箇所 [縄文時代]住居 陥し穴","ナイフ形石器 掻器 彫器 縄文土器 打斧 磨斧 局部磨製石斧 石鏃 石皿 磨石 スタンプ形石器 土製円板 耳栓 石棒 土偶 浮子",139.4663831,35.69288523,TRUE
13206003400,13206,"34","あさひちょういせき","朝日町遺跡","府中市 朝日町二丁目","[旧石器時代]","集落","[旧石器時代]礫群","ナイフ形石器 剥片",139.5174351,35.67654769,TRUE
13206003401,13206,"34-1","あさひちょういせき","朝日町遺跡","府中市 朝日町三丁目","[旧石器時代][縄文時代][奈良時代][平安時代][中世]","集落","土坑 礫群 溝状遺構 堅穴状遺構 硬化面","ナイフ形石器 フレイク 礫 細石刃 尖頭器 ハンマー 縄文土器 石鏃 打製石斧 磨石 陶器",139.5197877,35.67701914,TRUE
13207000700,13207,"7","はやしのうえいせき","林ノ上遺跡","昭島市 緑町四丁目","[旧石器時代][縄文時代（早期・中期）]","集落","[旧石器時代]礫群 [縄文時代（早期）]土坑","ナイフ形石器 縄文土器 打斧 礫器 石鏃 掻器 石皿 磨石 凹石 敲石",139.3445876,35.71473687,TRUE
13207001200,13207,"12","じょうがわらいせき","上川原遺跡","昭島市 上川原町 昭和町四丁目 昭和町五丁目","[旧石器時代][縄文時代（早期・中期）]","集落","[縄文時代（早期）]住居 集石 土坑 ピット","ナイフ形石器 縄文土器 打斧 磨斧 局部磨斧 礫器 尖頭状石器 石鏃 石皿 磨石 スタンプ形石器 凹石 敲石",139.361215,35.71040609,TRUE
13207001700,13207,"17","","昭島市No.17遺跡","昭島市 大神町","[旧石器時代]","包蔵地","","尖頭器",139.3794033,35.72447999,TRUE
13207004700,13207,"47","","昭島市No.47遺跡","昭島市 宮沢町 中神町","[旧石器時代]","包蔵地","","尖頭器",139.3787318,35.71515566,TRUE
13208000500,13208,"5","せんがわいせき","仙川遺跡","調布市 仙川町二丁目　 仙川町三丁目","[旧石器時代][縄文時代（早期〜中期）][弥生時代][古墳時代][近世]","包蔵地・集落","[旧石器時代]礫群　[縄文時代]集石　土坑　[古墳時代]住居　[近世]溝","ナイフ形石器　尖頭器　掻器　石核　剥片　縄文土器　打斧　弥生土器　土師器　須恵器　鉄製品　陶磁器",139.584402,35.66485111,TRUE
13208000600,13208,"6","わかばちょういせき","若葉町遺跡","調布市 若葉町一丁目　 若葉町三丁目","[旧石器時代][縄文時代（早期・中期）]","包蔵地・集落","[旧石器時代]炭化物集中箇所　[縄文時代]住居　集石　土坑　ピット　[平安時代]溝状遺構","縄文土器　打斧　局部磨斧　石槍　石鏃　磨石　スタンプ形石器　凹石　敲石　土製円板　土偶",139.5810261,35.65903992,TRUE
13208000800,13208,"8","いりまちょうしろやまいせき","入間町城山遺跡","調布市 入間町一丁目　 入間町二丁目　 入間町三丁目","[旧石器時代][古墳時代][中世]","集落","[旧石器時代]礫群　石器ブロック　[縄文時代]住居　炉穴　土坑　[弥生時代]住居　土坑　[古墳時代][奈良時代]住居　土坑　溝　横穴墓　[中世]住居　地下式坑　溝　[時代不明]掘立柱建物","ナイフ形石器　尖頭器　縄文土器　石器　土師器　須恵器　埴輪　墨書土器　陶磁器　鉄製品　鉄滓　紡錘車　土製品　人骨",139.5872189,35.64995753,TRUE
13208000900,13208,"9","がんざいせき","蟹沢遺跡","調布市 入間町三丁目","[旧石器時代][縄文時代（中期）][古墳時代][奈良時代][近世]","包蔵地","[近世]土壙墓","縄文土器　石器　土師器　陶磁器　石臼　鉄製品　人骨",139.5892481,35.64760604,TRUE
13208001100,13208,"11","じゃくぼいせき","蛇久保遺跡","調布市 西つつじヶ丘一丁目","[旧石器時代][縄文時代（中期）][弥生時代][古墳時代][奈良時代][近世]","包蔵地・集落","[旧石器時代]石器集中箇所　炭化物集中箇所　[縄文時代]住居　集石　炉　焼土　土坑　土壙墓　埋甕　[古墳時代]住居　[近世]溝","ナイフ形石器　尖頭器　縄文土器　打斧　磨石　耳飾　勾玉　土師器　陶磁器",139.5649612,35.66571255,TRUE
13208001400,13208,"14","なかだいみなみいせき","中台南遺跡","調布市 東つつじヶ丘三丁目","[旧石器時代][縄文時代]","包蔵地","","縄文土器",139.580732,35.65022075,TRUE
13208001700,13208,"17","どうやまいせき","堂山遺跡","調布市 深大寺元町五丁目　 深大寺北町一丁目　 深大寺北町二丁目","[旧石器時代][縄文時代（草創期・前期〜中期）][弥生時代]","包蔵地","[縄文時代]集石　土坑　[近世]溝","ナイフ形石器　尖頭器　縄文土器　弥生土器　土師器　須恵器　陶磁器　銭貨",139.5485285,35.67118026,TRUE
13208002000,13208,"20","にしはらいせき","西原遺跡","調布市 深大寺東町一丁目　 深大寺元町一丁目　 深大寺元町五丁目　 深大寺南町五丁目","[旧石器時代][縄文時代（中期）][古墳時代][奈良時代]","包蔵地","[縄文時代]竪穴状遺構","縄文土器　土師器",139.5554739,35.668594,TRUE
13208002200,13208,"22","におうづかいせき","仁王塚遺跡","調布市 深大寺元町三丁目","[旧石器時代][縄文時代（早期〜中期）][弥生時代][奈良時代][平安時代][中世]","集落","[縄文時代]炉穴　土坑　[弥生時代][古墳時代][奈良時代]住居　[中世]地下式土坑　[時代不明]溝","縄文土器　石器　土師器　須恵器　陶磁器　カワラケ",139.5463482,35.66730348,TRUE
13208002500,13208,"25","うえのはらいせき","上野原遺跡","調布市 深大寺南町一丁目　 深大寺南町二丁目　 深大寺南町三丁目　 深大寺南町四丁目　　 深大寺南町五丁目　 佐須町五丁目　 柴崎二丁目","[旧石器時代][縄文時代（早期・後期）][古墳時代][奈良時代][平安時代][近世]","集落","[旧石器時代]礫群　[縄文時代]住居　集石　集石土坑　炉穴　陥し穴　土坑　[古墳時代]土壙墓　[平安時代]住居溝　[中世]土坑　地下室　濠　[中世][近世]溝　堀　[時代不明]掘立柱建物","ナイフ形石器　縄文土器　打斧　土師器　須恵器　陶器（灰釉）　鉄製品　木製品　陶磁器　ガラス",139.5588752,35.66405133,TRUE
13208002700,13208,"27","のがわいせき","野川遺跡","調布市 野水一丁目　野水二丁目","[旧石器時代][縄文時代（早期〜後期）][弥生時代]","包蔵地","[旧石器時代]礫群　配石　[縄文時代]住居　三鷹2に接続","ナイフ形石器　尖頭器　細石器　礫器　縄文土器　石器　弥生土器",139.5248308,35.68457177,TRUE
13208003600,13208,"36","きたうらいせき","北浦遺跡","調布市 八雲台一丁目 八雲台二丁目","[旧石器時代][縄文時代（草創期〜中期）][古墳時代][奈良時代][平安時代][中世][近世]","包蔵地・集落","[旧石器時代]遺物集中箇所 炭化物集中箇所 [縄文時代]集石 土坑 埋甕 [奈良時代][平安時代]住居 [近世]ピット 土坑 溝","尖頭器 礫器 剥片 縄文土器 有舌尖頭器 土師器 須恵器 陶磁器",139.5582019,35.653348,TRUE
13208003800,13208,"38","とびたきゅういせき","飛田給遺跡","調布市 飛田給一丁目 飛田給二丁目","[旧石器時代][縄文時代（前期〜晩期）][古墳時代][奈良時代][平安時代][近世]","集落","[縄文時代]住居 敷石住居 集石 陥し穴 土坑 土器 棺墓 配石墓 埋甕 [古墳時代][奈良時代][平安時代]住居 掘立柱建物 土坑 溝 祭祀遺構 [中世][近世]住居 掘立柱建物 地下式土壙 土坑 溝","尖頭器 掻器 縄文土器 打斧 土錘 耳飾 土師器 須恵器 墨書土器 砥石 鉄鎌 刀子 鉄錐 鉄鏃 陶磁器 装身具 銭貨 人骨",139.5229111,35.65969456,TRUE
13208004500,13208,"45","かみふだいせき","上布田遺跡","調布市 布田三丁目 布田五丁目 布田六丁目 小島町三丁目","[旧石器時代][縄文時代（早期〜晩期）][古墳時代][奈良時代][平安時代][中世][近世]","集落","[縄文時代]住居 竪穴状遺構 集石 土坑 炉 柱穴 土壙墓 埋甕 配石 [古墳時代]住居 溝 円形周溝 [奈良時代][平安時代]住居 掘立柱建物 柱穴 土坑 竈 溝 道路状遺構 鍛冶工房 火葬墓 井戸 [中世]地下式土坑 土壙墓 [中世][近世]掘立柱建物 集石 土坑 溝 [近世]土壙墓 溝 道路遺構 [平安時代]蔵骨器","縄文土器 石器 土製品 石製品 土師器 須恵器 墨書土器 陶器（灰釉） 土製支脚 鎌 刀子 土錘 羽口 <U+9299>帯 銅製丸鞘 陶磁器 カワラケ 硯 砥石 石臼 瓦 板碑 銭貨 鉄滓 人骨 打製石斧 敲石 石皿 石棒 金銅製巡方 鉄製品 石器及び焼礫 土師器甕及び須恵器蓋（人骨、墨書土器を含む） 木製品",139.5445643,35.64632794,TRUE
13208004700,13208,"47","こくりょうみなみいせき","国領南遺跡","調布市 国領町五丁目　 国領町六丁目","[旧石器時代][縄文時代（早期・中期）][古墳時代][奈良時代][平安時代][中世][近世]","集落","[縄文時代]住居　集石　陥し穴　埋甕　[古墳時代]方形周溝墓　土壙墓　[古墳時代][奈良時代][平安時代]住居　掘立柱建物　溝　[中世]地下式土坑　[近世]土坑　溝","ナイフ形石器　縄文土器　土製品　土師器　須恵器　鉄製品　陶磁器",139.5532333,35.64551589,TRUE
13208005000,13208,"50","とびたきゅうきたいせき","飛田給北遺跡","調布市 西町　 飛田給一丁目","[旧石器時代][縄文時代（中期）][奈良時代][平安時代][近世]","集落","[旧石器時代]礫群　[縄文時代]土坑　陥穴　[古墳時代]住居　竪穴状遺構　竈　土坑　竪穴住居　[近世]ピット列　土坑　溝","ナイフ形石器　細石刃　掻器　敲石　磨石　石核　剥片　砕片　縄文土器　打斧　礫器　石槍　石皿　磨石　土玉　土師器　須恵器　砥石　帯金具　陶磁器　打製石斧　墨書土器",139.5240667,35.66610443,TRUE
13208006300,13208,"63","のみずいせき","野水遺跡","調布市 西町","[旧石器時代]","集落","[旧石器時代]礫群","石器",139.5272505,35.67708449,TRUE
13208006400,13208,"64","ふじみちょういせき","富士見町遺跡","調布市 富士見町三丁目 富士見町四丁目","[旧石器時代][縄文時代（早期・中期）]","集落","[旧石器時代] 炭化物集中 石器集中部17 礫群7 炭化物集中3 柱穴","ナイフ形石器 台形石器等 礫 縄文土器・石器",139.5379279,35.66511934,TRUE
13208006500,13208,"65","きたのいせき","北野遺跡","調布市 緑ヶ丘一丁目","[旧石器時代][縄文時代（早期・中期）]","集落","[縄文時代]住居 小穴","縄文土器（中期）石器・キセル",139.5799928,35.67215293,TRUE
13209006000,13209,"60","たまにゅーたうんNo.209いせき","多摩ニュータウンNo.209遺跡","町田市 小山ヶ丘三丁目","[旧石器時代][縄文時代（早期〜中期）][弥生時代][古墳時代][奈良時代][平安時代][近世]","集落","[縄文時代]住居 集石 炉跡 炉穴 焼土 [近世]土坑 炭焼窯 伏窯 溝状遺構 ピット群","ナイフ形石器 縄文土器 石器 土製品 弥生土器 土師器 陶磁器",139.3771874,35.59835362,TRUE
13209006100,13209,"61","たまにゅーたうんNo.345いせき","多摩ニュータウンNo.345遺跡","町田市 小山ヶ丘三丁目","[旧石器時代][縄文時代（早期〜中期）][弥生時代（中期）][古墳時代][奈良時代][平安時代][中世][近世]","集落","[縄文時代]土坑　[弥生時代]住居　[古墳時代]住居　[奈良時代][平安時代]土坑　[近世]炭窯","掻器　剥片　縄文土器　石槍　石鏃　弥生土器　環状石斧　管玉　土師器　陶磁器",139.3761111,35.60000963,TRUE
13209007800,13209,"78","たまにゅーたうんNo.344いせき","多摩ニュータウンNo.344遺跡","町田市 小山ヶ丘二丁目　 小山ヶ丘三丁目","[旧石器時代][縄文時代（早期〜中期）][弥生時代][古墳時代][近世]","集落","[縄文時代]住居　竪穴状遺構　炉穴　焼土　土坑　墓坑　埋甕　[古墳時代]住居　柱穴　[近世]炭窯　溝　杭列","礫器　縄文土器　打斧　石鏃　磨石　土師器　鉄製品　種子　銭貨",139.3759354,35.60233576,TRUE
13209008400,13209,"84","たまにゅーたうんNo.939いせき","多摩ニュータウンNo.939遺跡","町田市 小山ヶ丘三丁目","[旧石器時代][縄文時代（早期〜後期）][弥生時代][古墳時代][奈良時代][平安時代][中世][近世]","集落・横穴墓","[縄文時代]住居　集石　炉穴　焼土　土坑　ピット　[弥生時代]住居　土坑　方形周溝墓　[古墳時代]〜[平安時代]住居　竪穴状遺構　焼土　土坑　[中世][近世]建物　炉　土坑　蔵　井戸　粘土採掘坑　炭窯　段切状遺構　溝　道路状遺構","石器　縄文土器　打斧　石鏃　磨石　弥生土器　土師器　須恵器　置き竈　鉄鏃　瓦　陶磁器　擂鉢　砥石　銭貨",139.3676744,35.60018211,TRUE
13209008600,13209,"86","おやまたかまち（たまにゅーたうんNo.339）いせき","小山高町(多摩ニュータウンNo.339)遺跡","町田市 小山町 小山ヶ丘二丁目 小山ヶ丘三丁目","[旧石器時代][縄文時代（前期〜後期）][古墳時代][奈良時代][平安時代]","集落","[旧石器時代]遺物集中区 礫群 [縄文時代]焼土 陥穴 [古墳時代]杭列 [奈良時代][平安時代]住居 掘立柱建物","ナイフ形石器 尖頭器 細石刃 細石刃核剥片 縄文土器 土師器 須恵器 古銭 土製品 木製品 種子",139.3670776,35.60227993,TRUE
13209010000,13209,"100","たまにゅーたうんNo.342いせき","多摩ニュータウンNo.342遺跡","町田市 小山ヶ丘二丁目　小山ヶ丘三丁目　小山ヶ丘四丁目　小山ヶ丘五丁目","[旧石器時代][縄文時代（早期〜後期）][弥生時代（中期）][古墳時代][奈良時代][平安時代][中世][近世]","集落・窯","[旧石器時代]遺物集中地点　礫群　炭化物集中地点　[縄文時代]住居　集石　炉穴　焼土　陥し穴　土坑　[古墳時代]窯　[古墳時代]〜[平安時代]溝　[平安時代]〜[中世]住居　土坑　[近世]ピット群　土坑　粘土採掘坑　山砂採掘坑　炭窯　溝　河道　墓壙","ナイフ形石器　掻器　錐　石核　剥片　礫　炭化物　縄文土器　打斧　磨斧　礫器　石匙　石皿　磨石　凹石　弥生土器　土師器　須恵器　陶器（灰釉）　置き竈　砥石　穂摘み具　瓦　陶磁器　臼　鉄製品　墓石　銭貨",139.366185,35.60341048,TRUE
13209010200,13209,"102","たばた・たばたひがし（たまにゅーたうんNo.245）いせき","田端・田端東（多摩ニュータウンNo.245）遺跡","町田市 小山町 小山ヶ丘五丁目","[旧石器時代][縄文時代（前期〜晩期）][弥生時代][古墳時代][奈良時代][平安時代][中世][近世]","集落","[旧石器時代]遺物集中区 礫群 [縄文時代]住居 集石 集石土坑 焼土 土坑 環状積石 埋甕 配石 [奈良時代][平安時代]住居 掘立柱建物 焼土 土坑 [中世]地下式土坑 [近世]井戸","尖頭器 縄文土器 石器 耳飾 垂飾 石棒 土偶 土製品 土鈴 土師器 須恵器 陶磁器 板碑 古銭 石製品 銅製品ほか",139.3633985,35.60097228,TRUE
13209015900,13209,"159","","町田市No.159遺跡","町田市 上小山田町","[旧石器時代][縄文時代（前期〜中期）]","包蔵地","","縄文土器",139.4045167,35.60915259,TRUE
13209016800,13209,"168","たなかやといせき","田中谷戸遺跡","町田市 上小山田町","[旧石器時代][縄文時代（早期〜後期）][奈良時代][平安時代][現代]","集落","[縄文時代]炉穴　焼土　土坑　竪穴状遺構　[現]タコ壷　軍事遺構　焼土","尖頭器　縄文土器　石器　石製品",139.3876475,35.59837634,TRUE
13209021200,13209,"212","","町田市No.212遺跡","町田市 常盤町　下小山田町","[旧石器時代][縄文時代（早期〜中期）][平安時代]","包蔵地","","ナイフ形石器　縄文土器　打斧　土師器",139.4063257,35.58415805,TRUE
13209026600,13209,"266","どうばいせき","堂場遺跡","町田市 小野路町","[旧石器時代][縄文時代（早期）][奈良時代][平安時代]","包蔵地","[縄文時代]小竪穴　炉穴　土坑　ピット","ナイフ形石器　石刃　縄文土器　石器　土師器",139.432463,35.60582308,TRUE
13209029300,13209,"293","","町田市No.293遺跡","町田市 野津田町","[旧石器時代][縄文時代（中期）]","包蔵地","","縄文土器",139.45551,35.59182028,TRUE
13209029500,13209,"295","あやべはらいせき","綾部原遺跡","町田市 野津田町　 小野路町","[旧石器時代][縄文時代（草創期〜晩期）][弥生時代（前期〜後期）][古墳時代][奈良時代][平安時代][中世][近世]","集落・その他の墓","[旧石器時代]石器ブロック　礫群　[縄文時代]住居　陥穴　土坑　集石　配石　ピット　[弥生時代]土器埋設土坑　ピット　[古墳時代]住居　火葬墓　[古墳時代]〜[奈良時代]集石　土坑　[奈良時代][平安時代]住居　[中世]掘建柱建物　土坑　井戸　地下式坑　道路状遺構　溝　[近世]馬墓壙　[時代不明]住居","ナイフ形石器　縄文土器　打斧　石鏃　石皿　磨石　剥片　耳飾　土偶　土版　スタンプ形土製品　弥生土器　土師器　須恵器　灰釉陶器　陶磁器　瓦　砥石　鉄製品",139.4514588,35.59126191,TRUE
13209032500,13209,"325","かわしだにいせきぐんだい3ちてん","川島谷遺跡群第3地点","町田市 薬師台三丁目","[旧石器時代][縄文時代（早期）][奈良時代][平安時代][中世]","集落","[縄文時代]炉穴　陥穴　土坑　[奈良時代][平安時代]住居　焼土　[近世]土坑","ナイフ形石器　尖頭器　縄文土器　石器　土製品　土師器　須恵器　陶器（灰釉他）　石製品　鉄器",139.4533662,35.58204918,TRUE
13209034200,13209,"342","しんこうじひろばかまいせきぐんNo.3ちてん（おおくぼ）","真光寺広袴遺跡群No.3地点(大久保)","町田市 真光寺一丁目　真光寺二丁目","[旧石器時代][縄文時代（早期〜前期・後期）][奈良時代][平安時代][中世][近世]","包蔵地・社寺？","[縄文時代]集石土坑　焼土　土坑　[平安時代]〜[近世]掘立柱建物　竪穴状遺構　礎石柱建物　ピット　井戸　土坑　段切状遺構　溝　道路状遺構　階段　炭焼窯　地下式土坑　[近世]墓壙","ナイフ形石器　尖頭器　有舌尖頭器　縄文土器　打斧　礫器　石鏃　石皿　磨石　敲石　土師器　須恵器　土師質土器　陶磁器　瓦　石製品　金属製品　木製品　板碑　かわらけ　古銭　人骨",139.4674571,35.60370123,TRUE
13209034400,13209,"344","しんこうじひろばかまいせきぐんNo.5・No.6ちてん（みやた）","真光寺広袴遺跡群No.5・No.6地点(三矢田）","町田市 真光寺二丁目","[旧石器時代][縄文時代（草創期〜中期）][古墳時代][奈良時代][平安時代][中世][近世]","集落","[縄文時代]住居　竪穴状遺構　集石　炉穴　焼土　陥穴　土坑　遺物集中箇所　礫群　[古墳時代]〜[平安時代]住居　ピット　土坑　製鉄関連遺構　道路状遺構　[中世][近世]土坑　砂採掘坑　炭焼窯","尖頭器　縄文土器　石槍　有舌尖頭器　石器　土師器",139.47065,35.60189675,TRUE
13209034900,13209,"349","","町田市No.349遺跡","町田市 真光寺町","[旧石器時代][縄文時代（前期〜中期）][中世][近世]","包蔵地・その他（塚）","","縄文土器　石器",139.4614833,35.59901149,TRUE
13209035400,13209,"354","","町田市No.354遺跡","町田市 大蔵町","[旧石器時代][奈良時代][平安時代]","包蔵地","","土師器",139.4656204,35.58964954,TRUE
13209039900,13209,"399","つるかわいせきぐんぴーちてん","鶴川遺跡群P地点","町田市 鶴川六丁目","[旧石器時代][平安時代]","集落","[平安時代]住居","尖頭器　土師器　須恵器　砥石　鉄製品",139.4726712,35.59170583,TRUE
13209041600,13209,"416","","町田市No.416遺跡","町田市 能ヶ谷七丁目","[旧石器時代][奈良時代][平安時代]","包蔵地","","土師器",139.4780205,35.59236347,TRUE
13209043300,13209,"433","のうがやへいわだいいせきNo.5","能ケ谷平和台遺跡No.5","町田市 能ヶ谷七丁目","[旧石器時代][縄文時代（早期・中期）][古墳時代]","集落","[縄文時代]住居　炉穴　[古墳時代]住居","ナイフ形石器　縄文土器　打斧　礫器　石鏃　石皿　土師器　須恵器",139.4815349,35.59458434,TRUE
13209043700,13209,"437","すぎやまじんじゃきたいせき","椙山神社北遺跡","町田市 三輪町","[旧石器時代][縄文時代（早期・中期〜晩期）][弥生時代（前期〜後期）][古墳時代][奈良時代][平安時代]","集落","[縄文時代]土坑　[弥生時代]竪穴住居　土坑　壺棺墓　土器埋納土坑　[古墳時代]竪穴住居","彫器　剥片　縄文土器　石器　弥生土器　土師器　須恵器　陶磁器　鉄器",139.4954244,35.57808697,TRUE
13209046300,13209,"463","みわみなみいせきぐん（えー-8）","三輪南遺跡群（A−8）","町田市 三輪緑山三丁目","[旧石器時代][縄文時代（早期〜後期）][古墳時代][奈良時代][平安時代]","集落","[縄文時代]住居　集石　土坑　[古墳時代]住居　土坑　[奈良時代][平安時代]住居　掘立柱建物　土坑","ナイフ形石器　尖頭器　縄文土器　礫器　石鏃　打製石器　石錐　石皿　磨石　敲石　台石　石核　剥片　垂飾品　土師器　須恵器　鉄製品",139.488013,35.57543517,TRUE
13209046400,13209,"464","ただおびーちくいせき","忠生B地区遺跡","町田市 矢部町　 根岸町","[旧石器時代][縄文時代（草創期〜後期）][中世]","台地　集落・墳墓","[旧石器時代]ブロック　礫群　[縄文時代]住居　[中世]墓壙","ナイフ形石器　尖頭器　細石刃　細石刃核　縄文土器　石器　石製品　土製品　かわらけ　板碑　銀貨　人骨",139.4049682,35.57790611,TRUE
13209049600,13209,"496","やまざきいせきぐんびーちてん","山崎遺跡群B地点","町田市 山崎町","[旧石器時代][縄文時代（中期〜後期）][奈良時代][平安時代]","包蔵地","[縄文時代]敷石遺構","ナイフ形石器　尖頭器　縄文土器　打斧　磨斧　石鏃　石皿　磨石　異形石器　土錘　土師器",139.4316328,35.56941435,TRUE
13209050400,13209,"504","きそだんちいせきぐん","木曽団地遺跡群","町田市 木曽東四丁目","[旧石器時代][縄文時代（中期〜後期）]","集落","[縄文時代]住居　配石遺構","尖頭器　縄文土器　石器",139.432022,35.56701274,TRUE
13209052300,13209,"523","かないきくら・いりやとえーちてんいせき","金井木倉・入谷戸A地点遺跡","町田市 金井二丁目","[旧石器時代][縄文時代（草創期〜早期・晩期）][奈良時代][平安時代][近世]","集落","[縄文時代]住居　陥穴　[奈良時代][平安時代]土壙　墓　[近世]炭焼窯","ナイフ形石器　縄文土器　石器　土師器　土製品",139.4555291,35.57330916,TRUE
13209053700,13209,"537","","町田市No.537遺跡","町田市 金井六丁目　 金井八丁目","[旧石器時代]","包蔵地","","",139.4668587,35.57696772,TRUE
13209061700,13209,"617","きそもりの・きそもりのみなみ・もりのろくちょうめいせき","木曽森野・木曽森野南・森野６丁目遺跡","町田市 木曽東一丁目　 森野四丁目　 森野六丁目","[旧石器時代][縄文時代（早期・中期・晩期）][奈良時代][平安時代][中世][近世]","集落","[旧石器時代]礫群　ユニット　[縄文時代]住居　竪穴状遺構　配石　埋甕　集石　土坑　[奈良時代]竪穴住居　掘立柱建物　溝状遺構　焼成窯　溝　[平安時代]焼成窯　[中世]建物跡　溝状遺構　集石　土坑　[近世]土坑　耕作関連遺構","尖頭器　ナイフ形石器　削器　石器　礫　縄文土器　土師器　須恵器　墨書土器　陶器(灰釉)　鉄製品　石製品　羽口　土師器",139.4295872,35.55494419,TRUE
13209068500,13209,"685","なすなはらいせき","なすな原遺跡","町田市 南成瀬七丁目　 南成瀬八丁目","[旧石器時代][縄文時代（草創期〜晩期）][弥生時代（後期）][古墳時代][奈良時代][平安時代]","集落","[旧石器時代]ブロック　[縄文時代]住居　敷石住居　柱穴列　集石　土坑　焼土　埋設土器　配石遺構　土器集中址　[弥生時代]方形周溝墓　[古墳時代]住居　掘建柱建物　円形周溝　土坑　[奈良時代][平安時代]住居　掘立柱建物　土坑　井戸状遺構","尖頭器　縄文土器　石器　装飾品　石製品　骨角器　弥生土器　土師器　須恵器",139.4837216,35.53240167,TRUE
13209068800,13209,"688","","町田市No.688遺跡","町田市 つくし野二丁目","[旧石器時代]","包蔵地","","石刃　掻器",139.4826996,35.52668859,TRUE
13209070800,13209,"708","たまにゅーたうんNo.517いせき","多摩ニュータウンNo.517遺跡","町田市 小山ヶ丘一丁目","[旧石器時代]","包蔵地","","ナイフ形石器",139.3858809,35.59814389,TRUE
13209071000,13209,"710","ふくしょうじきたいせき","福生寺北遺跡","町田市 小山町","[旧石器時代][縄文時代（中期）][弥生時代（中期）][古墳時代][平安時代][中世]","集落･横穴墓","[縄文時代]住居　集石　土坑　陥穴　〔弥生時代〕住居〔古墳時代〕横穴墓　[時代不明]住居","ナイフ形石器　縄文土器　石斧　弥生土器　土師器　須恵器　板碑　人骨",139.3695572,35.60077944,TRUE
13209071900,13209,"719","せりがやいせき","芹ヶ谷遺跡","町田市 南大谷","[旧石器時代][縄文時代（早期〜後期）][古墳時代][奈良時代][平安時代]","包蔵地","[旧石器時代]礫群　ブロック","細石刃　石核　剥片　縄文土器　打斧　磨石　土師器",139.4514243,35.54871796,TRUE
13209072100,13209,"721","","町田市No.721遺跡","町田市 南つくし野二丁目","[旧石器時代]","包蔵地","","ナイフ形石器　片刃石器　掻器",139.4761421,35.51470094,TRUE
13209074300,13209,"743","おやまだいせきぐんNo.8いせき","小山田遺跡群No.8遺跡","町田市 小山田桜台一丁目　 小山田桜台二丁目","[旧石器時代][縄文時代（早期〜前期）]","包蔵地","[縄文時代]集石　土坑","ナイフ形石器　縄文土器　石器",139.4043394,35.59237341,TRUE
13209074500,13209,"745","おやまだいせきぐんNo.10いせき","小山田遺跡群No.10遺跡","町田市 小山田桜台一丁目　 小山田桜台二丁目","[旧石器時代][縄文時代（早期〜中期）][弥生時代][奈良時代][平安時代][近世]","集落","[縄文時代]土坑　[奈良時代][平安時代]住居　土坑","尖頭器　縄文土器　石器　土師器　須恵器　陶器（灰釉）　施釉陶器　瓦",139.4014384,35.5891069,TRUE
13209074700,13209,"747","おやまだいせきぐんNo.12いせき","小山田遺跡群No.12遺跡","町田市 下小山田町　 小山田桜台一丁目","[旧石器時代][縄文時代（早期〜後期）][平安時代][中世]","集落","[縄文時代]住居　土坑　墓壙　集石　[平安時代]〜[中世]掘立柱建物　井戸　土坑　地下式横穴　竪穴状遺構","尖頭器　縄文土器　石器　土製品　土師質土器　土師器　須恵器　灰釉陶器　陶器　古銭",139.407395,35.58902315,TRUE
13209075800,13209,"758","おやまだいせきぐんNo.23いせき","小山田遺跡群No.23遺跡","町田市 下小山田町　 小山田桜台一丁目","[旧石器時代][縄文時代（早期〜前期）][奈良時代][平安時代]","集落","[縄文時代]土坑　配石　[奈良時代][平安時代]住居　[近世]炭焼窯","縄文土器　石器　土製品　土師器　須恵器",139.406777,35.58842288,TRUE
13209078400,13209,"784","さかいいせき","堺遺跡","町田市 相原町","[旧石器時代][縄文時代（早期〜後期）][奈良時代][平安時代]","集落","[縄文時代]土坑　[平安時代]住居　土坑","ナイフ形石器　剥片　縄文土器　石器　土師器　須恵器　灰釉陶器　土製品　鉄器　瓦",139.3386728,35.60646099,TRUE
13209079800,13209,"798","ほうせいだいがくたまこうちいせきぐんえーちく","法政大学多摩校地遺跡群A地区","町田市 相原町","[旧石器時代][縄文時代（前期）][平安時代][近世]","集落","[旧石器時代]ユニット　[縄文時代]住居　集石　土坑　陥穴　[平安時代]住居　焼土　土坑　溝　[近世]炭焼窯","ナイフ形石器　彫器　石核　剥片　縄文土器　石器　土師器　須恵器　砥石　刀子　紡錘車鈴（鉄製・銅製）　硯　石帯　板碑　古銭",139.2989395,35.61454951,TRUE
13209079900,13209,"799","ほうせいだいがくたまこうちいせきぐんしーちく","法政大学多摩校地遺跡群C地区","町田市 相原町","[旧石器時代][縄文時代（早期〜晩期）][平安時代][中世][近世]","包蔵地","[縄文時代]集石　炉　焼土　土坑　炭化物集中　[平安時代]住居　焼土　土坑　[近世][現]土坑 溝","ナイフ形石器　彫刻刀形石器　縄文土器　石鏃　石槍　掻器　石匙　石錐　楔形石器　石皿　磨石　敲石　石核　剥片　土製品　弥生土器　土師器　須恵器　緑釉陶器　灰釉陶器　鉄製品　石器　陶磁器　石製品　銅製品",139.3012741,35.61226081,TRUE
13209080100,13209,"801","むさしおかおねちくいせき","武蔵岡尾根地区遺跡","町田市 相原町","[旧石器時代][縄文時代（早期・中期〜後期）][奈良時代][平安時代]","集落","[旧石器時代]礫群　[縄文時代]住居　石組炉　集石　炉穴　焼土　土坑","尖頭器　縄文土器　石器　土製品　土師器　須恵器",139.3036774,35.60868808,TRUE
13209080300,13209,"803","あいはらさかしたいせき","相原坂下遺跡","町田市 相原町　小山町","[旧石器時代][縄文時代（中期・後期）][古墳時代][奈良時代][平安時代]","集落","[旧石器時代]礫群　[縄文時代]住居　焼土　土坑　配石　[古墳時代]住居　集石　土坑","ナイフ形石器　尖頭器　縄文土器　石器　土師器　須恵器",139.3438215,35.60385118,TRUE
13209082600,13209,"826","きそちゅうがっこう　ただおえー-2ちくいせき","木曽中学校　忠生A−2区遺跡","町田市 木曽町　根岸町　木曽西一丁目　木曽西二丁目","[旧石器時代][縄文時代（中期〜後期）][奈良時代][平安時代][中世]","集落","[旧石器時代]ブロック　礫群　[縄文時代]住居　集石　土坑　[平安時代]住居　掘立柱建物　土坑　溝　[中世]地下式土坑　井戸他","尖頭器　細石刃　ナイフ形石器　縄文土器　石器　土師器　須恵器　土師質土器　瓦　鉄製品　陶器",139.4138602,35.5685466,TRUE
13209084200,13209,"842","ひがしたまがわがくえんいせき・みなみおおやいせき","東玉川学園遺跡・南大谷遺跡","町田市 南大谷　 西成瀬三丁目　 東玉川学園三丁目","[旧石器時代][縄文時代（前期〜中期）][弥生時代][古墳時代]","集落","[縄文時代]住居　集石　土坑　[弥生時代][古墳時代]住居　[時代不明]竪穴状遺構","尖頭器　縄文土器　石器　土製品　土師器",139.4674918,35.5529358,TRUE
13209084800,13209,"848","しんこうじひろばかまいせきぐんNo.9ちてん（ひかげやまいせき）","真光寺・広袴遺跡群No.9地点(日影山遺跡)","町田市 真光寺一丁目","[旧石器時代][縄文時代（草創期・中期）][平安時代][近世]","集落","[縄文時代]住居　竪穴状遺構　集石土坑　炉穴　土坑　ピット群　溝　[平安時代]ピット列　土坑　墓壙　[平安時代]〜[中世]焼土　道路状遺構　[近世]ピット　土坑　溝　墓壙","ナイフ形石器　細石刃　石核　剥片　縄文土器　土製品　打斧　礫器　石槍　有舌尖頭器　石鏃　掻器　削器　磨石　抉入磨石　石核　剥片　土師器　かわらけ　陶磁器　鉄釘　数珠　古銭　人骨",139.4654658,35.60308711,TRUE
13209084900,13209,"849","しんこうじひろばかまいせきぐんNo.11ちてん","真光寺・広袴遺跡群No.11地点","町田市 広袴三丁目　 真光寺二丁目","[旧石器時代][縄文時代（早期・中期）][奈良時代][平安時代][中世]","包蔵地","","縄文土器　土師器",139.4708874,35.59833336,TRUE
13209085100,13209,"851","しんこうじひろばかまいせきぐんNo.13ちてん（むかいいせき）","真光寺・広袴遺跡群No.13地点(向遺跡)","町田市 広袴三丁目","[旧石器時代][縄文時代（早期〜晩期）][弥生時代（後期）][古墳時代][奈良時代][平安時代][近世]","集落","[旧石器時代]礫群　ブロック　[縄文時代]住居　敷石住居　集石土坑　土坑　[近世]井戸　墓壙群","ナイフ形石器　尖頭器　掻器　削器　彫器　礫器　磨石　石核　剥片　縄文土器　石器　弥生土器　土師器　陶磁器　煙管　古銭　人骨",139.4745452,35.59577803,TRUE
13209085400,13209,"854","おやまたかまちいせき","小山高町遺跡","町田市 小山町","[旧石器時代][縄文時代（中期〜後期）][奈良時代][平安時代]","集落","[旧石器時代]礫群　[縄文時代]焼土　土坑　[平安時代]住居　土坑　掘立柱建物","ナイフ形石器　尖頭器　縄文土器　石器　土師器　須恵器",139.3648815,35.5991133,TRUE
13209087500,13209,"875","たまにゅーたうんNo.950いせき","多摩ニュータウンNo.950遺跡","町田市 小山ヶ丘五丁目","[旧石器時代][縄文時代（早期〜後期）][古墳時代][奈良時代][平安時代][近世]","集落","[縄文時代]住居　焼土　土坑　[古墳時代]土坑　[平安時代]土坑　[近世]炭窯","ナイフ形石器　削器　剥片　縄文土器　石器　軽石製品　土師器　須恵器　銭貨",139.3618687,35.60242137,TRUE
13209089000,13209,"890","たまにゅーたうんNo.937いせき","多摩ニュータウンNo.937遺跡","町田市 小山ヶ丘三丁目","[旧石器時代][縄文時代（早期〜後期）][古墳時代][奈良時代][平安時代][中世]","集落","[縄文時代]住居　焼土　土坑　[平安時代]住居　[平安時代][中世]土坑","石器　縄文土器　打斧　礫器　石鏃　石皿　磨石　土師器　須恵器　陶器（灰釉）　瓦",139.3700869,35.60239159,TRUE
13209090200,13209,"902","たまにゅーたうんNo.924いせき","多摩ニュータウンNo.924遺跡","町田市 小山ヶ丘二丁目","[旧石器時代][縄文時代（早期〜中期）][古墳時代][近世]","集落","[縄文時代]竪穴状遺構　集石　焼土　土坑　[古墳時代]住居　焼土　土坑　[近世]焼土　炭窯　溝","尖頭器　縄文土器　石器　土師器　鉄製品　砥石　管玉　ガラス小玉　陶磁器",139.3778065,35.60304759,TRUE
13209090600,13209,"906","たまにゅーたうんNo.916いせき","多摩ニュータウンNo.916遺跡","町田市 小山ヶ丘三丁目","[旧石器時代][縄文時代（早期〜中期）][古墳時代][奈良時代][平安時代][中世][近世]","集落","[縄文時代]炉穴　焼土　土坑　[古墳時代]住居　土坑　溝　方形周溝墓　[奈良時代][平安時代]土坑　[中世][近世]焼土　土坑　炭窯　溝　道　杭列","尖頭器　剥片　縄文土器　石器　土師器　鉄製品　石製品　陶磁器　銭貨",139.3786636,35.6002519,TRUE
13209091200,13209,"912","たまにゅーたうんNo.915いせき","多摩ニュータウンNo.915遺跡","町田市 小山ヶ丘三丁目","[旧石器時代][縄文時代（早期〜中期）][近世]","包蔵地","[縄文時代]炉穴　土坑　[近世]炭窯","剥片　縄文土器　石器",139.3799168,35.59870257,TRUE
13209092200,13209,"922","かなもりにしいせき","金森西遺跡","町田市 金森東三丁目","[旧石器時代][縄文時代（草創期・前期〜後期）]","集落","[旧石器時代]礫群 [縄文時代]住居 集石 配石 埋設土器 土坑 ピット","ナイフ形石器 剥片 縄文土器 石器 土製品",139.4643387,35.53046468,TRUE
13210000100,13210,"1","ぬくいいせき","貫井遺跡","小金井市 貫井南町三丁目","[旧石器時代][縄文時代（早期〜後期）]","集落","[縄文時代]住居 集石 土坑群","剥片 縄文土器 磨斧 石斧 石鏃 石匙 石皿 磨石 耳栓 硬玉製大珠 土製垂飾",139.49418,35.69966254,TRUE
13210000301,13210,"03-1","へいたいさかいせき","平代坂遺跡","小金井市 前原町三丁目","[旧石器時代][縄文時代（中期）][中世]","集落","[旧石器時代]礫群 [縄文時代]住居 [中世]地下式土坑","ナイフ形石器 尖頭器 礫器 磨石 石核 縄文土器 陶器",139.5013555,35.69879823,TRUE
13210000200,13210,"2","はけうえいせき","はけうえ遺跡","小金井市 貫井南町三丁目 前原町三丁目","[旧石器時代][縄文時代（草創期〜後期）]","集落","[旧石器時代]礫群 [縄文時代]住居 集石 土坑","ナイフ形石器 尖頭器 細石刃 局部磨斧 縄文土器 石斧 石鏃 石皿 スタンプ形石器",139.4983171,35.69904916,TRUE
13210000400,13210,"4","にしのだいいせき","西之台遺跡","小金井市 前原町三丁目 中町四丁目","[旧石器時代][縄文時代（草創期〜後期）]","集落","[旧石器時代]礫群 [縄文時代]集石 炉穴 土坑","ナイフ形石器 尖頭器 有舌尖頭器 細石刃 細石核 掻器 石核 縄文土器 石斧 スタンプ形石器",139.5062213,35.69846149,TRUE
13210000500,13210,"5","なかざんやいせき","中山谷遺跡","小金井市 中町一丁目 中町二丁目 中町三丁目","[旧石器時代][縄文時代（早期〜後期）]","集落","[縄文時代]住居 集石土坑 土坑","細石刃 細石核 礫器 錐状石器 石核 剥片 縄文土器 石斧 石鏃 石匙 石皿 磨石 土器片錘 土製円板",139.5117778,35.69687663,TRUE
13210000600,13210,"6","くりやまいせき","栗山遺跡","小金井市 中町一丁目 東町五丁目","[旧石器時代][縄文時代（中期）]","集落","[旧石器時代]礫群 [縄文時代]住居 土坑群","ナイフ形石器 細石核 剥片 縄文土器 石斧 石鏃 石皿 磨石 土器片錘 土製円板 土偶",139.5189146,35.692814,TRUE
13210000700,13210,"7","あいしーゆーろけーしょん15いせき","ICULoc.15遺跡","小金井市 東町一丁目 東町五丁目","[旧石器時代][縄文時代（中期）]","集落","[旧石器時代]礫群 [縄文時代]土坑","ナイフ形石器 掻器 削器 石核 剥片 縄文土器",139.523292,35.68949583,TRUE
13210000800,13210,"8","あらまきいせき","荒牧遺跡","小金井市 貫井南町四丁目","[旧石器時代][縄文時代（前期〜後期）][近世]","集落","[縄文時代]住居 土坑 [近世]掘立柱穴列 井戸","石核 剥片 縄文土器 石斧 石鏃 土製円板 陶磁器 鉄製品 板碑",139.4947637,35.69670712,TRUE
13210000900,13210,"9","ぬくいみなみいせき","貫井南遺跡","小金井市 貫井南二丁目","[旧石器時代][縄文時代（早期〜後期）]","集落","[縄文時代]住居 集石 土坑群","ナイフ形石器 尖頭器 縄文土器 打斧 磨斧 石鏃 石皿 磨石 けつ状耳飾",139.4984891,35.69393329,TRUE
13210001200,13210,"12","まえはらいせき","前原遺跡","小金井市 前原町一丁目 前原町二丁目","[旧石器時代][縄文時代（草創期〜後期）][近世]","集落","[旧石器時代]礫群 配石 [縄文時代]住居 集石 土坑","ナイフ形石器 尖頭器 剥片 縄文土器 打斧 有舌尖頭器 石鏃 磨石",139.5071998,35.69324753,TRUE
13210001400,13210,"14","しんばしいせき","新橋遺跡","小金井市 中町一丁目","[旧石器時代][縄文時代（後期）]","集落","[旧石器時代]礫群 [縄文時代]住居 土坑","ナイフ形石器 尖頭器 細石刃 細石核 剥片 縄文土器 石斧 石錘",139.5120352,35.69432541,TRUE
13210001600,13210,"16","しちけんやいせき","七軒家遺跡","小金井市 前原町二丁目","[旧石器時代][縄文時代（草創期〜後期）][古墳時代][中世][近世]","包蔵地","[時代不明]土坑 溝状遺構","有舌尖頭器 削器 剥片 縄文土器 打斧 磨石 土師器 陶磁器 カワラケ",139.5141596,35.69129435,TRUE
13210001700,13210,"17","のがわなかすいせき","野川中洲遺跡","小金井市 前原町二丁目","[旧石器時代][縄文時代（後期）]","包蔵地","","ナイフ形石器 槍先形尖頭器 有茎尖頭器 礫器 剥片 縄文土器 打斧",139.5156702,35.69200538,TRUE
13210001800,13210,"18","のがわなかすきたいせき","野川中洲北遺跡","小金井市 中町一丁目","[旧石器時代][縄文時代（草創期〜早期・後期）][古墳時代][平安時代][中世][近世]","集落","[旧石器時代]ブロック 礫群 配石 炭化物集中 [縄文時代]住居 集石 土坑 ピット [平安時代]土坑 [中世]掘立柱建物 ピット 土坑 溝 [近世]ピット 土坑","ナイフ形石器 尖頭器 細石刃 打斧 局部磨斧 礫器 縄文土器 打斧 磨斧 石槍 有舌尖頭器 石鏃 石錘 石皿 磨石 敲石 木製品 土師器 刀子 陶磁器",139.5162195,35.69319042,TRUE
13210001900,13210,"19","むさしのこうえんていしっちいせき","武蔵野公園低湿地遺跡","小金井市 東町五丁目","[旧石器時代][縄文時代（前期〜後期）][古墳時代][中世][近世]","包蔵地","[時代不明]河道 土坑 丸木橋状遺構","石器 縄文土器 石斧 石鏃 石皿 磨石 木製品 漆塗りくし 土師器 板碑 銭貨 陶磁器",139.5197557,35.69098763,TRUE
13210002000,13210,"20","","小金井市No.20遺跡","小金井市 東町一丁目","[旧石器時代][縄文時代（中期〜後期）]","包蔵地","","縄文土器",139.522674,35.68889631,TRUE
13210002200,13210,"22","","小金井市No.22遺跡","小金井市 本町五丁目","[旧石器時代][縄文時代（早期）]","包蔵地","","剥片 縄文土器",139.5015656,35.70648106,TRUE
13211000100,13211,"1","おがわちょういっちょうめいせき","小川町一丁目遺跡","小平市 小川町一丁目","[旧石器時代]","包蔵地","","尖頭器",139.4578838,35.73001709,TRUE
13211000300,13211,"3","すずきいせき","鈴木遺跡","小平市 鈴木町 回田町 御幸町","[旧石器時代][縄文時代（前期〜中期）][近世]","包蔵地・集落","[旧石器時代]ユニット 礫群 炭化物集中箇所 炉 土坑 [縄文時代]土坑 [近世]水車 水路 暗渠","ナイフ形石器 尖頭器 尖頭状石器 細石刃 台形様石器 掻器 彫器 石斧 礫器 敲石 磨石 台石 石核 縄文土器 打斧 石鏃 陶磁器 鉄製品 簪",139.4983763,35.71785988,TRUE
13211000400,13211,"4","はなこがねいみなみいせき","花小金井南遺跡","小平市 花小金井南町一丁目","[旧石器時代]","包蔵地・集落","[旧石器時代]礫群","削器 剥片 石核 礫",139.5131907,35.72010374,TRUE
13212000100,13212,"1","ななつづかいせき","七ツ塚遺跡","日野市 新町四丁目 新町五丁目","[旧石器時代][縄文時代（草創期〜後期）][古墳時代][奈良時代][中世]","集落","[縄文時代]住居 集石 土坑 溝","縄文土器 石鏃 石錘 石棒 弥生土器 土師器 須恵器 陶器",139.3793835,35.68263916,TRUE
13212000600,13212,"6","しんめいうえいせき","神明上遺跡","日野市 神明一丁目 神明二丁目 神明三丁目 神明四丁目 大坂上三丁目 大坂上四丁目 多摩平七丁目","[旧石器時代][縄文時代（早期〜中期）][弥生時代][古墳時代][奈良時代][平安時代][近世]","集落","住居 掘建柱建物跡 土坑 集石 溝","石器 縄文土器 土師器 須恵器ほか",139.3932299,35.67174888,TRUE
13212002200,13212,"22","ひらやまいせき","平山遺跡","日野市 東平山二丁目 西平山 豊田","[旧石器時代][縄文時代（早期・中期）][弥生時代（後期）][古墳時代][奈良時代][平安時代][中世]","集落・古墳・墳墓","[旧石器時代]ユニット、[縄文時代]竪穴建物跡、集石、土坑、炉穴、[弥生時代]竪穴建物跡、方形周溝墓、[古墳時代]竪穴建物跡、古墳、[奈良～平安時代]掘立柱建物跡、柵列（ピット）、[中世]地下式土坑","[旧石器]石器、[縄文]土器、石器、[弥生]土器、[古墳]土師器、須恵器、鉄製刀子、人骨、[平安]土師器、[中世]銭貨、鉄製品",139.3756535,35.65123057,TRUE
13212002500,13212,"25","","日野市No.25遺跡","日野市 旭が丘六丁目","[旧石器時代]","包蔵地","","石器",139.3665114,35.65984208,TRUE
13212002800,13212,"28","みなみだいらいせき","南平遺跡","日野市 南平","[旧石器時代]","包蔵地","[旧石器時代]礫群","礫器 敲石 台石",139.3998752,35.65271619,TRUE
13212005100,13212,"51","","日野市No.51遺跡","日野市 多摩平六丁目","[旧石器時代][縄文時代（早期〜前期・後期）][平安時代][中世]","集落","[旧石器時代]石器ブロック [縄文時代]土坑 ピット [平安時代]竪穴住居址 土坑","石器（尖頭器） 土器 石器 土師器",139.3843692,35.66875754,TRUE
13213000700,13213,"7","ひなたきた","日向北遺跡","東村山市 多摩湖町一丁目","[旧石器時代][縄文時代（早期〜晩期）][弥生時代（後期）][古墳時代][奈良時代][平安時代][中世]","集落","[縄文時代]住居　[古墳時代]住居","尖頭器　縄文土器　打製石斧　磨製石斧　石鏃　石錐　敲石　土錘　垂飾　石棒　石剣　紡錘車　耳栓　土偶　剥片　残核　焼獣骨　弥生土器　土師器　須恵器　陶器　磁器",139.4518359,35.76470573,TRUE
13213001700,13213,"17","なかのわり（ひなた）いせき","中の割(日向)遺跡","東村山市 多摩湖町一丁目　 廻田町三丁目　 廻田町四丁目","[旧石器時代][縄文時代（草創期〜後期）][弥生時代（後期）][古墳時代][奈良時代][平安時代][中世]","集落","［縄文時代］竪穴住居跡　敷石住居　土坑 集石土坑　配石","ナイフ形石器　尖頭器　釉石刃　剥片　残核　縄文土器　耳栓　土製円盤　ミニチュア土器　打製石斧　磨製石斧　石鏃　楔形石器　石棒　敲石　磨石兼敲石　スクレイパー　石皿　台石　石皿兼台石　剥片　残核　弥生土器　瓦　土師器　須恵器　陶器　磁器　板碑",139.4503939,35.76027619,TRUE
13213003000,13213,"30","","東村山市No.30遺跡","東村山市 野口町三丁目","[旧石器時代][縄文時代（中期〜後期）][古墳時代][奈良時代][平安時代]","包蔵地","","縄文土器　剥片　残核　土師器　須恵器",139.4558871,35.76445501,TRUE
13213003100,13213,"31","しょうふくじいせき","正福寺遺跡","東村山市 野口町三丁目　 野口町四丁目","[旧石器時代][縄文時代（早期〜中期）][古墳時代][奈良時代][平安時代][中世]","集落","[奈良時代]住居　[平安時代]住居","尖頭器　縄文土器　打製石斧　石鏃　剥片　石皿　敲石　磨石兼敲石　土師器　須恵器　砥石　紡錘車　刀子　鉄鏃　陶器",139.4575007,35.7645943,TRUE
13213003800,13213,"38","しもざわいせき","下沢遺跡","東村山市 秋津町三丁目　 秋津町四丁目","[旧石器時代][縄文時代（早期〜晩期）][弥生時代（後期）][古墳時代][奈良時代][平安時代][中世]","集落","［縄文時代］住居　[平安時代]住居","ナイフ形石器　縄文土器　打製石斧　磨製石斧　石鏃　石皿　砥石　剥片　焼礫　弥生土器　土師器　須恵器　瓦　刀子　鉄鏃　板碑　陶器",139.4823859,35.77665151,TRUE
13213004000,13213,"40","ささづか（あきつはらかた）いせき","笹塚（秋津原方）遺跡","東村山市 秋津町四丁目　 秋津町五丁目","[旧石器時代][縄文時代（早期〜後期）][古墳時代][奈良時代][平安時代][中世]","集落","［縄文時代］住居　炉穴　土坑　溝","ナイフ形石器　細石刃　尖頭器　剥片　縄文土器　ミニチュア土器　打製石斧　磨製石斧　石鏃　スクレイパー　石匙　石錐　楔形石器　石皿　凹石　敲石　砥石　残核　釣針状石器　石棒　浮子　土器片錘　土製円盤　土師器　須恵器　瓦　陶器　磁器",139.487982,35.77670721,TRUE
13213004400,13213,"44","","東村山市No.44遺跡","東村山市 富士見町三丁目","[旧石器時代][縄文時代（中期）]","包蔵地","[旧石器時代]礫群","ナイフ形石器　残核　剥片　焼礫　縄文土器",139.4520037,35.74886882,TRUE
13213004800,13213,"48","","東村山市No.48遺跡","東村山市 恩多町一丁目","[旧石器時代][縄文時代（早期）]","包蔵地","[旧石器時代]礫群","ナイフ形石器　尖頭器　石錐　残核　剥片　焼礫　スクレイパー　角錐状石器　揉錐器　細石核　細石刃　縄文土器",139.4906943,35.75456034,TRUE
13213004900,13213,"49","","東村山市No.49遺跡","東村山市 恩多町一丁目","[旧石器時代]","包蔵地","[旧石器時代]礫群","焼礫",139.4918616,35.7530558,TRUE
13213005000,13213,"50","","東村山市No.50遺跡","東村山市 恩多町一丁目","[旧石器時代]","包蔵地","","ナイフ形石器　残核　焼礫",139.4932349,35.75472751,TRUE
13213005200,13213,"52","","東村山市No.52遺跡","東村山市 恩多町一丁目","[旧石器時代]","包蔵地","","ナイフ形石器",139.4928249,35.753418,TRUE
13213005300,13213,"53","","東村山市No.53遺跡","東村山市 恩多町一丁目","[旧石器時代][縄文時代（早期）]","集落","[旧石器時代]礫群","ナイフ形石器　尖頭器　剥片　削器　焼礫　縄文土器",139.4929622,35.75221993,TRUE
13213005400,13213,"54","","東村山市No.54遺跡","東村山市 野口町二丁目","[旧石器時代][縄文時代（中期）]","包蔵地","","尖頭器　縄文土器　打製石斧　剥片",139.4615689,35.75939038,TRUE
13213010800,13213,"108","","東村山市No.108遺跡","東村山市 秋津町二丁目　 秋津町三丁目","[旧石器時代][縄文時代（中期）][平安時代][中世]","包蔵地","","剥片　縄文土器　打製石斧　敲石　剥片　土師器　陶器",139.4839652,35.77275187,TRUE
13213011900,13213,"119","やこうみなみいせき","野行南遺跡","東村山市 久米川町一丁目　 久米川町二丁目","[旧石器時代][縄文時代（中期）][奈良時代][平安時代][中世]","集落","[旧石器時代]ブロック　礫群","ナイフ形石器　掻器　削器　ハンマーストーン　剥片　残核　細石刃　焼礫　縄文土器　土師器　須恵器　陶器",139.4827635,35.76548133,TRUE
13213013200,13213,"132","","東村山市No.132遺跡","東村山市 恩多町三丁目　 恩多町五丁目","[旧石器時代][縄文時代（中期〜後期）]","包蔵地","","ナイフ形石器　剥片　縄文土器",139.4846175,35.75734645,TRUE
13213013700,13213,"137","","東村山市No.137遺跡","東村山市 恩多町二丁目","[旧石器時代][縄文時代（中期）][中世]","包蔵地","","剥片　縄文土器　剥片　敲石　陶器　磁器",139.4820897,35.75110543,TRUE
13213013800,13213,"138","","東村山市No.138遺跡","東村山市 恩多町二丁目","[旧石器時代]","包蔵地","","焼礫",139.4837034,35.74901569,TRUE
13213014300,13213,"143","","東村山市No.143遺跡","東村山市 恩多町一丁目","[旧石器時代][縄文時代（中期）][古墳時代]","包蔵地","","焼礫　縄文土器　土師器",139.4873317,35.75241497,TRUE
13213014400,13213,"144","","東村山市No.144遺跡","東村山市 恩多町一丁目","[旧石器時代][縄文時代]","包蔵地","［縄文時代］陥し穴","ナイフ形石器　尖頭器　楔形石器　掻器　彫器　剥片　ハンマーストーン",139.4925502,35.75517329,TRUE
13213014900,13213,"149","しもやけべいせき","下宅部遺跡","東村山市 多摩湖町四丁目","[旧石器時代][縄文時代（草創期〜晩期）][古墳時代][奈良時代][平安時代][中世]","集落","［縄文時代］竪穴状遺構　焼土　土坑　粘土採掘坑　水場遺構　[古墳時代]住居　[平安時代]土坑　[中世]土坑","ナイフ形石器　尖頭器　縄文土器　打製石斧　磨製石斧　石鏃　石錘　スクレイパー　石皿　石錐　磨石　凹石　敲石　石棒　残核　剥片　耳栓　垂飾　土偶　土錘　土玉　腕輪状土製器　土笛　ミニチュア土器　土製円盤　粘土焼成塊　木製品　漆製品　繊維製品　獣骨　貝　昆虫　種実　葉　土師器　須恵器　紡錘車　瓦塔　瓦　木製品　刀子　横刀　鉄鍬　鉄斧　陶器　磁器　板碑",139.4509776,35.76626577,TRUE
13213016500,13213,"165","","東村山市No.165遺跡","東村山市 恩多町二丁目","[旧石器時代][縄文時代（中期）]","包蔵地","","焼礫　縄文土器　剥片",139.4867246,35.74678658,TRUE
13214000100,13214,"1","くまのごういせき","熊ノ郷遺跡","国分寺市 西恋ヶ窪三丁目 西恋ヶ窪四丁目","[旧石器時代][縄文時代]","集落","[旧石器時代]石器集中部 礫群","尖頭器 石刃 礫器 剥片",139.4669101,35.70531943,TRUE
13214000200,13214,"2","こいがくぼいせき","恋ヶ窪遺跡","国分寺市 西恋ヶ窪一丁目　 東恋ヶ窪一丁目　 東恋ヶ窪三丁目","[旧石器時代][縄文時代（早期・中期〜後期）][奈良時代][平安時代][中世]","集落","[縄文時代]住居　敷石住居　集石　土坑　屋外埋甕　[中世]溝","(縄文)縄文土器　打斧　磨斧　石槍　石鏃　掻器　彫器　石匙　石錐　ピエス・エスキーユ　スタンプ形石器　敲石　砥石　土錘　土製円板　耳飾　硬玉製大珠　器台　(中世)陶器",139.4705243,35.70254176,TRUE
13214000300,13214,"3","こいがくぼみなみいせき","恋ヶ窪南遺跡","国分寺市 西恋ヶ窪一丁目 東恋ヶ窪一丁目 泉町一丁目","[旧石器時代][縄文時代（早期・中期）]","集落","[縄文時代]住居 集石土坑 土坑","縄文土器",139.4736221,35.69993871,TRUE
13214000700,13214,"7","たまらんざかいせき","多摩蘭坂遺跡","国分寺市 内藤一丁目 内藤二丁目","[旧石器時代][縄文時代][奈良時代]","集落","[旧石器時代]ユニット礫群","(旧石器時代)ナイフ形石器 尖頭器 角錐状石器 掻器 彫器 打斧 礫器 敲石 (奈良時代)銭貨 須恵器",139.4577268,35.69368698,TRUE
13214000800,13214,"8","はなざわにしいせき","花沢西遺跡","国分寺市 本町四丁目 南町三丁目 泉町一丁目 東恋ヶ窪一丁目","[旧石器時代][縄文時代][弥生時代]","集落","[縄文時代]住居 土坑 埋甕","縄文土器 打斧 磨斧 石鏃 石匙 石錐 スタンプ形石器 石棒 弥生土器",139.4680368,35.69935258,TRUE
13214000900,13214,"9","ひかげやまいせき","日影山遺跡","国分寺市 泉町二丁目 西恋ヶ窪一丁目","[旧石器時代][縄文時代（中期）][奈良時代][平安時代][中世]","包蔵地","[旧石器時代]石器集中部 集石 ユニット 礫群 [縄文時代]竪穴住居 [歴史時代]掘立柱建物 柵列 井戸 火葬墓 土壙墓 井戸 道路跡（鎌倉街道） 溝 土坑 集石 特殊遺構","(旧石器時代)尖頭器 ナイフ形石器 スクレイパー 剥片遺物 石核 (縄文時代)土器 打製石斧 (歴史時代)土師質土器 瓦質土器 土器（在地土器） 陶磁器 銭貨 金属製品（刀子） 砥石 板碑 銭貨 鉄製品（鉄釘） 瓦",139.4717981,35.69264697,TRUE
13214001100,13214,"11","たきくぼいせき","多喜窪遺跡","国分寺市 西元町二丁目 西元町四丁目","[旧石器時代][縄文時代（中期）]","集落","[縄文時代]住居 土壙","縄文土器 打斧 磨斧 石鏃 掻器 石皿 磨石 スタンプ形石器",139.4674663,35.69221292,TRUE
13214001900,13214,"19","むさしこくぶんじあと","武蔵国分寺跡","国分寺市 東元町二丁目 東元町三丁目 東元町四丁目 西元町一丁目 西元町二丁目 西元町三丁目 西元町四丁目 泉町一丁目 泉町二丁目 泉町三丁目 西恋ヶ窪一丁目","[旧石器時代][縄文時代][奈良時代][平安時代][中世][近世]","集落","[縄文時代]住居 [奈良時代][平安時代]住居 掘立柱建物 道路 溝 [中世]門 土坑 地下式横穴","縄文土器 陶磁器 土製品 石製品 鉄製品 青銅製品 瓦 <U+587C>",139.4662512,35.6985094,TRUE
13214002000,13214,"20","とのがやときたいせき","殿ヶ谷戸北遺跡","国分寺市 南町一丁目","[旧石器時代][縄文時代（早期・中期）]","集落","[旧石器時代]礫群","ナイフ形石器 尖頭器 掻器 石核 縄文土器",139.4827089,35.69219995,TRUE
13214002100,13214,"21","とのがやといせき","殿ヶ谷戸遺跡","国分寺市 南町二丁目 東元町一丁目 二丁目","[旧石器時代][縄文時代（早期・中期）]","集落","[旧石器時代]礫群 [縄文時代]土坑","ナイフ形石器 尖頭器 掻器 石核 縄文土器",139.4854196,35.69257342,TRUE
13214002800,13214,"28","ほんちょう（こくぶんじむらせっきじだい）いせき","本町（国分寺村石器時代）遺跡","国分寺市 南町二丁目 本町二丁目","[旧石器時代][縄文時代（中期）][奈良時代][平安時代]","集落","[縄文時代]住居 土坑 埋甕","縄文土器 打斧 磨斧 石鏃 敲石",139.483665,35.70079777,TRUE
13214002900,13214,"29","","国分寺市No.29遺跡","国分寺市 南町一丁目 本町一丁目","[旧石器時代][縄文時代][奈良時代][平安時代]","包蔵地","","縄文土器",139.4851149,35.70016943,TRUE
13214003700,13214,"37","","国分寺市No.37遺跡","国分寺市 西恋ヶ窪三丁目","[旧石器時代][縄文時代][奈良時代][平安時代]","包蔵地","[旧石器時代]ユニット 土坑 [縄文時代]土坑 [奈良時代][平安時代]土坑 溝","ナイフ形石器 尖頭器 細石刃 台形石器 楔形石器 掻器 錐 打斧 磨石 石核 縄文土器 石器",139.464439,35.70336272,TRUE
13214005200,13214,"52","","国分寺市No.52遺跡","国分寺市 西恋ヶ窪三丁目","[旧石器時代]","包蔵地","","",139.4639927,35.70517487,TRUE
13214005300,13214,"53","とうきょうけいざいだいがくこうないいせき","東京経済大学構内遺跡","国分寺市 南町一丁目","[旧石器時代][縄文時代（早期・中期）]","包蔵地","","尖頭器 掻器 彫器 打斧 剥片 縄文土器",139.4901274,35.69927724,TRUE
13214005400,13214,"54","はなざわひがしいせき","花沢東遺跡","国分寺市 南町二丁目 南町三丁目","[旧石器時代][縄文時代]","集落","[旧石器時代]礫群 [縄文時代]住居 土坑","ナイフ形石器 尖頭器 角錐状石器 掻器 敲石 打斧 石匙 石皿 スタンプ形石器 台石 砥石",139.4816738,35.69817697,TRUE
13214005500,13214,"55","ひかりちょういせき","光町遺跡","国分寺市 光町三丁目","[旧石器時代]","集落","[旧石器時代]礫群","ナイフ形石器 角錐状石器 掻器 彫器 敲石 磨石 石核",139.4421917,35.7065688,TRUE
13214005600,13214,"56","","国分寺市No.56遺跡","国分寺市 光町一丁目","[旧石器時代][縄文時代]","包蔵地","[縄文時代]土坑","",139.4486461,35.70160629,TRUE
13214005700,13214,"57","こいがくぼひがしいせき","恋ヶ窪東遺跡","国分寺市 本町四丁目 東恋ヶ窪一丁目 東恋ヶ窪二丁目","[旧石器時代][縄文時代（中期）][奈良時代][平安時代]","集落","[縄文時代]掘立柱建物跡 敷石住居 集石土坑 土坑 屋外埋甕 炉穴 陥穴 特殊遺構","(旧石器時代)細石刃 尖頭器 ナイフ形石器 (縄文時代)縄文土器 ミニチュア土器 耳栓 器台 打製石斧 石鏃 掻器 石匙 石錐 石皿 磨石 土製円板 尖頭器 石棒 硬玉製原石 (奈良・平安時代)土師器 瓦",139.4770468,35.70348715,TRUE
13215000200,13215,"2","みねうえいせき","峰上遺跡","国立市 富士見台三丁目","[旧石器時代][縄文時代][平安時代]","集落","[旧石器時代]ブロック 礫群 配石 [縄文時代]土坑","ナイフ形石器 尖頭器 スクレイパー 敲石 石核 剥片 縄文土器 土師器",139.4363187,35.68552263,TRUE
13215000500,13215,"5","かりやうえにしいせき","仮屋上西遺跡","国立市 谷保","[旧石器時代][縄文時代（中期）][平安時代][中世]","集落","[奈良時代]住居跡 溝状遺構 [平安時代]住居跡 土坑 ピット","土師器 須恵器 陶器 須恵器質陶器 刀子 紡錘車 古銭(隆平永寶) 風字硯",139.4417242,35.6828501,TRUE
13215000800,13215,"8","みどりかわひがしいせき","緑川東遺跡","国立市 青柳一丁目 青柳三丁目","[旧石器時代][縄文時代（早期〜後期）][奈良時代][平安時代][近世]","集落","[旧石器時代]ブロック 礫群 配石 [縄文時代]住居跡 竪穴状遺構 集石 炉穴 土坑 ピット 焼土跡 [奈良時代][平安時代]溝 [近世]溝状遺構 土坑","ナイフ形石器 尖頭器 石核 細石刃核 スクレイパー 縄文土器 打斧 石匙 土偶 打製石斧 有舌尖頭器 石鏃 スタンプ形石器 礫器 扶入磨石 磨石 石皿 石錘 石棒 耳栓 垂飾",139.423645,35.686913,TRUE
13215000900,13215,"9","あおやぎいせき","青柳遺跡","国立市 青柳","[旧石器時代][縄文時代（中期）][平安時代]","包蔵地","","尖頭器 打斧 縄文土器 石斧 土師器",139.4220708,35.6823436,TRUE
13215001200,13215,"12","しけんざけいせき","四軒在家遺跡","国立市 矢川三丁目","[旧石器時代][縄文時代（中期）][古墳時代][平安時代][近世]","集落","[縄文時代]敷石住居 住居跡 集石 土坑 ピット 埋設土器[中世][近世]溝状遺構 土坑 柱穴","縄文土器 剥片 円筒埴輪 打製石斧 異形土器（ミニチュア土器） ナイフ形石器 有舌尖頭器 石鏃 掻器 石匙 スタンプ形石器 土師器 坏 須恵器 陶磁器",139.4274159,35.6809353,TRUE
13219004201,13219,"42-1","べんてんいけいせき","弁財天池遺跡","狛江市 中和泉一丁目","[旧石器時代][縄文時代（中期〜後期）][弥生時代（後期）][古墳時代][奈良時代][平安時代][中世][近世]","集落","[旧石器時代]ブロック [縄文時代]住居 集石 土坑 [弥生時代][古墳時代]方形周溝墓 [古墳時代][奈良時代]住居 [奈良時代][平安時代]掘立柱建物 [中世][近世]土坑","ナイフ形石器 尖頭器 細石刃 縄文土器 打斧 石鏃 石皿 土製円板 石棒 弥生土器 槍先形鉄製品 鉄釧 銅釧 土師器 須恵器 紡錘車 銀製穂積具",139.575899,35.63310663,TRUE
13220000200,13220,"2","べんてんいせき","弁天遺跡","東大和市 蔵敷一丁目","[旧石器時代?][縄文時代（中期〜後期）][平安時代]","包蔵地","","縄文土器　打斧　石鏃　石皿　石核　須恵器",139.4175795,35.75613855,TRUE
13220000700,13220,"7","はちまんやといせき","八幡谷戸遺跡","東大和市 奈良橋一丁目","[旧石器時代][縄文時代（早期〜中期）]","集落","[縄文時代]住居　集石　土坑","尖頭器　縄文土器　打斧　磨斧　石鏃　石皿　磨石",139.4228323,35.75658432,TRUE
13220001300,13220,"13","すなのいせき","砂野遺跡","東大和市 奈良橋六丁目","[旧石器時代]","包蔵地","","尖頭器",139.4250983,35.74911726,TRUE
13220001700,13220,"17","たまこだい3いせき","多摩湖第3遺跡","東大和市 多摩湖一丁目","[旧石器時代][縄文時代][平安時代][近世]","包蔵地","[近世]溝","刃器　打斧　磨斧　石鏃　土師器　須恵器　土錘　臼玉　銭貨",139.4383849,35.76544359,TRUE
13220001800,13220,"18","たまこだい4いせき","多摩湖第4遺跡","東大和市 多摩湖","[旧石器時代][縄文時代（中期）][平安時代]","集落","[縄文時代]住居　[平安時代]住居","ナイフ形石器　縄文土器　石鏃　磨石　凹石　土師器　須恵器",139.435089,35.76608431,TRUE
13220001900,13220,"19","たまこだい5いせき","多摩湖第5遺跡","東大和市 多摩湖二丁目","[旧石器時代][縄文時代（中期）][奈良時代][平安時代]","集落・炭焼窯跡","[平安時代]住居　[近世]炭窯","ナイフ形石器　縄文土器　打斧　磨石　土師器",139.433132,35.76538788,TRUE
13220002200,13220,"22","たまこだい8いせき","多摩湖第8遺跡","東大和市 多摩湖二丁目","[旧石器時代][縄文時代][平安時代][近世]","集落","[平安時代]住居","細石刃　掻器　縄文土器　打斧　凹石　土師器　須恵器　陶磁器　銭貨",139.4287718,35.76522073,TRUE
13220002300,13220,"23","たまこだい9いせき","多摩湖第9遺跡","東大和市 多摩湖二丁目","[旧石器時代][縄文時代（早期〜中期）][平安時代]","包蔵地","","刃器　縄文土器　石鏃　土師器　須恵器",139.4272612,35.76524859,TRUE
13220002500,13220,"25","たまこだい11いせき","多摩湖第11遺跡","東大和市 多摩湖二丁目","[旧石器時代][縄文時代（早期〜後期）][平安時代][近世]","包蔵地","[近世]炭窯　井戸　石畳","ナイフ形石器　尖頭器　掻器　縄文土器　石鏃　土師器　須恵器　陶磁器",139.4251326,35.76469143,TRUE
13220002600,13220,"26","たまこだい12いせき","多摩湖第12遺跡","東大和市 多摩湖二丁目","[旧石器時代][縄文時代（前期〜中期）][平安時代][近世]","集落","[縄文時代]土坑　[平安時代]住居　[近世]瓦窯","縄文土器　打斧　石槍　石鏃　石皿　土師器　瓦",139.4224203,35.76469143,TRUE
13220005000,13220,"50","かいどうないいせき","街道内遺跡","東大和市 高木三丁目","[旧石器時代][縄文時代（中期〜後期）][平安時代]","包蔵地","","ナイフ形石器　尖頭器　縄文土器　打斧　磨斧　石鏃　石匙",139.4319647,35.74797484,TRUE
13220005300,13220,"53","まるやまにのはしいせき","丸山二の橋遺跡","東大和市 奈良橋五丁目","[旧石器時代]","包蔵地","","石器　剥片",139.4292181,35.74814203,TRUE
13220005800,13220,"58","たまこだい36いせき","多摩湖第36遺跡","東大和市 多摩湖二丁目","[旧石器時代][縄文時代（中期）][奈良時代][平安時代][近世]","包蔵地","[縄文時代]土坑　[近世]墓壙","尖頭器　刃器　縄文土器　打斧　石鏃　石皿　磨石　土師器　須恵器",139.4237593,35.76505358,TRUE
13220006700,13220,"67","","東大和市No.67遺跡","東大和市 清水四丁目","[旧石器時代][縄文時代][平安時代]","包蔵地","","石核　縄文土器　土師器",139.445938,35.75115127,TRUE
13220006900,13220,"69","うえのだいいせき","上ノ台遺跡","東大和市 清水二丁目","[旧石器時代][縄文時代（中期）][平安時代][近世]","集落","[旧石器時代]炉　[縄文時代]敷石住居　[平安時代]住居","ナイフ形石器　尖頭器　斧形石器　縄文土器　打斧　石鏃　石棒　土師器　陶磁器",139.4436034,35.75254439,TRUE
13220007000,13220,"70","まるやまいせき","丸山遺跡","東大和市 奈良橋五丁目","[旧石器時代]","包蔵地","[旧石器時代]礫群","ナイフ形石器　剥片",139.4303511,35.74970239,TRUE
13220007500,13220,"75","たまこだい33いせき","多摩湖第33遺跡","東大和市 多摩湖一丁目","[旧石器時代?][縄文時代][奈良時代][平安時代][近世]","包蔵地","","剥片　縄文土器　土師器　須恵器　砥石　銭貨",139.4380759,35.76731004,TRUE
13220007600,13220,"76","しみずかみすなだいいせき","清水上砂台遺跡","東大和市 清水五丁目","[旧石器時代][縄文時代（中期）]","集落","[旧石器時代]礫群　[縄文時代]集石","剥片　縄文土器",139.4444617,35.74858785,TRUE
13221001200,13221,"12","","清瀬市No.12遺跡","清瀬市 野塩一丁目","[旧石器時代][縄文時代（中期）][平安時代]","包蔵地","","掻器　縄文土器　打斧　土師器　須恵器",139.4990861,35.77980242,TRUE
13221001300,13221,"13","のしおにしはらいせき","野塩西原遺跡","清瀬市 野塩一丁目","[旧石器時代][縄文時代（中期）][平安時代]","集落","[平安時代]住居","ナイフ形石器　縄文土器　打斧　焼礫　土師器　須恵器　鉄鏃",139.4991891,35.77849333,TRUE
13221002000,13221,"20","のびどめのしおいせき","野火止野塩遺跡","清瀬市 梅園二丁目","[旧石器時代][縄文時代（早期・中期）][平安時代]","集落","[縄文時代]集石　炉　炉穴群　土坑　配石","剥片　縄文土器　打斧　礫器　石鏃　掻器　石皿　磨石　凹石　土師器　須恵器　陶器(灰釉）　釘",139.5039269,35.7735353,TRUE
13221004200,13221,"42","なかざととうこういんいせき","中里東光院遺跡","清瀬市 中里二丁目","[旧石器時代][縄文時代（中期）]","包蔵地","","ナイフ形石器　剥片　縄文土器　打斧",139.5138833,35.78303327,TRUE
13221006200,13221,"62","したじゅくこわしみずいせき","下宿強清水遺跡","清瀬市 旭ヶ丘六丁目　 下宿三丁目","[旧石器時代][縄文時代（早期〜中期・晩期）][中世]","集落・城館？","[旧石器時代]礫群　[縄文時代]住居　炉穴　土坑　[中世]溝","ナイフ形石器　尖頭器　石刃　掻器　彫器　錐　石核　縄文土器　石鏃　石皿",139.5468006,35.80226953,TRUE
13221006500,13221,"65","いせいせき","伊勢遺跡","清瀬市 中清戸二丁目","[旧石器時代][縄文時代（早期・中期）][近世]","集落","[縄文時代]土坑　[近世]炭　窯","ナイフ形石器　石核　剥片　縄文土器　打斧　石鏃　土師器　須恵器　陶磁器　泥面子",139.5333497,35.77813123,TRUE
13221007700,13221,"77","したじゅくうちやまいせき","下宿内山遺跡","清瀬市 下宿三丁目","[旧石器時代][縄文時代（早期〜晩期）][弥生時代][古墳時代][奈良時代][平安時代][中世][近世]","集落","[縄文時代]竪穴状遺構　集石　土坑　[弥生時代]住居　[奈良時代][平安時代]住居　ピット群　[中世]掘立柱建物　井戸　地下式土坑　[近世]竪穴状遺構　土坑　集石　農道　河道","尖頭器　剥片　縄文土器　土師器　須恵器　鉄製品　陶磁器　板碑　木製品",139.5415821,35.80458062,TRUE
13222000200,13222,"2","みやまえきいせき","宮前遺跡","東久留米市 下里二丁目","［旧石器時代］[縄文時代（中期）]","集落","[縄文時代]住居　土坑","縄文土器　石器",139.5024206,35.75430546,TRUE
13222000300,13222,"3","しんやまいせき","新山遺跡","東久留米市 下里三丁目","［旧石器時代］[縄文時代（中期）][平安時代]","集落","[縄文時代]住居跡　土坑　配石　[平安時代]住居跡　[時代不明]窯状遺構","ナイフ形石器　剥片　縄文土器　打斧　磨斧　石鏃　石錐　石皿　磨石　凹石　土製円板　土師器",139.4993307,35.75227153,TRUE
13222000400,13222,"4","にししもさといせき","西下里遺跡","東久留米市 下里四丁目","[旧石器時代][縄文時代（早期）]","包蔵地","","ナイフ形石器　台形石器　縄文土器",139.4959318,35.75645078,TRUE
13222000500,13222,"5","","東久留米市No.5遺跡","東久留米市 下里五丁目","[旧石器時代][縄文時代（中期）]","包蔵地","","ナイフ形石器　縄文土器",139.5022833,35.75628362,TRUE
13222000600,13222,"6","さかしたいせき","坂下遺跡","東久留米市 下里七丁目","[旧石器時代][縄文時代（中期）]","包蔵地","","ナイフ形石器　石刃　縄文土器",139.5034796,35.76008762,TRUE
13222000700,13222,"7","しもざとほんむらいせき","下里本邑遺跡","東久留米市 野火止三丁目","[旧石器時代][縄文時代（早期〜中期）][弥生時代][奈良時代][平安時代]［近世］","集落","[旧石器時代]石器礫群　[縄文時代]住居跡　土坑　[弥生時代]土坑　方形周溝墓　[奈良時代]住居　[平安時代]住居","ナイフ形石器　尖頭器　細石刃　細石刃核　局部磨斧　礫器　細石器　縄文土器　弥生土器　土師器",139.5090758,35.76109056,TRUE
13222000800,13222,"8","しんめいやまいせき","神明山遺跡","東久留米市 中央町二丁目","[旧石器時代][縄文時代（中期）]","包蔵地","[旧石器時代]礫群","ナイフ形石器　石刃　礫器　縄文土器",139.521661,35.75451382,TRUE
13222000900,13222,"9","","東久留米市No.9遺跡","東久留米市 中央町五丁目","[旧石器時代][縄文時代（前期〜中期）]","包蔵地","","尖頭器　縄文土器",139.5184121,35.75197301,TRUE
13222001000,13222,"10","だいいちしょうがっこういせき","第一小学校遺跡","東久留米市 中央町六丁目","[旧石器時代][縄文時代（中期）]","集落","[旧石器時代]礫群　[縄文時代]住居　土坑","ナイフ形石器　石錘　縄文土器　石器",139.5169575,35.75376155,TRUE
13222001100,13222,"11","こやまだいいせき","小山台遺跡","東久留米市 小山一丁目　 小山二丁目　 小山三丁目","[旧石器時代][縄文時代（早期〜後期）][弥生時代]","集落","[縄文時代]住居","ナイフ形石器　縄文土器　打斧　弥生土器",139.5272526,35.76481261,TRUE
13222001200,13222,"12","","東久留米市No.12遺跡","東久留米市 氷川台一丁目","[旧石器時代][縄文時代（早期〜前期）]","包蔵地","","ナイフ形石器　縄文土器",139.5345311,35.76651193,TRUE
13222001300,13222,"13","","東久留米市No.13遺跡","東久留米市 金山町一丁目　 氷川台二丁目","[旧石器時代][縄文時代（中期）]","包蔵地","","礫器　縄文土器",139.535355,35.76704122,TRUE
13222001400,13222,"14","じゆうがくえんみなみいせき","自由学園南遺跡","東久留米市 学園町一丁目","[旧石器時代][縄文時代（中期）]","集落","[旧石器時代]ブロック　礫群　[縄文時代]住居　集石　炉穴　土坑　ピット　柄鏡形遺構","ナイフ形石器　尖頭器　角錐状石器　台形石器　楔形石器　掻器　削器　彫器　石錐　石斧　礫器　敲石　磨石　石核　剥片　縄文土器　打斧　有茎尖頭器　石鏃　石棒",139.5383028,35.75328621,TRUE
13222001500,13222,"15","じゆうがくえんきたいせき","自由学園北遺跡","東久留米市 学園町一丁目","[旧石器時代][縄文時代（早期〜後期）]","集落","[旧石器時代]礫群","ナイフ形石器　尖頭器　縄文土器",139.5378431,35.75457837,TRUE
13222001600,13222,"16","","東久留米市No.16遺跡","東久留米市 本町四丁目","[旧石器時代][縄文時代]","包蔵地","","尖頭器　縄文土器",139.5298211,35.75698457,TRUE
13222001700,13222,"17","","東久留米市No.17遺跡","東久留米市 浅間町一丁目","[旧石器時代][縄文時代（早期〜中期）]","包蔵地","","縄文土器",139.5384954,35.75733662,TRUE
13222001800,13222,"18","さんかくやまいせき","三角山遺跡","東久留米市 浅間町二丁目","[旧石器時代][縄文時代（早期〜後期）]","集落","[旧石器時代]礫群","ナイフ形石器　尖頭器　縄文土器　有茎尖頭器",139.5435883,35.76018849,TRUE
13222002100,13222,"21","","東久留米市No.21遺跡","東久留米市 柳窪一丁目","[旧石器時代][縄文時代（中期）]","包蔵地","","尖頭器　削器　縄文土器",139.4967558,35.75009824,TRUE
13222002300,13222,"23","","東久留米市No.23遺跡","東久留米市 柳窪五丁目","[旧石器時代][縄文時代（前期）]","包蔵地","","ナイフ形石器　縄文土器",139.4942495,35.7508784,TRUE
13222002400,13222,"24","じとうやまいせき","地頭山遺跡","東久留米市 南沢二丁目","[旧石器時代][縄文時代（中期）]","集落","[旧石器時代]礫群　[縄文時代]住居","尖頭器　縄文土器",139.5318103,35.751165,TRUE
13222002800,13222,"28","たかやなぎいせき","高柳遺跡","東久留米市 南沢三丁目","[旧石器時代][縄文時代（中期）]","包蔵地","","ナイフ形石器　石刃　縄文土器",139.5259309,35.75158294,TRUE
13222003000,13222,"30","かさまつざかいせき","笠松坂遺跡","東久留米市 南沢三丁目","[旧石器時代][縄文時代（中期）]","包蔵地","","ナイフ形石器　石刃　縄文土器",139.5306001,35.75021766,TRUE
13222003400,13222,"34","","東久留米市No.34遺跡","東久留米市 幸町三丁目　 幸町四丁目","[旧石器時代][縄文時代（早期〜中期）]","包蔵地","","尖頭器　縄文土器",139.5182621,35.75841435,TRUE
13222003500,13222,"35","","東久留米市No.35遺跡","東久留米市 幸町二丁目","[旧石器時代][縄文時代（早期・中期〜後期）]","包蔵地","","縄文土器",139.52067,35.75983897,TRUE
13222003600,13222,"36","","東久留米市No.36遺跡","東久留米市 幸町三丁目","[旧石器時代][縄文時代（早期）]","包蔵地","","剥片　縄文土器",139.5230343,35.75897155,TRUE
13222003700,13222,"37","こやまごちょうめいせき","小山五丁目遺跡","東久留米市 小山五丁目","[旧石器時代][縄文時代（中期）]","包蔵地","[旧石器時代]礫群","ナイフ形石器　縄文土器",139.5182232,35.76400472,TRUE
13222003800,13222,"38","","東久留米市No.38遺跡","東久留米市 氷川台一丁目","[旧石器時代][縄文時代（前期）]","包蔵地","","剥片　縄文土器",139.5330204,35.76665122,TRUE
13222003900,13222,"39","","東久留米市No.39遺跡","東久留米市 金山町二丁目","[旧石器時代][縄文時代（早期〜中期）]","包蔵地","","剥片　縄文土器",139.5421185,35.76823907,TRUE
13222004000,13222,"40","","東久留米市No.40遺跡","東久留米市 南沢一丁目","[旧石器時代][縄文時代（早期〜中期）]","包蔵地","","剥片　縄文土器",139.5342136,35.75356116,TRUE
13222004100,13222,"41","","東久留米市No.41遺跡","東久留米市 南沢四丁目","[旧石器時代][縄文時代（中期）]","包蔵地","","ナイフ形石器　縄文土器",139.5299821,35.74929817,TRUE
13222004500,13222,"45","","東久留米市No.45遺跡","東久留米市 下里四丁目","[旧石器時代]","包蔵地","","石刃",139.4961035,35.75458408,TRUE
13222004900,13222,"49","","東久留米市No.49遺跡","東久留米市 前沢四丁目","[旧石器時代]","包蔵地","","ナイフ形石器",139.5119729,35.74660447,TRUE
13222010200,13222,"102","ろくせんいせき","六仙遺跡","東久留米市 中央町三丁目　 中央町四丁目","[旧石器時代][縄文時代（中期）]","集落","[旧石器時代]礫群　[縄文時代]住居　土坑","ナイフ形石器　剥片　縄文土器　打斧　石鏃　掻器　石皿　磨石　凹石　土製円板　石棒",139.522629,35.753078,TRUE
13222010400,13222,"104","たもんじまえいせき","多聞寺前遺跡","東久留米市 南沢一丁目","[旧石器時代][縄文時代（早期〜後期）]","集落","[旧石器時代]石器礫群　[縄文時代]住居跡　集石土坑　炉穴　土坑","ナイフ形石器　尖頭器　斧形石器　石核　剥片　縄文土器　打斧　磨斧　石鏃　削器　石皿　磨石",139.5321193,35.7553443,TRUE
13222010600,13222,"106","たてのいせき","立野遺跡","東久留米市 南沢一丁目　 学園町一丁目","[旧石器時代][縄文時代（早期〜晩期）]","集落","[縄文時代]住居　集石炉　土坑　ピット群","尖頭器　縄文土器　石器",139.5360235,35.75524705,TRUE
13222011400,13222,"114","むこうやまいせき","向山遺跡","東久留米市 南沢三丁目","[旧石器時代][縄文時代（早期〜中期）][平安時代][近世]","集落","[縄文時代]住居　集石土坑　炉穴　焼土　土坑　配石　[平安時代]住居　土坑","ナイフ形石器　尖頭器　細石刃　細石刃核　縄文土器　打斧　石鏃　掻器　石匙　石皿　磨石　スタンプ形石器　敲石　土師器　陶器（灰釉）　刀子　銭貨",139.5278192,35.75049629,TRUE
13222012000,13222,"120","かわぎしいせき","川岸遺跡","東久留米市 浅間町二丁目","[旧石器時代][縄文時代（前期〜中期）]","集落","[旧石器時代]ブロック　礫群　[縄文時代]住居　竪穴住居跡　[近世]井戸?","ナイフ形石器　尖頭器　縄文土器　石鏃　敲石　砥石　陶磁器　煙管",139.5460603,35.76199934,TRUE
13222013100,13222,"131","","東久留米市No.131遺跡","東久留米市 下里六丁目","[旧石器時代]","包蔵地","","石核　剥片",139.4982664,35.75865176,TRUE
13222013600,13222,"136","しんめいやまみなみいせき","神明山南遺跡","東久留米市 中央町三丁目","[旧石器時代][縄文時代（早期〜中期）]","集落","[縄文時代]住居　集石　炉穴　土坑","剥片　縄文土器　石鏃　石匙",139.5205405,35.75236068,TRUE
13222013800,13222,"138","","東久留米市No.138遺跡","東久留米市 下里四丁目","[旧石器時代][縄文時代]","包蔵地","","ナイフ形石器　縄文土器",139.4937689,35.75277305,TRUE
13223001300,13223,"13","きちじょうやまいせき","吉祥山遺跡","武蔵村山市 本町四丁目","[旧石器時代][縄文時代（早期〜晩期）][弥生時代（後期）][古墳時代][平安時代]","集落","[縄文時代]住居　炉穴　野外炉　土坑　[弥生時代]住居　[古墳時代]住居","ナイフ形石器　尖頭器　縄文土器　打斧　石鏃　石刃　弥生土器　土師器　須恵器　瓦",139.387821,35.75868928,TRUE
13223001800,13223,"18","やしきやまいせき","屋敷山遺跡","武蔵村山市 中藤一丁目","[旧石器時代][縄文時代（草創期〜晩期）][弥生時代（後期）][古墳時代][平安時代][中世]","集落","[縄文時代]住居　竪穴状遺構　ピット","縄文土器　打斧　スタンプ形石器　弥生土器　土師器　瓦",139.3980655,35.75746344,TRUE
13223003000,13223,"30","あたごまついせき","アタゴ松遺跡","武蔵村山市 榎三丁目","［旧石器時代］[縄文時代][古墳時代]","包蔵地","","縄文土器　土師器",139.3823414,35.74670853,TRUE
13223003100,13223,"31","おいせじいせき","御伊勢地遺跡","武蔵村山市 中央二丁目","[旧石器時代][縄文時代（中期）]","包蔵地","","ナイフ形石器　縄文土器　打斧",139.3929157,35.75102738,TRUE
13223003300,13223,"33","くぼいせき","久保遺跡","武蔵村山市 神明一丁目","[旧石器時代][縄文時代（草創期・中期）]","包蔵地","","ナイフ形石器　細石刃　縄文土器　石槍　有古尖頭器　石鏃",139.3993015,35.75286631,TRUE
13223003400,13223,"34","ねんぶつづかだい1いせき","念仏塚第1遺跡","武蔵村山市 神明四丁目","[旧石器時代][縄文時代（中期）]","集落","[旧石器時代]ブロック　[縄文時代]集石土坑　土坑　[時代不明]溝","ナイフ形石器　剥片　縄文土器　打斧　陶器",139.4019451,35.7513896,TRUE
13224001000,13224,"10","わだ・もぐさいせき","和田・百草遺跡","多摩市 和田三丁目　 百草　 和田","[旧石器時代][縄文時代（早期〜後期）][古墳時代][奈良時代][平安時代][中世][近世]","集落・屋敷","[旧石器時代]ユニット　[縄文時代]住居　集石　炉穴　陥し穴　土坑　土壙　[古墳時代]住居　溝　方形周溝墓　[奈良時代][平安時代]住居　土坑　溝　[中世]地下式土坑　[中世][近世]建物　井戸　柵","石器　縄文土器　石器　土師器　須恵器　カワラケ　鉄器　石臼",139.4334725,35.64036886,TRUE
13224003500,13224,"35","たまにゅーたうんNo.500いせき","多摩ニュータウンNo.500遺跡","多摩市 馬引沢一丁目","[旧石器時代][奈良時代][平安時代]","集落","[旧石器時代]礫群","剥片　土師器",139.4505672,35.63547739,TRUE
13224005000,13224,"50","たまにゅーたうんNo.511いせき","多摩ニュータウンNo.511遺跡","多摩市 馬引沢二丁目","[旧石器時代][縄文時代（早期〜中期）][中世][近世]","集落","[旧石器時代]ユニット　[縄文時代]竪穴状遺構　土坑　[近世]建物　土坑　井戸","石器　縄文土器　石器　板碑　陶磁器　砥石　石臼　金属器",139.4571417,35.62692284,TRUE
13224005100,13224,"51","たまにゅーたうんNo.379いせき","多摩ニュータウンNo.379遺跡","多摩市 諏訪四丁目他","[旧石器時代][縄文時代（草創期〜中期）][平安時代][中世][近世]","集落","[縄文時代]住居　集石　土坑　[平安時代]土坑　[中世][近世]土坑　溝","ナイフ形石器　剥片　縄文土器　石斧　丸鑿　形石斧　石槍　有茎尖頭器　土師器　須恵器　陶磁器",139.4582404,35.62642053,TRUE
13224006200,13224,"62","たまにゅーたうんNo.91いせき","多摩ニュータウンNo.91遺跡","多摩市 唐木田一丁目","[旧石器時代][縄文時代（早期〜中期・晩期）][弥生時代（前期〜中期）][古墳時代][奈良時代][平安時代][中世][近世]","集落","[縄文時代]住居　集石　焼土　土坑　[古墳時代]土坑　[平安時代]住居　焼土　ピット　土坑　[中世]建物　ピット　集石　井戸　窯状遺構　[近世]建物　ピット　土坑　井戸　炭窯　段切状遺構　溝","ナイフ形石器　剥片　縄文土器　打斧　磨斧　礫器　石鏃　有孔磨製石鏃　掻器　石皿　磨石　凹石　土錘　耳飾　土師器　須恵器　陶器（灰釉・緑釉）　鉄製品　炭化種子　陶磁器　土師質土器　須恵質土器　舶載磁器　鉄鏃　銭貨　陶磁器　土器　石臼　釘　銭貨",139.4038805,35.61597929,TRUE
13224007600,13224,"76","たまにゅーたうんNo.454いせき","多摩ニュータウンNo.454遺跡","多摩市 愛宕四丁目","[旧石器時代][縄文時代（早期〜中期）][奈良時代][平安時代][中世][近世]","集落","[縄文時代]集石土坑　焼土　土坑　ピット　[平安時代]住居　[近世]土坑　集石　溝　道路","尖頭器　細石刃　縄文土器　石器　土師器　須恵器　陶器（灰釉）　瓦",139.4264974,35.6286193,TRUE
13224007900,13224,"79","たまにゅーたうんNo.271いせき","多摩ニュータウンNo.271遺跡","多摩市 落合一丁目","[旧石器時代][縄文時代（早期〜中期）][奈良時代][平安時代][中世][近世]","集落","[縄文時代]集石　土坑　[平安時代]住居　集石　土坑　[中世][近世]掘立柱　建物群　井戸　土坑　地下式土坑　削平面　溝","ナイフ形石器　石核　縄文土器　石器　土師器　須恵器　陶器（灰釉）　陶磁器　瓦　石製品　木製品　銭貨",139.4280123,35.62840765,TRUE
13224008000,13224,"80","たまにゅーたうんNo.452いせき","多摩ニュータウンNo.452遺跡","多摩市 落合一丁目","[旧石器時代][縄文時代（早期〜中期）][弥生時代][古墳時代][奈良時代][平安時代][中世][近世]","集落","[縄文時代]集石　土坑　[奈良時代]住居　[奈良時代][平安時代]住居　集石　土坑　溝　[平安時代]住居　集石　土坑　[中世]建物　焼土　井戸　土坑　地下式土坑　溝　[中世][近世]ピット　柱穴列　杭列　[近世]建物　土坑　焼土　井戸　溝　柵列　石組　木橋","ナイフ形石器　細石刃　石核　縄文土器　石器　弥生土器　匂玉　土師器　須恵器　陶器（灰釉）　砥石　鉄製品　紡錘車　土錘　陶硯　瓦　陶磁器　舶載陶磁器　石製品　鉄製品　銅製品　煙管　木製品　木桶　銭貨",139.4289393,35.62914489,TRUE
13224008700,13224,"87","たまにゅーたうんNo.457いせき","多摩ニュータウンNo.457遺跡","多摩市 鶴牧一丁目","[旧石器時代][縄文時代（早期〜中期）][奈良時代][平安時代][中世][近世]","集落","[縄文時代]住居　竪穴状遺構　集石　炉穴　焼土　土坑　[平安時代]住居　土坑　[中世][近世]掘立柱　建物　ピット群　井戸　土坑　地下式土坑　墓壙　段切り　溝　道路","ナイフ形石器　掻器　剥片　縄文土器　石斧　石鏃　石匙　石皿　磨石　弥生土器　須恵器　陶磁器　瓦器　舶載陶磁器　擂鉢　砥石　刀子　石臼　板碑　銭貨　人骨　馬歯　炭化材　種子",139.418777,35.62317016,TRUE
13224009300,13224,"93","たまにゅーたうんNo.456いせき","多摩ニュータウンNo.456遺跡","多摩市 落合一丁目","[旧石器時代][縄文時代（前期）][平安時代]","包蔵地","[平安時代]土坑","剥片　縄文土器　石器",139.4256434,35.62639842,TRUE
13224009600,13224,"96","たまにゅーたうんNo.57いせき","多摩ニュータウンNo.57遺跡","多摩市 落合一丁目","[旧石器時代][縄文時代（前期〜後期）][中世][近世]","集落","[旧石器時代]ユニット　礫群　[縄文時代]住居　集石　土坑　[近世]墓","ナイフ形石器　石核　剥片　焼礫　縄文土器　石器　土師器　須恵器　銭貨（宋銭・寛永通宝）　胞衣容器　埋葬人骨",139.429214,35.62610314,TRUE
13224010700,13224,"107","たまにゅーたうんNo.450いせき","多摩ニュータウンNo.450遺跡","多摩市 愛宕三丁目","[旧石器時代][縄文時代（早期〜後期）][弥生時代（中期）][奈良時代][平安時代][中世][近世]","集落","[縄文時代]敷石住居　集石　土坑　[奈良時代]住居　[平安時代]住居　集石　土坑　埋甕　[中世]竪穴状遺構　柱穴群　地下式土坑　段切状遺構　[中世][近世]建物　ピット　土坑　集石　井戸　溝　[近世]段切状遺構","ナイフ形石器　尖頭器　掻器　削器　剥片　縄文土器　石器　弥生土器　土師器　須恵器　陶器（灰釉・緑釉）　土製品　砥石　鉄製品　瓦　炭化物　陶磁器　土師質土器　舶載陶磁器　砥石　石臼　石鍋　釘　板碑置台　板碑　土製品　銭貨",139.4338199,35.63222081,TRUE
13224011300,13224,"113","たまにゅーたうんNo.281いせき","多摩ニュータウンNo.281遺跡","多摩市 愛宕二丁目","[旧石器時代][縄文時代（早期〜中期）]","集落","[旧石器時代]ユニット　[縄文時代]住居　敷石住居　集石　土坑","",139.4383518,35.63286261,TRUE
13224011900,13224,"119","たまにゅーたうんNo.27いせき","多摩ニュータウンNo.27遺跡","多摩市 永山一丁目","[旧石器時代][縄文時代（早期〜中期）][奈良時代][平安時代][中世][近世]","集落","[旧石器時代]ユニット　[縄文時代]住居　集石　炉穴　土坑　[平安時代]住居　溝　[中世]地下式土坑　[中世][近世]掘立柱建物　建物　土坑　井戸　溝　道路　墓","ナイフ形石器　石核　剥片　縄文土器　石器　土師器　須恵器　陶器（灰釉）　陶磁器　板碑",139.4452628,35.63200161,TRUE
13224012100,13224,"121","たまにゅーたうんNo.467いせき","多摩ニュータウンNo.467遺跡","多摩市 豊ヶ丘一丁目","[旧石器時代][縄文時代][奈良時代][平安時代][中世][近世]","集落","[縄文時代]土坑　[平安時代]住居　[中世]地下式土坑","ナイフ形石器　礫器　削器　剥片　土師器　陶磁器　土製品",139.4374999,35.62987332,TRUE
13224013200,13224,"132","たまにゅーたうんNo.52いせき","多摩ニュータウンNo.52遺跡","多摩市 永山五丁目","[旧石器時代][縄文時代（早期〜中期）][近世]","集落","[縄文時代]住居　土坑　配石遺構　[中世]掘立柱建物　[近世]炭窯","ナイフ形石器　尖頭器　彫器　石核　縄文土器　打斧　有茎尖頭器　石鏃　石皿　磨石　陶磁器　燈明皿　土製品",139.4447821,35.62002971,TRUE
13224013300,13224,"133","たまにゅーたうんNo.26いせき","多摩ニュータウンNo.26遺跡","多摩市 諏訪二丁目","[旧石器時代][縄文時代（早期〜前期）]","包蔵地","","礫　縄文土器",139.4493483,35.62887625,TRUE
13224014200,13224,"142","たまにゅーたうんNo.466いせき","多摩ニュータウンNo.466遺跡","多摩市 豊ヶ丘二丁目","[旧石器時代][縄文時代（早期〜中期）][中世][近世]","集落","[縄文時代]住居　集石　土坑　[中世][近世]竪穴状遺構　土坑　段切り　溝","剥片石器　縄文土器　打斧　石鏃　石皿　剥片　陶器　カワラケ",139.4362339,35.6267409,TRUE
13224014500,13224,"145","たまにゅーたうんNo.503いせき","多摩ニュータウンNo.503遺跡","多摩市 永山一丁目　 永山三丁目","[旧石器時代][縄文時代（前期〜中期）][奈良時代][平安時代][中世][近世]","集落","[旧石器時代]遺物集中地点　[縄文時代]土坑　集石　[奈良時代][平安時代]土坑　[平安時代]住居　[中世][近世]ピット　土坑　地下室　井戸　段切状遺構","剥片　炭化物　縄文土器　石斧　石槍　石皿　土師器　須恵器　瓦器　陶器（灰釉）　石臼　鉄製品",139.4434088,35.63007618,TRUE
13224014900,13224,"149","たまにゅーたうんNo.31いせき","多摩ニュータウンNo.31遺跡","多摩市 永山二丁目","[旧石器時代][縄文時代（前期〜中期）][平安時代]","集落","[縄文時代]住居　集石　土坑　[平安時代]住居","細石刃核　縄文土器　打斧　石鏃　磨石　土製円板　土製けつ状耳飾　土師器",139.4430998,35.62703446,TRUE
13224017800,13224,"178","たまにゅーたうんNo.519いせき","多摩ニュータウンNo.519遺跡","多摩市 馬引沢一丁目","[旧石器時代][縄文時代（早期〜中期）][中世][近世]","包蔵地","[縄文時代]集石　土坑　[中世]土坑　地下式土坑　溝","尖頭器　縄文土器　石器　陶器　カワラケ　銭貨",139.4511851,35.6365098,TRUE
13224018600,13224,"186","たまにゅーたうんNo.740いせき","多摩ニュータウンNo.740遺跡","多摩市 唐木田一丁目","[旧石器時代][縄文時代（早期〜晩期）][奈良時代][平安時代][中世][近世]","集落","[旧石器時代]石器集中　[縄文時代]住居　竪穴状遺構　集石　土坑　炉穴　焼土　土坑　土器埋設土　坑","ナイフ形石器　尖頭器　細石刃　細石核　彫器　剥片　縄文土器　石器　焼礫　礫　土師器　陶磁器",139.4092363,35.61402556,TRUE
13224021000,13224,"210","ひがしてらかたいせき","東寺方遺跡","多摩市 東寺方","[旧石器時代][縄文時代（早期〜晩期）][古墳時代][奈良時代][平安時代][中世][近世]","集落","[旧石器時代]ユニット　[縄文時代]土坑　[古墳時代]住居　[奈良時代]住居　[奈良時代][平安時代]柱穴群　土坑　[平安時代]掘立柱建物　[近世]炭窯","ナイフ形石器　石刃　角錐状石器　彫器　敲石　石核　剥片　縄文土器　土師器　須恵器　磁器　鉄器　瓦　銭貨",139.4359073,35.64326201,TRUE
13224025500,13224,"255","たまにゅーたうんNo.733いせき","多摩ニュータウンNo.733遺跡","多摩市 唐木田三丁目","[旧石器時代][縄文時代（早期〜中期）]","包蔵地","[縄文時代]焼土　土坑","尖頭器　縄文土器　石器",139.4004473,35.611374,TRUE
13224025600,13224,"256","たまにゅーたうんNo.734いせき","多摩ニュータウンNo.734遺跡","多摩市 唐木田三丁目","[旧石器時代][縄文時代（早期〜後期）][近世]","包蔵地","[縄文時代]集石　焼土　土坑　[近世]溝　[時代不明]土坑","剥片　縄文土器　石器　陶磁器",139.4013742,35.6118485,TRUE
13224028700,13224,"287","たまにゅーたうんいせきNo.769いせき","多摩ニュータウンNo.769遺跡","多摩市 豊ヶ丘一丁目","[旧石器時代][縄文時代（早期〜後期）][奈良時代][平安時代][中世][近世]","集落","[旧石器時代]ユニット　[縄文時代]住居　集石　炉穴　土坑　[奈良時代][平安時代]住居　焼土　土坑　溝　[中世]掘立柱建物　井戸　地下式土坑　[近世]炭窯　道路状遺構　[時代不明]溝","ナイフ形石器　礫　剥片　炭化物　縄文土器　石器　土師器　須恵器　陶器（緑釉・灰釉）　鎌　刀子　鉗　陶磁器　石臼　板碑　銭貨",139.4311871,35.62646184,TRUE
13224029200,13224,"292","たまにゅーたうんいせきNo.774いせき","多摩ニュータウンNo.774遺跡","多摩市 豊ヶ丘一丁目","[旧石器時代][縄文時代（前期）][奈良時代][平安時代][中世][近世]","集落","[旧石器時代]ユニット　[縄文時代]土坑　[奈良時代]住居　[近世]建物　[時代不明]溝状遺構　道路状遺構","ナイフ形石器　尖頭器　掻器　削器　剥片　縄文土器　石器　土師器　須恵器　瓦　陶磁器　金属製品　銭貨",139.434483,35.6281362,TRUE
13224030700,13224,"307","たまにゅーたうんNo.789いせき","多摩ニュータウンNo.789遺跡","多摩市 諏訪六丁目","[旧石器時代][縄文時代（早期〜中期）][弥生時代][古墳時代][平安時代][中世][近世]","集落","[縄文時代]住居　集石　炉穴　焼土　土坑　[古墳時代]土坑　[平安時代]土坑　[近世]炭窯　溝　道路状遺構","剥片　縄文土器　石器　有孔磨製石鏃　土師器　須恵器　土器　鉄鏃　陶磁器　砥石　銭貨",139.4554342,35.61886957,TRUE
13224032200,13224,"322","たまにゅーたうんNo.860いせき","多摩ニュータウンNo.860遺跡","多摩市 馬引沢二丁目","[旧石器時代][縄文時代（前期〜中期）][弥生時代][古墳時代][奈良時代][中世][近世]","集落","[旧石器時代]ユニット　[縄文時代]土坑　[奈良時代]住居　土坑　[中世][近世]掘立柱建物　井戸　溝","尖頭器　石錐状石器　石核　剥片　縄文土器　弥生土器　土師器　須恵器　瓦　陶磁器",139.4530218,35.63378747,TRUE
13225000100,13225,"1","けいおうていとさがみはらせんNo.1いせき","京王帝都相模原線No.1遺跡","稲城市 坂浜","[旧石器時代][縄文時代（早期・中期）][奈良時代][平安時代]","包蔵地","","",139.4766499,35.61807499,TRUE
13225000200,13225,"2","けいおうていとさがみはらせんNo.2いせき","京王帝都相模原線No.2遺跡","稲城市 坂浜","[旧石器時代][縄文時代（中期）][中世]","集落","[縄文時代]住居　炉　土坑　[中世]建物　ピット群　地下式土坑","ナイフ形石器　縄文土器　石器　陶器　鉄鏃　刀子",139.4788815,35.61935881,TRUE
13225000500,13225,"5","","稲城市No.5遺跡","稲城市 坂浜","[旧石器時代][縄文時代（中期）]［奈良時代］［平安時代］[中世]","包蔵地","","",139.4855763,35.62424271,TRUE
13225001400,13225,"14","たまにゅーたうんNo.471いせき","多摩ニュータウンNo.471遺跡","稲城市 坂浜","[旧石器時代][縄文時代（早期〜中期）][弥生時代][古墳時代][奈良時代][平安時代][中世][近世]","集落","[旧石器時代]遺物集中地点　[縄文時代]住居　建物　竪穴状遺構　集石　炉穴　焼土　土坑　墓壙　埋甕　[古墳時代]ピット　土坑　[奈良時代][平安時代]焼土　土坑　炭窯　[平安時代][中世]竪穴状遺構　土坑　溝状遺構　[中世]土坑　炭窯　溝　道路状遺構","ナイフ形石器　尖頭器　はく片　礫　縄文土器　石器　土製円板　?状耳飾　垂飾　石棒　土偶　炭化材　弥生土器　有孔磨製石鏃　炭化物　土師器　須恵器　陶磁器　舶載陶磁器　砥石　煙管",139.4732807,35.62301286,TRUE
13225002200,13225,"22","たまにゅーたうんNo.480いせき","多摩ニュータウンNo.480遺跡","稲城市 坂浜","[旧石器時代][縄文時代（前期〜中期）][奈良時代][中世][近世]","集落","[縄文時代]住居　集石　土坑　[近世]溝","ナイフ形石器　縄文土器　石器　土製円板　土製品　瓦器　陶磁器",139.4715134,35.62623324,TRUE
13225002300,13225,"23","たまにゅーたうんNo.380いせき","多摩ニュータウンNo.380遺跡","稲城市 坂浜","[旧石器時代][縄文時代（早期〜中期）][古墳時代][平安時代][中世][近世]","集落","[縄文時代]住居　集石　焼土　土坑　[古墳時代]土坑　[近世]炭窯","尖頭器　縄文土器　打斧　礫器　有舌尖頭器　石鏃　掻器　石錐　石皿　磨石　炭化材　土師器　須恵器　陶器（灰釉）　陶磁器　石板",139.4666202,35.62904067,TRUE
13225002500,13225,"25","たまにゅーたうんNo.384いせき","多摩ニュータウンNo.384遺跡","稲城市 坂浜","[旧石器時代][縄文時代（早期〜後期）][古墳時代][奈良時代][平安時代][中世][近世]","包蔵地","[縄文時代]集石　焼土　土坑　埋甕　[平安時代]焼土　土坑　溝　[近世]土坑　畝　段切状遺構　溝　道路","ナイフ形石器　縄文土器　打斧　磨斧　礫器　石鏃　石皿　磨石　スタンプ形石器　凹石　敲石　土師器　須恵器　陶器（灰釉）　舶載陶磁器　陶磁器　土師質土器　瓦質土器　砥石　煙管",139.4684129,35.6268082,TRUE
13225002600,13225,"26","たまにゅーたうんNo.385いせき","多摩ニュータウンNo.385遺跡","稲城市 坂浜","[旧石器時代][奈良時代][平安時代][中世][近世]","包蔵地","","細石核?　須恵器?　瓦器?",139.4690652,35.6268082,TRUE
13225004200,13225,"42","たまにゅーたうんNo.5いせき","多摩ニュータウンNo.5遺跡","稲城市 長峰二丁目　 長峰三丁目","[旧石器時代][縄文時代（早期〜後期）][弥生時代（中期）][古墳時代][奈良時代][平安時代][中世][近世]","集落","[縄文時代]住居　集石　土坑　[古墳時代]土坑　[平安時代]住居　焼土　ピット　柱穴群　土坑　溝　工房　[近世]建物　貯蔵穴　土坑　井戸　段切状遺構　墓","尖頭器　剥片　縄文土器　打斧　磨斧　礫器　有舌尖頭器　石鏃　掻器　石匙　石皿　抉入磨石　加工礫　?状耳飾　盤状　弥生土器　土師器　須恵器　陶器　斧　釘　刀子　鉄鏃　紡錘車　土錘　羽口　蔵骨器　鉄滓　人骨　自然遺物　陶磁器　舶載磁器　板碑　砥石　釘　弾丸　銅煙管　毛抜き　ガラス玉　銭貨　人骨",139.4808336,35.63176739,TRUE
13225004400,13225,"44","たまにゅーたうんNo.366いせき","多摩ニュータウンNo.366遺跡","稲城市 長峰三丁目","[旧石器時代][縄文時代（早期〜後期）][平安時代][中世][近世]","集落","[縄文時代]集石　集石土坑　陥し穴　[平安時代]住居　竪穴状遺構　土坑　溝　[中世]〜[近世]土坑　井戸　炭窯　溝","尖頭器　細石刃核　縄文土器　打斧　磨斧　礫器　有舌尖頭器　石鏃　掻器　石匙　石皿　凹石　石核　?状耳飾　土偶　土師器　須恵器　陶器（灰釉・緑釉）　舶載陶磁器　砥石　鉄製品　炭化材　板碑　鉛玉　銭貨",139.4811769,35.63263242,TRUE
13225007100,13225,"71","ひらおNo.9いせき","平尾No.9遺跡","稲城市 平尾","[旧石器時代][縄文時代（前期〜後期）][古墳時代]","集落","[縄文時代]住居　[古墳時代]住居","石刃　石核　縄文土器　石器",139.4921024,35.6093885,TRUE
13225011000,13225,"110","たまにゅーたうんNo.863いせき","多摩ニュータウンNo.863遺跡","稲城市 坂浜","[旧石器時代][縄文時代（早期〜後期）][古墳時代][奈良時代][平安時代][近世]","包蔵地","[縄文時代]集石　焼土　土坑　埋甕　[古墳時代]土坑　[平安時代]土坑　[近世]炭窯","ナイフ形石器　尖頭器　細石核　縄文土器　石器　?状耳飾　炭化種子　陶磁器",139.4690995,35.62513381,TRUE
13225012700,13225,"127","たまにゅーたうんNo.880いせき","多摩ニュータウンNo.880遺跡","稲城市 向陽台三丁目　 向陽台五丁目","[旧石器時代][縄文時代（早期〜中期）][弥生時代（前期〜中期）][古墳時代][奈良時代][平安時代][中世][近世]","集落","[縄文時代]集石　土坑　[古墳時代]土坑　[奈良時代][平安時代]住居　焼土　土坑　溝　[近世]土坑　集石　溝","尖頭器　縄文土器　石器　弥生土器　土師器　須恵器　土師質土器　陶器（灰釉）　置き竈　刀子　釘　鉄鏃　土製品　鉄滓　煙管　銭貨",139.4856744,35.63648311,TRUE
13225013100,13225,"131","","稲城市No.131遺跡","稲城市 坂浜","[旧石器時代][縄文時代]","包蔵地","","",139.4898678,35.62661478,TRUE
13225015900,13225,"159","","稲城市No.159遺跡","稲城市 矢野口","[旧石器時代][縄文時代（早期）][奈良時代]","包蔵地・集落","[縄文時代]陥し穴土坑　[奈良時代]住居跡","焼礫　須恵器　土師器",139.5081045,35.62961871,TRUE
13228008700,13228,"87","いいざかうえいせき","飯坂上遺跡","あきる野市 二宮","[旧石器時代][縄文時代（中期）]","包蔵地","","尖頭器　縄文土器　石鏃",139.3071991,35.72688357,TRUE
13228008900,13228,"89","まえだこうちいせき","前田耕地遺跡","あきる野市 二宮　 野辺　 小川","[旧石器時代][縄文時代（草創期〜後期）][弥生時代][古墳時代][平安時代][中世][近世]","集落","[縄文時代]住居跡　集石土坑　炉　土坑　石器製作址　配石","尖頭器　細石刃核　掻器　削器　縄文土器　打斧　磨斧　礫器　石鏃　石匙　石皿　磨石　台石　有溝砥石　剥片　土錘　土偶　弥生土器　土師器　須恵器　陶器（灰釉)　鎌　刀子　陶磁器　瓦　杭　焼礫",139.3154045,35.72418002,TRUE
13228009100,13228,"91","にのみや・にのみやもりこしいせき","二宮・二宮森腰遺跡","あきる野市 二宮　 平沢","[旧石器時代][縄文時代（草創期〜後期）][弥生時代][古墳時代][奈良時代][平安時代][中世][近世]","集落・経塚・社寺・城館","[縄文時代]住居跡　敷石住居　炉　土坑　柱穴群　埋甕　[平安時代]経塚　[中世]地下式土坑","細石刃核　縄文土器　打斧　磨斧　礫器　石鏃　石匙　石錐　石箆　石皿　磨石　スタンプ形石器　凹石　剥片石器　弥生土器　土師器　須恵器　鉄釘　鉄製品　鍔　柄頭鞘尻　瓦　陶磁器　金銅仏　銭貨",139.3128296,35.72886241,TRUE
13229000100,13229,"1","きたみやのわきいせき","北宮ノ脇遺跡","西東京市 北町五丁目","[旧石器時代][縄文時代(早期・中期)][近世]","集落","[旧石器時代]ブロック 礫群 [縄文時代]土坑 ピット 焼土跡 [近世]溝","石器 剥片 焼礫 縄文土器 陶磁器",139.5624277,35.75560167,TRUE
13229000300,13229,"3","なかあらやしきいせき","中荒屋敷遺跡","西東京市 下保谷三丁目","[旧石器時代][縄文時代(前期)][弥生時代]","包蔵地","[旧石器時代]ブロック","縄文土器 弥生土器 剥片",139.564522,35.75359564,TRUE
13229000700,13229,"7","したのやいせき","下野谷遺跡","西東京市 東伏見二丁目 東伏見三丁目 東伏見六丁目","[旧石器時代][縄文時代(早期〜後期)][弥生時代（後期）][古墳時代][平安時代][近世]","集落","[旧石器時代]ブロック 礫群 炭化物集中 [縄文時代]住居跡 掘立柱建物跡 竪穴 炉穴 陥し穴 集石土坑 土坑 ピット ピット列 埋設土器 [近世]竪穴 溝 道路 集石 配石 柵列 土坑 硬化面 畑 ピット","石器 剥片 焼礫 縄文土器 土錘 土製円盤 垂飾 耳栓 炭化物 矢柄研磨器 砥石 陶磁器 土師質土器 瓦質土器 銭貨 煙管 須恵器 管状土錘 土鈴 刀子 釘 弥生土器 土師器",139.5622433,35.72454327,TRUE
13229000800,13229,"8","さかしたいせき","坂下遺跡","西東京市 東伏見五丁目 柳沢二丁目","[旧石器時代][縄文時代(早期〜中期)][平安時代][近世]","集落","[旧石器時代]礫群 ブロック 炭化物集中 土坑 [縄文時代]土坑 ピット [平安時代]住居跡 [近世]溝 土坑 ピット","石器 剥片 焼礫 縄文土器 粘土塊 土師器 須恵器 陶磁器 土師質土器 瓦質土器 銭貨 煙管 石臼",139.5575398,35.72359561,TRUE
13229001000,13229,"10","ひがしふしみいなりじんじゃいせき","東伏見稲荷神社遺跡","西東京市 東伏見一丁目","[旧石器時代][縄文時代(中期)]","包蔵地","","尖頭器 縄文土器",139.5579861,35.72660578,TRUE
13229001100,13229,"11","しもやぎさわいせき","下柳沢遺跡","西東京市 東伏見二丁目 東伏見三丁目","[旧石器時代][縄文時代(草創期〜後期)][中世][近世]","集落・その他の墓","[旧石器時代]ブロック 礫群 [縄文時代]住居 土坑 ピット [中]井戸 地下式土坑 [近世]土坑 井戸 溝 水車 畑 水田","縄文土器 石器 剥片 焼礫 陶磁器 土師質土器 瓦質土器 茶臼 板碑 銭貨",139.5647496,35.72671726,TRUE
13229001600,13229,"16","たなしみなみちょういせき","田無南町遺跡","西東京市 南町五丁目","[旧石器時代][縄文時代(草創期〜早期)][近世]","包蔵地","[旧石器時代]ブロック 礫群 [縄文時代]陥し穴 [近世]溝","ナイフ形石器 細石刃 掻器 削器 彫器 局部磨製石斧 敲石 磨石 縄文土器 打斧 石槍 石鏃 陶磁器 瓦 煙管 泥面子",139.5342497,35.72330441,TRUE
13303000100,13303,"1","まつばらいせき","松原遺跡","瑞穂町 箱根ヶ崎","[旧石器時代][縄文時代（前期）]","包蔵地","[旧石器時代]礫群 [縄文時代]土坑","縄文土器 石鏃 石器 打製石斧",139.3442205,35.77458789,TRUE
13303000200,13303,"2","さやまいせき","狭山遺跡","瑞穂町 箱根ヶ崎","[旧石器時代][縄文時代（前期〜中期）][弥生時代][古墳時代][平安時代]","集落","［時代不明］住居跡 炉 土坑 溝状遺構 溝","ナイフ形石器 尖頭器 細石刃 細石刃核 掻器 削器 石錐 旧石器 縄文土器 打斧 磨斧 有茎尖頭器 石鏃 石皿 磨石 凹石 敲石 土製円板 石器 弥生土器 土師器 須恵器 陶磁器 ガラス製品 金属製品 銭貨",139.3498167,35.77550709,TRUE
13303000300,13303,"3","せんげんやついせき","浅間谷遺跡","瑞穂町 箱根ヶ崎","[旧石器時代][縄文時代（早期・中期〜後期）]［弥生時代］","包蔵地","[縄文時代]炉","尖頭器 細石刃核 掻器 縄文",139.3540739,35.776287,TRUE
13303000900,13303,"9","ろくどうやまいせき","六道山遺跡","瑞穂町 石畑","[旧石器時代][縄文時代（早期〜中期）]","集落","[縄文時代]炉穴群 土坑","尖頭器 縄文土器 打斧 磨斧 礫器 掻器 削器 石錐 石皿 磨石 有孔石器 有孔土製円板",139.3661932,35.77542352,TRUE
13303001700,13303,"17","","瑞穂町No.17遺跡","瑞穂町 殿ヶ谷","[旧石器時代]","包蔵地","","尖頭器",139.3584481,35.75729499,TRUE
13305001700,13305,"17","みよしのいせきぐんせいぼうちくいせき","三吉野遺跡群清坊地区遺跡","日の出町 平井","[旧石器時代][縄文時代（前期）][古墳時代][奈良時代][平安時代][中世][近世]","集落・社寺・窯","[旧石器時代]礫群　[縄文時代]集石土坑　[弥生時代][古墳時代]住居　土坑　[奈良時代][平安時代]住居　掘立柱建物　土師器焼成坑　[中世][近世]閻魔堂？　溝　土坑　地下室","縄文土器　弥生土器　土師器　陶磁器　鉄器　銭貨　板碑　焼礫　人骨",139.2759392,35.73964155,TRUE
13307000500,13307,"5","おうじがしょういせき","王子ヶ城遺跡","檜原村 小岩　 王子ケ原","[旧石器時代][縄文時代（早期・中期〜晩期）]","集落","[縄文時代]敷石住居","細石刃核　縄文土器　打斧　磨斧　石鏃　掻器　石錘　耳栓　石棒　石剣　土偶",139.1125791,35.73067187,TRUE
