"JASID","LGC","Site_no","SiteName_furigana","SiteName_original","Address","Chronology","SiteType","ArchaeologicalFeatures","MajorArtefacts","Lon","Lat","P","J","Y","K","N","H","M","E","U","色"
13103002800,13103,"28","","港区No.28遺跡","港区 芝公園四丁目","[古墳時代]","横穴墓","","",139.7462486,35.65836343,FALSE,FALSE,FALSE,TRUE,FALSE,FALSE,FALSE,FALSE,FALSE,"brown"
13103007100,13103,"71","","港区No.71遺跡","港区 白金台二丁目","[古墳時代]","横穴墓？","","",139.7287446,35.63218105,FALSE,FALSE,FALSE,TRUE,FALSE,FALSE,FALSE,FALSE,FALSE,"brown"
13109002400,13109,"24","おおいかねこやまおうけつぼぐん","大井金子山横穴墓群","品川区 西大井四丁目","[古墳時代][奈良時代]","横穴墓","横穴墓（古墳〜奈良２基）","鉄鏃　刀子　人骨",139.7205441,35.59394495,FALSE,FALSE,FALSE,TRUE,TRUE,FALSE,FALSE,FALSE,FALSE,"brown"
13111000300,13111,"3","せんげんじんじゃふきんよこあなぼぐん","浅間神社付近横穴墓群","大田区 田園調布一丁目","[古墳時代][奈良時代]","横穴墓","","直刀",139.6688781,35.58691091,FALSE,FALSE,FALSE,TRUE,TRUE,FALSE,FALSE,FALSE,FALSE,"brown"
13111000400,13111,"4","ほうらいこうえんないよこあなぼ","宝来公園内横穴墓","大田区 田園調布三丁目","[古墳時代][奈良時代]","横穴墓","","人骨",139.6639081,35.59491805,FALSE,FALSE,FALSE,TRUE,TRUE,FALSE,FALSE,FALSE,FALSE,"brown"
13111000600,13111,"6","しもぬまべぼじゃくだによこあなぼ","下沼部牡若谷横穴墓","大田区 田園調布二丁目","[古墳時代][奈良時代]","横穴墓","","",139.6685298,35.59304569,FALSE,FALSE,FALSE,TRUE,TRUE,FALSE,FALSE,FALSE,FALSE,"brown"
13111000700,13111,"7","しもぬまべいっぽんぎだによこあなぼ","下沼部一本木谷横穴墓","大田区 田園調布三丁目","[古墳時代][奈良時代]","横穴墓","","",139.6670555,35.59697895,FALSE,FALSE,FALSE,TRUE,TRUE,FALSE,FALSE,FALSE,FALSE,"brown"
13111003100,13111,"31","はくさんじんじゃよこあなぼ","白山神社横穴墓","大田区 東嶺町","[古墳時代][奈良時代]","横穴墓","","",139.6833003,35.57892677,FALSE,FALSE,FALSE,TRUE,TRUE,FALSE,FALSE,FALSE,FALSE,"brown"
13111003200,13111,"32","ぞうみょういんないよこあなぼ","増明院内横穴墓","大田区 鵜の木一丁目","[古墳時代][奈良時代]","横穴墓","[古墳時代][奈良時代]切石羨門","鉄刀",139.6870554,35.57543632,FALSE,FALSE,FALSE,TRUE,TRUE,FALSE,FALSE,FALSE,FALSE,"brown"
13111003400,13111,"34","みなみくがはらにちょうめよこあなぼぐん","南久が原二丁目横穴墓群","大田区 南久が原二丁目","[古墳時代][奈良時代]","横穴墓","1基","人骨",139.6849954,35.57589009,FALSE,FALSE,FALSE,TRUE,TRUE,FALSE,FALSE,FALSE,FALSE,"brown"
13111003700,13111,"37","しもぬまべしおみだいよこあなぼぐん","下沼部汐見台横穴墓群","大田区 田園調布三丁目","[古墳時代][奈良時代]","横穴墓","","人骨",139.6665735,35.59169219,FALSE,FALSE,FALSE,TRUE,TRUE,FALSE,FALSE,FALSE,FALSE,"brown"
13111003900,13111,"39","かみぬまべほうらいよこあなぼぐん","上沼部宝来横穴墓群","大田区 田園調布四丁目","[古墳時代][奈良時代]","横穴墓","","直刀　人骨",139.6622981,35.59404778,FALSE,FALSE,FALSE,TRUE,TRUE,FALSE,FALSE,FALSE,FALSE,"brown"
13111004000,13111,"40","かみぬまべはなのよこあなぼぐん","上沼部花野横穴墓群","大田区 田園調布四丁目","[古墳時代][奈良時代]","横穴墓","","",139.6616543,35.59408267,FALSE,FALSE,FALSE,TRUE,TRUE,FALSE,FALSE,FALSE,FALSE,"brown"
13111004100,13111,"41","かみぬまべにいのさとよこあなぼぐん","上沼部新居里横穴墓群","大田区 田園調布四丁目","[古墳時代][奈良時代]","横穴墓","","",139.6619011,35.59460613,FALSE,FALSE,FALSE,TRUE,TRUE,FALSE,FALSE,FALSE,FALSE,"brown"
13111004200,13111,"42","かみぬまべふきあげほくぶよこあなぼぐん","上沼部吹上北部横穴墓群","大田区 田園調布五丁目","[古墳時代][奈良時代]","横穴墓","","木製品　人骨",139.6603512,35.59931764,FALSE,FALSE,FALSE,TRUE,TRUE,FALSE,FALSE,FALSE,FALSE,"brown"
13111004300,13111,"43","かみぬまべふきあげなんぶよこあなぼぐん","上沼部吹上南部横穴墓群","大田区 田園調布五丁目","[古墳時代][奈良時代]","横穴墓","","人骨",139.6582484,35.59718903,FALSE,FALSE,FALSE,TRUE,TRUE,FALSE,FALSE,FALSE,FALSE,"brown"
13111004400,13111,"44","かみぬまべ29ばんちよこあなぼ","上沼部29番地横穴墓","大田区 田園調布五丁目","[古墳時代][奈良時代]","横穴墓","","",139.6576046,35.59610725,FALSE,FALSE,FALSE,TRUE,TRUE,FALSE,FALSE,FALSE,FALSE,"brown"
13111004600,13111,"46","でんえんちょうふほんちょう24ばんよこあなぼ","田園調布本町24番横穴墓","大田区 田園調布本町","[古墳時代][奈良時代]","横穴墓","","",139.6745531,35.58391891,FALSE,FALSE,FALSE,TRUE,TRUE,FALSE,FALSE,FALSE,FALSE,"brown"
13111004700,13111,"47","でんえんちょうふほんちょう26ばんよこあなぼ","田園調布本町26番横穴墓","大田区 田園調布本町","[古墳時代][奈良時代]","横穴墓","","人骨",139.6743063,35.5827497,FALSE,FALSE,FALSE,TRUE,TRUE,FALSE,FALSE,FALSE,FALSE,"brown"
13111006100,13111,"61","みなみまごめいっちょうめよこあなぼぐん","南馬込一丁目横穴墓群","大田区 南馬込一丁目","[古墳時代][奈良時代]","横穴墓","","直刀　人骨",139.7128043,35.59316087,FALSE,FALSE,FALSE,TRUE,TRUE,FALSE,FALSE,FALSE,FALSE,"brown"
13111006400,13111,"64","つかごしよこあなぼぐん","塚越横穴墓群","大田区 南馬込五丁目　 西馬込二丁目　 仲池上一丁目　 仲池上二丁目　 上池台五丁目","[古墳時代][奈良時代]","横穴墓","[古墳時代][奈良時代]切石羨門","鉄鏃　刀子　金銅製頭椎大刀　金銅製圭頭大刀　直刀　轡　杏葉　挂甲小札　人骨",139.7028265,35.58682673,FALSE,FALSE,FALSE,TRUE,TRUE,FALSE,FALSE,FALSE,FALSE,"brown"
13111006800,13111,"68","さんのういっちょうめよこあなぼぐん","山王一丁目横穴墓群","大田区 山王一丁目","[古墳時代][奈良時代]","横穴墓","","人骨",139.7217452,35.59301536,FALSE,FALSE,FALSE,TRUE,TRUE,FALSE,FALSE,FALSE,FALSE,"brown"
13111007100,13111,"71","くまのじんじゃふきんよこあなぼぐん","熊野神社付近横穴墓群","大田区 山王三丁目","[古墳時代][平安時代]","横穴墓","","土師器　須恵器　人骨",139.7208869,35.58397639,FALSE,FALSE,FALSE,TRUE,FALSE,TRUE,FALSE,FALSE,FALSE,"brown"
13111007300,13111,"73","さんのういせき・さんのういせきないよこあなぼぐん","山王遺跡・山王遺跡内横穴墓群","大田区 山王二丁目　 山王三丁目","[弥生時代（中期〜後期）][古墳時代][奈良時代]","集落・貝塚・横穴墓","[弥生時代]環濠　住居　方形周溝墓　[古墳時代]住居　[奈良時代]横穴墓3基　[時期不明]地下式土坑","弥生土器　石器　土師器　須恵器　鉄鏃　刀子　直刀　人骨",139.7252696,35.58752753,FALSE,FALSE,TRUE,TRUE,TRUE,FALSE,FALSE,FALSE,FALSE,"brown"
13111007900,13111,"79","くがはらよんちょうめよこあなぼぐん","久が原四丁目横穴墓群","大田区 久が原四丁目","[古墳時代][奈良時代]","横穴墓","","人骨",139.6921765,35.5802942,FALSE,FALSE,FALSE,TRUE,TRUE,FALSE,FALSE,FALSE,FALSE,"brown"
13111008000,13111,"80","くがはらよこあなぼぐん","久ヶ原横穴墓群","大田区 久が原四丁目　 久が原五丁目　 久が原六丁目　 南久が原一丁目　 千鳥一丁目","[古墳時代][奈良時代]","横穴墓","[古墳時代][奈良時代]組合式石棺　切石羨門","土師器　須恵器　鉄鏃　刀子　管玉　勾玉　丸玉　金環　人骨",139.6937644,35.57514582,FALSE,FALSE,FALSE,TRUE,TRUE,FALSE,FALSE,FALSE,FALSE,"brown"
13111008800,13111,"88","ねぎしよこあなぼぐん","根岸横穴墓群","大田区 南久が原一丁目　 千鳥三丁目","[古墳時代][奈良時代]","横穴墓","[古墳時代][奈良時代]横穴墓（切石羨門）","須恵器　切石羨門　人骨",139.6880959,35.5740285,FALSE,FALSE,FALSE,TRUE,TRUE,FALSE,FALSE,FALSE,FALSE,"brown"
13111008900,13111,"89","こうみょうじよこあなぼぐん","光明寺横穴墓群","大田区 鵜の木一丁目","[古墳時代][奈良時代]","横穴墓","3基","土師器　須恵器　刀子　人骨",139.6837453,35.57359218,FALSE,FALSE,FALSE,TRUE,TRUE,FALSE,FALSE,FALSE,FALSE,"brown"
13111009100,13111,"91","きりがやよこあなぼぐん","桐ヶ谷横穴墓群","大田区 中央五丁目","[古墳時代][奈良時代]","横穴墓","13基　[古墳時代][奈良時代]切石羨門　横穴墓","人骨",139.7125128,35.58064849,FALSE,FALSE,FALSE,TRUE,TRUE,FALSE,FALSE,FALSE,FALSE,"brown"
13111010900,13111,"109","かめづかよこあなぼぐん","亀塚横穴墓群","大田区 田園調布一丁目","[古墳時代][奈良時代]","横穴墓","","",139.6674304,35.58826255,FALSE,FALSE,FALSE,TRUE,TRUE,FALSE,FALSE,FALSE,FALSE,"brown"
13111011100,13111,"111","ひがしまごめいっちょうめ2ばんよこあなぼ","東馬込一丁目2番横穴墓","大田区 東馬込一丁目","[古墳時代][奈良時代]","横穴墓","","人骨",139.7139231,35.59992413,FALSE,FALSE,FALSE,TRUE,TRUE,FALSE,FALSE,FALSE,FALSE,"brown"
13111011800,13111,"118","にしまごめにちょうめ2ばんよこあなぼ","西馬込二丁目2番横穴墓","大田区 西馬込二丁目","[古墳時代][奈良時代]","横穴墓","","",139.7055335,35.58684706,FALSE,FALSE,FALSE,TRUE,TRUE,FALSE,FALSE,FALSE,FALSE,"brown"
13111012300,13111,"123","にしみねまち33ばんよこあなぼ","西嶺町33番横穴墓","大田区 西嶺町","[古墳時代][奈良時代]","横穴墓","","人骨",139.6772339,35.58187841,FALSE,FALSE,FALSE,TRUE,TRUE,FALSE,FALSE,FALSE,FALSE,"brown"
13111012400,13111,"124","ほんもんじうらよこあなぼぐん","本門寺裏横穴墓群","大田区 池上一丁目　 中央五丁目","[古墳時代][奈良時代]","横穴墓","9基　[古墳時代][奈良時代]切石羨門","人骨",139.7067972,35.58163921,FALSE,FALSE,FALSE,TRUE,TRUE,FALSE,FALSE,FALSE,FALSE,"brown"
13111012500,13111,"125","あらいじゅくよこあなぼぐん","新井宿横穴墓群","大田区 山王四丁目","[古墳時代][奈良時代]","横穴墓","[古墳時代][奈良時代]横穴墓18基","直刀　人骨",139.7218012,35.58782117,FALSE,FALSE,FALSE,TRUE,TRUE,FALSE,FALSE,FALSE,FALSE,"brown"
13111013200,13111,"132","さんのうよこあなぼぐん","山王横穴墓群","大田区 山王一丁目","[古墳時代][奈良時代]","横穴墓","[古墳時代]横穴墓8基","須恵器　土師器　人骨",139.7241028,35.59222927,FALSE,FALSE,FALSE,TRUE,TRUE,FALSE,FALSE,FALSE,FALSE,"brown"
13111013300,13111,"133","でんえんちょうふほんちょう19ばんよこあなぼ","田園調布本町19番横穴墓","大田区 田園調布本町","[古墳時代][奈良時代]","横穴墓","","",139.6749924,35.58523967,FALSE,FALSE,FALSE,TRUE,TRUE,FALSE,FALSE,FALSE,FALSE,"brown"
13111014200,13111,"142","さんのうよんちょうめ33ばんよこあなぼ","山王四丁目33番横穴墓","大田区 山王四丁目","[古墳時代]","横穴墓","","人骨",139.7214961,35.58554219,FALSE,FALSE,FALSE,TRUE,FALSE,FALSE,FALSE,FALSE,FALSE,"brown"
13111014400,13111,"144","たまがわだいこうえんないよこあなぼ","多摩川台公園内横穴墓","大田区 田園調布一丁目","[古墳時代][奈良時代]","横穴墓","","埴輪　人骨",139.6659315,35.58950333,FALSE,FALSE,FALSE,TRUE,TRUE,FALSE,FALSE,FALSE,FALSE,"brown"
13111014600,13111,"146","きたせんぞくさんちょうめ10ばんよこあなぼ","北千束三丁目10番横穴墓","大田区 北千束三丁目","[古墳時代][奈良時代]","横穴墓","","人骨",139.6886765,35.60609209,FALSE,FALSE,FALSE,TRUE,TRUE,FALSE,FALSE,FALSE,FALSE,"brown"
13111014900,13111,"149","こいけよこあなぼ","小池横穴墓","大田区 上池台一丁目","[古墳時代][奈良時代]","横穴墓","","",139.6969071,35.60115284,FALSE,FALSE,FALSE,TRUE,TRUE,FALSE,FALSE,FALSE,FALSE,"brown"
13111015000,13111,"150","どりこのさかよこあなぼぐん","どりこの坂横穴墓群","大田区 田園調布二丁目","[古墳時代][奈良時代]","横穴墓","2基　[古墳時代][奈良時代]横穴墓","人骨",139.6691194,35.59193157,FALSE,FALSE,FALSE,TRUE,TRUE,FALSE,FALSE,FALSE,FALSE,"brown"
13111015200,13111,"152","みなみまごめよんちょうめ27ばんよこあなぼ","南馬込四丁目27番横穴墓","大田区 南馬込四丁目","[古墳時代][奈良時代]","横穴墓","","",139.7137962,35.58605791,FALSE,FALSE,FALSE,TRUE,TRUE,FALSE,FALSE,FALSE,FALSE,"brown"
13111015400,13111,"154","ほうようじうらよこあなぼ","法養寺裏横穴墓","大田区 池上一丁目","[古墳時代][奈良時代]","横穴墓","","",139.707876,35.57802057,FALSE,FALSE,FALSE,TRUE,TRUE,FALSE,FALSE,FALSE,FALSE,"brown"
13111016100,13111,"161","ちょうしょうじうらよこあなぼぐん","長勝寺裏横穴墓群","大田区 中央六丁目","[古墳時代][奈良時代]","横穴墓","","",139.7113694,35.5784336,FALSE,FALSE,FALSE,TRUE,TRUE,FALSE,FALSE,FALSE,FALSE,"brown"
13111016700,13111,"167","ひらはりよこあなぼぐん","平張横穴墓群","大田区 南馬込三丁目","[古墳時代][奈良時代]","横穴墓","","人骨",139.718069,35.58562107,FALSE,FALSE,FALSE,TRUE,TRUE,FALSE,FALSE,FALSE,FALSE,"brown"
13111016800,13111,"168","うのきいっちょうめよこあなぼぐん","鵜の木一丁目横穴墓群","大田区 鵜の木一丁目","[古墳時代][奈良時代]","横穴墓","2基　[古墳時代][奈良時代]横穴墓","土師器　須恵器　人骨",139.6814408,35.57724445,FALSE,FALSE,FALSE,TRUE,TRUE,FALSE,FALSE,FALSE,FALSE,"brown"
13111017100,13111,"171","くがはらごちょうめ17ばんよこあなぼ","久が原五丁目17番横穴墓","大田区 久が原五丁目","[古墳時代]","横穴墓","","人骨",139.6985422,35.57698667,FALSE,FALSE,FALSE,TRUE,FALSE,FALSE,FALSE,FALSE,FALSE,"brown"
13111017400,13111,"174","なかまごめさんちょうめ2・11ばんよこあなぼ","中馬込三丁目2・11番横穴墓","大田区 中馬込三丁目","[古墳時代][奈良時代]","横穴墓","","人骨",139.7036202,35.59313895,FALSE,FALSE,FALSE,TRUE,TRUE,FALSE,FALSE,FALSE,FALSE,"brown"
13111017500,13111,"175","さんのうさんちょうめ37ばんよこあなぼ","山王三丁目37番横穴墓","大田区 山王三丁目","[古墳時代][奈良時代]","横穴墓","","人骨",139.723946,35.58572289,FALSE,FALSE,FALSE,TRUE,TRUE,FALSE,FALSE,FALSE,FALSE,"brown"
13111017600,13111,"176","くぼよこあなぼ","久保横穴墓","大田区 南馬込一丁目","[古墳時代][奈良時代]","横穴墓","[古墳時代][奈良時代]横穴墓1基","人骨",139.715143,35.59172559,FALSE,FALSE,FALSE,TRUE,TRUE,FALSE,FALSE,FALSE,FALSE,"brown"
13111017700,13111,"177","かみいけがみよこあなぼ","上池上横穴墓","大田区 上池台五丁目","[古墳時代][奈良時代]","横穴墓","[古墳時代][奈良時代]横穴墓1基","人骨",139.7020967,35.59533746,FALSE,FALSE,FALSE,TRUE,TRUE,FALSE,FALSE,FALSE,FALSE,"brown"
13111017800,13111,"178","おおもりしゃてきばあとよこあなぼぐん","大森射的場跡横穴墓群","大田区 山王二丁目","[古墳時代][奈良時代]","横穴墓","","",139.722665,35.58984764,FALSE,FALSE,FALSE,TRUE,TRUE,FALSE,FALSE,FALSE,FALSE,"brown"
13111017900,13111,"179","もとはっけいえんうらよこあなぼ","元八景園裏横穴墓","大田区 山王二丁目","[古墳時代][奈良時代]","横穴墓","","須恵器　人骨",139.7268606,35.58769639,FALSE,FALSE,FALSE,TRUE,TRUE,FALSE,FALSE,FALSE,FALSE,"brown"
13111018000,13111,"180","さんのうにちょうめ14・24ばんよこあなぼ","山王二丁目14・24番横穴墓","大田区 山王二丁目","[古墳時代][奈良時代]","横穴墓","","須恵器",139.7242232,35.58875384,FALSE,FALSE,FALSE,TRUE,TRUE,FALSE,FALSE,FALSE,FALSE,"brown"
13111022400,13111,"224","でんえんちょうふいっちょうめ30ばんよこあなぼ","田園調布一丁目30番横穴墓","大田区 田園調布一丁目","[古墳時代][奈良時代]","横穴墓","","",139.6709017,35.58843123,FALSE,FALSE,FALSE,TRUE,TRUE,FALSE,FALSE,FALSE,FALSE,"brown"
13111023100,13111,"231","にいのさとよこあなぼぐん","新居里横穴墓群","大田区 田園調布五丁目","[古墳時代][奈良時代]","横穴墓","[古墳時代][奈良時代]横穴墓2基","人骨",139.659344,35.59489354,FALSE,FALSE,FALSE,TRUE,TRUE,FALSE,FALSE,FALSE,FALSE,"brown"
13111023200,13111,"232","どうでらよこあなぼ","堂寺横穴墓","大田区 東馬込一丁目","[古墳時代][奈良時代]","横穴墓","[古墳時代][奈良時代]横穴墓1基","人骨　須恵器",139.712795,35.59553912,FALSE,FALSE,FALSE,TRUE,TRUE,FALSE,FALSE,FALSE,FALSE,"brown"
13111023500,13111,"235","ちゅうおうろくちょうめ4ばんよこあなぼ","中央六丁目4番横穴墓","大田区 中央六丁目","[古墳時代][奈良時代]","横穴墓","[古墳時代][奈良時代]横穴墓1基","人骨",139.7108853,35.57889179,FALSE,FALSE,FALSE,TRUE,TRUE,FALSE,FALSE,FALSE,FALSE,"brown"
13111023600,13111,"236","みなみくがはらにちょうめ4ばんよこあなぼ","南久が原二丁目4番横穴墓","大田区 南久が原二丁目","[古墳時代][奈良時代]","横穴墓","[古墳時代][奈良時代]横穴墓1基","人骨",139.6873466,35.5780418,FALSE,FALSE,FALSE,TRUE,TRUE,FALSE,FALSE,FALSE,FALSE,"brown"
13112000800,13112,"8","きぬたしょうがっこうまえおうけつぼぐん","砧小学校前横穴墓群","世田谷区 成城一丁目","[古墳時代]","横穴墓","","人骨",139.5981209,35.63537324,FALSE,FALSE,FALSE,TRUE,FALSE,FALSE,FALSE,FALSE,FALSE,"brown"
13112002000,13112,"20","かみのしんめいおうけつぼぐん","上神明横穴墓群","世田谷区 成城四丁目","[古墳時代]","横穴墓","","人骨",139.5921314,35.64018666,FALSE,FALSE,FALSE,TRUE,FALSE,FALSE,FALSE,FALSE,FALSE,"brown"
13112002100,13112,"21","せいじょうがくえんおうけつぼぐん","成城学園横穴墓群","世田谷区 成城六丁目","[古墳時代]","横穴墓","","",139.6011518,35.64216405,FALSE,FALSE,FALSE,TRUE,FALSE,FALSE,FALSE,FALSE,FALSE,"brown"
13112003100,13112,"31","おおくらだんちおうけつぼぐん","大蔵団地横穴墓群","世田谷区 大蔵三丁目","[古墳時代]","横穴墓","","耳環　人骨",139.6095821,35.63202333,FALSE,FALSE,FALSE,TRUE,FALSE,FALSE,FALSE,FALSE,FALSE,"brown"
13112004500,13112,"45","にしやとおうけつぼぐん・にしやといせき","西谷戸横穴墓群・西谷戸遺跡","世田谷区 大蔵四丁目　 岡本三丁目","[旧石器時代][古墳時代][奈良時代][平安時代]","集落・横穴墓","[旧石器時代]ブロック　礫群　[古墳時代]33基　[奈良〜平安時代]住居","縄文土器　弥生土器　土師器　須恵器　石器　鉄鏃　直刀　刀子　装飾品（玉類他）",139.611984,35.63039,TRUE,FALSE,FALSE,TRUE,TRUE,TRUE,FALSE,FALSE,FALSE,"brown"
13112004900,13112,"49","おかもとやとおうけつぼぐん","岡本谷戸横穴墓群","世田谷区 岡本一丁目","[古墳時代][奈良時代]","横穴墓","","鉄鏃　刀子　鉄製品　円頭大刀　人骨",139.6171659,35.62774056,FALSE,FALSE,FALSE,TRUE,TRUE,FALSE,FALSE,FALSE,FALSE,"brown"
13112005000,13112,"50","どうがやとおうけつぼぐん","堂ヶ谷戸横穴墓群","世田谷区 岡本二丁目","[古墳時代]","横穴墓","5基以上","",139.6165479,35.62288479,FALSE,FALSE,FALSE,TRUE,FALSE,FALSE,FALSE,FALSE,FALSE,"brown"
13112005100,13112,"51","おかもとはらおうけつぼぐん","岡本原横穴墓群","世田谷区 岡本二丁目","[古墳時代]","横穴墓","5基","",139.6185735,35.62450341,FALSE,FALSE,FALSE,TRUE,FALSE,FALSE,FALSE,FALSE,FALSE,"brown"
13112007800,13112,"78","うめがおかおうけつ","梅ヶ丘横穴","世田谷区 代田四丁目","[古墳時代]","横穴墓","1基","ガラス製小玉 人骨",139.6533,35.65788,FALSE,FALSE,FALSE,TRUE,FALSE,FALSE,FALSE,FALSE,FALSE,"brown"
13112010900,13112,"109","たまがわじんじゃひがしおうけつぼぐん","玉川神社東横穴墓群","世田谷区 瀬田四丁目","[古墳時代]","横穴墓","2基","",139.6263,35.61977,FALSE,FALSE,FALSE,TRUE,FALSE,FALSE,FALSE,FALSE,FALSE,"brown"
13112011000,13112,"110","たきがやおうけつぼぐん","滝ヶ谷横穴墓群","世田谷区 瀬田四丁目","[古墳時代]","横穴墓","2基","人骨",139.6284,35.61925,FALSE,FALSE,FALSE,TRUE,FALSE,FALSE,FALSE,FALSE,FALSE,"brown"
13112011300,13112,"113","たまがわびょういんしたおうけつぼぐん","玉川病院下横穴墓群","世田谷区 瀬田四丁目","[古墳時代]","横穴墓","6基","鉄鏃 刀子 鹿角装刀子 耳環 人骨",139.625,35.62042,FALSE,FALSE,FALSE,TRUE,FALSE,FALSE,FALSE,FALSE,FALSE,"brown"
13112011400,13112,"114","たまがわじんじゃにしおうけつぼ","玉川神社西横穴墓","世田谷区 瀬田四丁目","[古墳時代]","横穴墓","","人骨",139.6257,35.6202,FALSE,FALSE,FALSE,TRUE,FALSE,FALSE,FALSE,FALSE,FALSE,"brown"
13112011800,13112,"118","やがわうえおうけつぼぐん","谷川上横穴墓群","世田谷区 野毛一丁目","[古墳時代]","横穴墓","","人骨",139.6437,35.60312,FALSE,FALSE,FALSE,TRUE,FALSE,FALSE,FALSE,FALSE,FALSE,"brown"
13112012000,13112,"120","あたごやまおうけつ","あたご山横穴","世田谷区 奥沢一丁目","[古墳時代]","横穴墓","","人骨",139.6785,35.60165,FALSE,FALSE,FALSE,TRUE,FALSE,FALSE,FALSE,FALSE,FALSE,"brown"
13112012600,13112,"126","しものげきしおうけつぼぐん","下野毛岸横穴墓群","世田谷区 野毛三丁目","[古墳時代][奈良時代]","横穴墓","","須恵器 人骨",139.6397,35.60726,FALSE,FALSE,FALSE,TRUE,TRUE,FALSE,FALSE,FALSE,FALSE,"brown"
13112013000,13112,"130","とどろきけいこくおうけつぼぐん","等々力渓谷横穴墓群","世田谷区 等々力一丁目","[古墳時代]","横穴墓群","","土師器 須恵器 刀子 ガラス玉 耳環 人骨",139.6459,35.60491,FALSE,FALSE,FALSE,TRUE,FALSE,FALSE,FALSE,FALSE,FALSE,"brown"
13112018900,13112,"189","ふどうばしおうけつ（ぼ）ぐん","不動橋横穴（墓）群","世田谷区 成城三丁目 成城四丁目","[古墳時代]","横穴墓","16基","人骨 須恵器 耳環 勾玉 鍔付金銅装大刀",139.5937282,35.63782861,FALSE,FALSE,FALSE,TRUE,FALSE,FALSE,FALSE,FALSE,FALSE,"brown"
13112019700,13112,"197","いしいどみなみおうけつ","石井土南横穴","世田谷区 大蔵四丁目","[古墳時代][奈良時代]","横穴墓","","人骨",139.6109078,35.62903015,FALSE,FALSE,FALSE,TRUE,TRUE,FALSE,FALSE,FALSE,FALSE,"brown"
13112022200,13112,"222","とどろきねおうけつぼ","等々力根横穴墓","世田谷区 等々力一丁目","[古墳時代]","横穴墓","","人骨",139.6492212,35.60229563,FALSE,FALSE,FALSE,TRUE,FALSE,FALSE,FALSE,FALSE,FALSE,"brown"
13112026800,13112,"268","なかしんめいおうけつぼぐん","中神明横穴墓群","世田谷区 成城三丁目","[古墳時代]","横穴墓","7基","土師器 須恵器 刀子 人骨",139.596313,35.635624,FALSE,FALSE,FALSE,TRUE,FALSE,FALSE,FALSE,FALSE,FALSE,"brown"
13112028600,13112,"286","かみのだおうけつぼぐん","上野田横穴墓群","世田谷区 成城四丁目","[古墳時代]","横穴墓","2基","",139.5895642,35.64492327,FALSE,FALSE,FALSE,TRUE,FALSE,FALSE,FALSE,FALSE,FALSE,"brown"
13112031300,13112,"313","のげおおはらおうけつぼぐん","野毛大原横穴墓群","世田谷区 野毛二丁目","[古墳時代]","横穴墓","","人骨 須恵器（長頸壺） 土師器（坏）",139.6410106,35.60389735,FALSE,FALSE,FALSE,TRUE,FALSE,FALSE,FALSE,FALSE,FALSE,"brown"
13113001200,13113,"12","","渋谷区No.12遺跡","渋谷区 富ケ谷一丁目","[古墳時代][奈良時代]","横穴墓","","",139.6887859,35.66827397,FALSE,FALSE,FALSE,TRUE,TRUE,FALSE,FALSE,FALSE,FALSE,"brown"
13113001300,13113,"13","","渋谷区No.13遺跡","渋谷区 富ケ谷一丁目","[古墳時代][奈良時代]","横穴墓","","",139.6903996,35.66687937,FALSE,FALSE,FALSE,TRUE,TRUE,FALSE,FALSE,FALSE,FALSE,"brown"
13113003100,13113,"31","","渋谷区No.31遺跡","渋谷区 松濤二丁目","[古墳時代][奈良時代]","横穴墓","","",139.6896326,35.66033388,FALSE,FALSE,FALSE,TRUE,TRUE,FALSE,FALSE,FALSE,FALSE,"brown"
13113003600,13113,"36","","渋谷区No.36遺跡","渋谷区 道玄坂一丁目","[古墳時代][奈良時代]","横穴墓","","",139.699865,35.65712594,FALSE,FALSE,FALSE,TRUE,TRUE,FALSE,FALSE,FALSE,FALSE,"brown"
13113004000,13113,"40","","渋谷区No.40遺跡","渋谷区 道玄坂二丁目","[古墳時代][奈良時代]","横穴墓","","",139.6964661,35.65983177,FALSE,FALSE,FALSE,TRUE,TRUE,FALSE,FALSE,FALSE,FALSE,"brown"
13113004100,13113,"41","","渋谷区No.41遺跡","渋谷区 桜丘町","[古墳時代][奈良時代]","横穴墓","","",139.7021496,35.65614244,FALSE,FALSE,FALSE,TRUE,TRUE,FALSE,FALSE,FALSE,FALSE,"brown"
13113004500,13113,"45","","渋谷区No.45遺跡","渋谷区 鶯谷町","[古墳時代][奈良時代]","横穴墓","","",139.7039349,35.65424548,FALSE,FALSE,FALSE,TRUE,TRUE,FALSE,FALSE,FALSE,FALSE,"brown"
13113004700,13113,"47","","渋谷区No.47遺跡","渋谷区 鶯谷町","[古墳時代][奈良時代]","横穴墓","","",139.7025616,35.65251587,FALSE,FALSE,FALSE,TRUE,TRUE,FALSE,FALSE,FALSE,FALSE,"brown"
13113004800,13113,"48","","渋谷区No.48遺跡","渋谷区 猿楽町","[古墳時代][奈良時代]","横穴墓","4基","",139.7046902,35.65307382,FALSE,FALSE,FALSE,TRUE,TRUE,FALSE,FALSE,FALSE,FALSE,"brown"
13113006400,13113,"64","","渋谷区No.64遺跡","渋谷区 渋谷一丁目","[古墳時代][奈良時代]","横穴墓","","",139.7036458,35.66139007,FALSE,FALSE,FALSE,TRUE,TRUE,FALSE,FALSE,FALSE,FALSE,"brown"
13113006500,13113,"65","","渋谷区No.65遺跡","渋谷区 渋谷二丁目","[古墳時代][奈良時代]","横穴墓","2基","",139.7032338,35.6597164,FALSE,FALSE,FALSE,TRUE,TRUE,FALSE,FALSE,FALSE,FALSE,"brown"
13113006800,13113,"68","","渋谷区No.68遺跡","渋谷区 渋谷三丁目　東一丁目","[古墳時代][奈良時代]","横穴墓","","",139.7071081,35.65605076,FALSE,FALSE,FALSE,TRUE,TRUE,FALSE,FALSE,FALSE,FALSE,"brown"
13113007200,13113,"72","","渋谷区No.72遺跡","渋谷区 東四丁目","[古墳時代][奈良時代]","横穴墓","","小玉",139.7128073,35.65761292,FALSE,FALSE,FALSE,TRUE,TRUE,FALSE,FALSE,FALSE,FALSE,"brown"
13113007700,13113,"77","","渋谷区No.77遺跡","渋谷区 広尾二丁目","[古墳時代][奈良時代]","横穴墓","","",139.7148182,35.65120469,FALSE,FALSE,FALSE,TRUE,TRUE,FALSE,FALSE,FALSE,FALSE,"brown"
13114008100,13114,"81","むこうだいよこあなぼぐん","向台横穴墓群","中野区 弥生町一丁目","[古墳時代][奈良時代]","横穴墓","[古墳時代][奈良時代]横穴墓","",139.6796544,35.69080174,FALSE,FALSE,FALSE,TRUE,TRUE,FALSE,FALSE,FALSE,FALSE,"brown"
13115007000,13115,"70","","杉並区No.70遺跡","杉並区 和田二丁目","[古墳時代][奈良時代]","横穴墓","1基","人骨",139.6559706,35.68818942,FALSE,FALSE,FALSE,TRUE,TRUE,FALSE,FALSE,FALSE,FALSE,"brown"
13117000300,13117,"3","どうやまおうけつぼ","堂山横穴墓","北区 赤羽北一丁目","[古墳時代][奈良時代]","横穴墓","","",139.7145969,35.78613812,FALSE,FALSE,FALSE,TRUE,TRUE,FALSE,FALSE,FALSE,FALSE,"brown"
13201002800,13201,"28","","八王子市No.28遺跡","八王子市 川口町","[古墳時代]","横穴墓？","","",139.2823791,35.68737492,FALSE,FALSE,FALSE,TRUE,FALSE,FALSE,FALSE,FALSE,FALSE,"brown"
13201095700,13201,"957","おおわだおうけつぼぐん","大和田横穴墓群","八王子市 大和田町二丁目　 大和田町四丁目　 大和田町五丁目","[古墳時代]","横穴墓","9基","須恵器　刀子　銅鋺　直刀　耳環　人骨",139.3520907,35.6663393,FALSE,FALSE,FALSE,TRUE,FALSE,FALSE,FALSE,FALSE,FALSE,"brown"
13204000400,13204,"4","さかうえおうけつぼぐん","坂上横穴墓群","三鷹市 大沢二丁目","[古墳時代][奈良時代]","横穴墓","","人骨　獣骨",139.5307326,35.68080221,FALSE,FALSE,FALSE,TRUE,TRUE,FALSE,FALSE,FALSE,FALSE,"brown"
13204000700,13204,"7","でやまおうけつぼぐん","出山横穴墓群","三鷹市 大沢二丁目","[古墳時代][奈良時代]","横穴墓","","須恵器　人骨",139.5318166,35.67846921,FALSE,FALSE,FALSE,TRUE,TRUE,FALSE,FALSE,FALSE,FALSE,"brown"
13204001100,13204,"11","のみずばしおうけつぼぐん","野水橋横穴墓群","三鷹市 大沢二丁目","[古墳時代][奈良時代]","横穴墓","","土師器　須恵器　人骨",139.5329231,35.67555183,FALSE,FALSE,FALSE,TRUE,TRUE,FALSE,FALSE,FALSE,FALSE,"brown"
13204001900,13204,"19","はらおうけつぼぐん","原横穴墓群","三鷹市 大沢一丁目","[古墳時代][奈良時代]","横穴墓","4基","人骨",139.5400361,35.6739065,FALSE,FALSE,FALSE,TRUE,TRUE,FALSE,FALSE,FALSE,FALSE,"brown"
13204002100,13204,"21","はねざわだいおうけつぼぐん","羽根沢台横穴墓群","三鷹市 大沢四丁目","[古墳時代][奈良時代]","横穴墓","","薬壺形須恵器　人骨　銭貨",139.5406238,35.66868985,FALSE,FALSE,FALSE,TRUE,TRUE,FALSE,FALSE,FALSE,FALSE,"brown"
13204002200,13204,"22","おとうざかおうけつぼぐん","御塔坂横穴墓群","三鷹市 大沢四丁目","[古墳時代][奈良時代][近世]","横穴墓","","土師器　須恵器　人骨　陶器",139.5434357,35.66708379,FALSE,FALSE,FALSE,TRUE,TRUE,FALSE,FALSE,TRUE,FALSE,"brown"
13206003000,13206,"30","たきくぼおうけつぼぐん","多喜窪横穴墓群","府中市 武蔵台二丁目","[古墳時代]","横穴墓","","",139.4660055,35.69185355,FALSE,FALSE,FALSE,TRUE,FALSE,FALSE,FALSE,FALSE,FALSE,"brown"
13208002400,13208,"24","おとうざかおうけつぼぐん","御塔坂横穴墓群","調布市 深大寺元町三丁目","[古墳時代][奈良時代]","横穴墓群","6基","刀子　人骨　木片",139.546148,35.6658855,FALSE,FALSE,FALSE,TRUE,TRUE,FALSE,FALSE,FALSE,FALSE,"brown"
13208005700,13208,"57","うえのはらおうけつぼぐん","上野原横穴墓群","調布市 柴崎二丁目","[古墳時代]","横穴墓","","人骨",139.5624205,35.66091074,FALSE,FALSE,FALSE,TRUE,FALSE,FALSE,FALSE,FALSE,FALSE,"brown"
13208005800,13208,"58","がんざおうけつぼぐん","蟹沢横穴墓群","調布市 入間町三丁目","[古墳時代]","横穴墓群","3基","人骨",139.5884238,35.6471999,FALSE,FALSE,FALSE,TRUE,FALSE,FALSE,FALSE,FALSE,FALSE,"brown"
13209002100,13209,"21","","町田市No.21遺跡","町田市 相原町","[古墳時代][奈良時代]","横穴墓","","",139.3189551,35.60872755,FALSE,FALSE,FALSE,TRUE,TRUE,FALSE,FALSE,FALSE,FALSE,"brown"
13209008400,13209,"84","たまにゅーたうんNo.939いせき","多摩ニュータウンNo.939遺跡","町田市 小山ヶ丘三丁目","[旧石器時代][縄文時代（早期〜後期）][弥生時代][古墳時代][奈良時代][平安時代][中世][近世]","集落・横穴墓","[縄文時代]住居　集石　炉穴　焼土　土坑　ピット　[弥生時代]住居　土坑　方形周溝墓　[古墳時代]〜[平安時代]住居　竪穴状遺構　焼土　土坑　[中世][近世]建物　炉　土坑　蔵　井戸　粘土採掘坑　炭窯　段切状遺構　溝　道路状遺構","石器　縄文土器　打斧　石鏃　磨石　弥生土器　土師器　須恵器　置き竈　鉄鏃　瓦　陶磁器　擂鉢　砥石　銭貨",139.3676744,35.60018211,TRUE,TRUE,TRUE,TRUE,TRUE,TRUE,TRUE,TRUE,FALSE,"brown"
13209014700,13209,"147","","町田市No.147遺跡","町田市 上小山田町","[古墳時代][奈良時代]","横穴墓","","土師器",139.3980363,35.59244956,FALSE,FALSE,FALSE,TRUE,TRUE,FALSE,FALSE,FALSE,FALSE,"brown"
13209039300,13209,"393","つるかわいせきぐんあーるちてん","鶴川遺跡群R地点","町田市 鶴川五丁目","[古墳時代]","横穴墓","","刀子　人骨",139.4645679,35.59287352,FALSE,FALSE,FALSE,TRUE,FALSE,FALSE,FALSE,FALSE,FALSE,"brown"
13209044200,13209,"442","ぎょくだやとおうけつぼぐん","玉田谷戸横穴墓群","町田市 三輪町","[古墳時代]","横穴墓","横穴墓群4","須恵器　黒色土器",139.4996719,35.57021829,FALSE,FALSE,FALSE,TRUE,FALSE,FALSE,FALSE,FALSE,FALSE,"brown"
13209044900,13209,"449","にしやとおうけつぼぐん","西谷戸横穴墓群","町田市 三輪緑山一丁目","[古墳時代]","横穴墓","","須恵器　鉄製品　ガラス小玉　人骨",139.4934547,35.57406687,FALSE,FALSE,FALSE,TRUE,FALSE,FALSE,FALSE,FALSE,FALSE,"brown"
13209045100,13209,"451","しらさかおうけつぼぐん","白坂横穴墓群","町田市 三輪町","[古墳時代][奈良時代]","横穴墓","13基","須恵器　刀子　人骨",139.4929182,35.58015327,FALSE,FALSE,FALSE,TRUE,TRUE,FALSE,FALSE,FALSE,FALSE,"brown"
13209049300,13209,"493","かみやまざきおうけつぼ","上山崎横穴墓","町田市 山崎町","[縄文時代][古墳時代][奈良時代]","包蔵地・横穴墓","","石器",139.4272211,35.5752577,FALSE,TRUE,FALSE,TRUE,TRUE,FALSE,FALSE,FALSE,FALSE,"brown"
13209060900,13209,"609","ひじりやまよこあなぼぐん","聖山横穴墓群","町田市 玉川学園六丁目","[古墳時代]","横穴墓","","須恵器　刀子　鉄鏃　人骨",139.4653289,35.56790596,FALSE,FALSE,FALSE,TRUE,FALSE,FALSE,FALSE,FALSE,FALSE,"brown"
13209068700,13209,"687","つくしのよこあなぼ","つくし野横穴墓","町田市 つくし野一丁目","[古墳時代]","横穴墓","","水晶製切子玉",139.4801767,35.53076091,FALSE,FALSE,FALSE,TRUE,FALSE,FALSE,FALSE,FALSE,FALSE,"brown"
13209071000,13209,"710","ふくしょうじきたいせき","福生寺北遺跡","町田市 小山町","[旧石器時代][縄文時代（中期）][弥生時代（中期）][古墳時代][平安時代][中世]","集落･横穴墓","[縄文時代]住居　集石　土坑　陥穴　〔弥生時代〕住居〔古墳時代〕横穴墓　[時代不明]住居","ナイフ形石器　縄文土器　石斧　弥生土器　土師器　須恵器　板碑　人骨",139.3695572,35.60077944,TRUE,TRUE,TRUE,TRUE,FALSE,TRUE,TRUE,FALSE,FALSE,"brown"
13209086900,13209,"869","たまにゅーたうんNo.953いせき","多摩ニュータウンNo.953遺跡","町田市 小山ヶ丘五丁目","[縄文時代（早期・中期）][古墳時代]","集落・横穴墓","","",139.3594468,35.60398708,FALSE,TRUE,FALSE,TRUE,FALSE,FALSE,FALSE,FALSE,FALSE,"brown"
13209092000,13209,"920","ただおねぎしやまおうけつぼぐん","忠生根岸山横穴墓群","町田市 根岸町　 木曽町","[古墳時代]","横穴墓","","土師器　須恵器　鉄鏃　刀子　石製丸玉　金銅製耳飾　人骨",139.4071311,35.57731506,FALSE,FALSE,FALSE,TRUE,FALSE,FALSE,FALSE,FALSE,FALSE,"brown"
13209092900,13209,"929","のうがやかごやまこふんぐん","能ヶ谷香山古墳群","町田市 能ヶ谷二丁目","[縄文時代（早期〜中期）][弥生時代][古墳時代][奈良時代][中世]","古墳・横穴墓・包蔵地","円墳2基　横穴墓20基　[縄文時代？]床状硬化面　焼土　竪穴状プラン　[古墳時代]円墳","縄文土器　土師器　須恵器　耳環　勾玉　玉類　直刀　鉄製品　灰釉陶器　板碑　古銭",139.4825824,35.58564458,FALSE,TRUE,TRUE,TRUE,TRUE,FALSE,TRUE,FALSE,FALSE,"brown"
13209093800,13209,"938","みょうぎょうじよこあなぼぐん","妙行寺横穴墓群","町田市 能ヶ谷四丁目","[古墳時代]","横穴墓","","",139.4880859,35.58600749,FALSE,FALSE,FALSE,TRUE,FALSE,FALSE,FALSE,FALSE,FALSE,"brown"
13209095500,13209,"955","かいとよこあなぼぐん","開都横穴墓群","町田市 相原町","[古墳時代]","横穴墓","","",139.3178998,35.60824148,FALSE,FALSE,FALSE,TRUE,FALSE,FALSE,FALSE,FALSE,FALSE,"brown"
13209100900,13209,"1009","のうがやにしよこあなぼ","能ヶ谷西横穴墓","町田市 能ヶ谷二丁目","[古墳時代]","横穴墓","","人骨",139.4793712,35.58459716,FALSE,FALSE,FALSE,TRUE,FALSE,FALSE,FALSE,FALSE,FALSE,"brown"
13209101100,13209,"1011","ときわよこあなぼ","常盤横穴墓","町田市 常盤町","[古墳時代]","横穴墓","","須恵器　鉄製品　人骨",139.397267,35.58757132,FALSE,FALSE,FALSE,TRUE,FALSE,FALSE,FALSE,FALSE,FALSE,"brown"
13209101200,13209,"1012","おやまよこあなぼぐん","小山横穴墓群","町田市 小山町","[古墳時代]","横穴墓","","",139.3580494,35.60235148,FALSE,FALSE,FALSE,TRUE,FALSE,FALSE,FALSE,FALSE,FALSE,"brown"
13210000302,13210,"03-2","まえはらよこあなぼ","前原横穴墓","小金井市 前原町三丁目","[古墳時代]","横穴墓","","人骨",139.500068,35.6982406,FALSE,FALSE,FALSE,TRUE,FALSE,FALSE,FALSE,FALSE,FALSE,"brown"
13212001000,13212,"10","やのうえおうけつぼぐん","谷ノ上横穴墓群","日野市 神明一丁目","[古墳時代][奈良時代]","横穴墓","","須恵器 刀子 鉄鏃 人骨 木炭",139.3974185,35.66886216,FALSE,FALSE,FALSE,TRUE,TRUE,FALSE,FALSE,FALSE,FALSE,"brown"
13212001100,13212,"11","ぼんてんやまおうけつぼぐん","梵天山横穴墓群","日野市 神明一丁目 神明二丁目","[古墳時代][奈良時代]","横穴墓","","土師器 須恵器 鉄鏃 刀子 直刀 鉄滓 人骨 銭貨",139.3936762,35.6680533,FALSE,FALSE,FALSE,TRUE,TRUE,FALSE,FALSE,FALSE,FALSE,"brown"
13212002400,13212,"24","ひらやまだいおうけつぼ","平山台横穴墓","日野市 旭が丘一丁目","[古墳時代?]","横穴墓","1基","須恵器 火打ち鎌 鉄鏃",139.3741675,35.6560483,FALSE,FALSE,FALSE,TRUE,FALSE,FALSE,FALSE,FALSE,FALSE,"brown"
13224000201,13224,"02-1","なかわだおうけつぼぐん","中和田横穴墓群","多摩市 和田","[古墳時代]","横穴墓","17基","土師器　須恵器　鉄鏃　刀子　玉　ガラス玉　大刀　鑷子　人骨",139.428739,35.64541337,FALSE,FALSE,FALSE,TRUE,FALSE,FALSE,FALSE,FALSE,FALSE,"brown"
13224000202,13224,"02-2","こうせいそうびょういんないおうけつぼぐん","厚生荘病院内横穴墓群","多摩市 和田","[古墳時代]","横穴墓","2基","人骨",139.4315499,35.64706494,FALSE,FALSE,FALSE,TRUE,FALSE,FALSE,FALSE,FALSE,FALSE,"brown"
13224017900,13224,"179","","多摩市No.179遺跡","多摩市 和田","[古墳時代][奈良時代]","包蔵地・横穴墓","","",139.4261297,35.64369752,FALSE,FALSE,FALSE,TRUE,TRUE,FALSE,FALSE,FALSE,FALSE,"brown"
13225003100,13225,"31","たまにゅーたうんNo.483いせき","多摩ニュータウンNo.483遺跡","稲城市 坂浜","[古墳時代]","横穴墓","","",139.473354,35.62647525,FALSE,FALSE,FALSE,TRUE,FALSE,FALSE,FALSE,FALSE,FALSE,"brown"
13225008000,13225,"80","ひらおばばおうけつぼぐんだい1・2・3ごう","平尾馬場横穴墓群第1・2・3号","稲城市 平尾","[古墳時代]","横穴墓群","3基","金環",139.4924972,35.61063059,FALSE,FALSE,FALSE,TRUE,FALSE,FALSE,FALSE,FALSE,FALSE,"brown"
