"JASID","LGC","Site_no","SiteName_furigana","SiteName_original","Address","Chronology","SiteType","ArchaeologicalFeatures","MajorArtefacts","Lon","Lat","M"
13101001400,13101,"14","","千代田区No.14遺跡","千代田区 大手町二丁目","[中世]","単独出土地","","銅鐘",139.7683707,35.68525565,TRUE
13101002200,13101,"22","とうきょうこくりつきんだいびじゅつかんいせき","東京国立近代美術館遺跡","千代田区 北の丸公園","[旧石器時代][縄文時代（早期〜後期）][弥生時代][古墳時代][中世][近世]","集落・城館","[旧石器時代]礫群　[縄文時代][弥生時代][古墳時代]住居　[中世]井戸　土坑群　地下式土坑　溝状遺構　堀　[近世]井戸　石組遺構","縄文土器　弥生土器　土製勾玉　土師器　須恵器　砥石　土錘　石製カ帯　石製模造品　陶磁器　カワラケ　瓦　鉄鏃　板碑　ガラス製品　焼塩壺　銭貨",139.754735,35.69037522,TRUE
13101004100,13101,"41","ひらかわちょういせき","平河町遺跡","千代田区 平河町二丁目","[縄文時代][弥生時代][古墳時代][中世][近世]","包蔵地","[中世]地下式土坑","陶磁器",139.7401839,35.67928786,TRUE
13101004200,13101,"42","きおいちょういせき","紀尾井町遺跡","千代田区 紀尾井町","[旧石器時代][縄文時代（早期・中期〜後期）][弥生時代（後期）][中世][近世][近代]","包蔵地・集落・屋敷","土坑　盛土　土手　石組溝　土坑　埋桶　柱穴　石垣遺構（紀州和歌山藩屋敷関係）　石垣　溝","縄文土器　弥生土器　陶磁器　瓦　金属製品　泥人形　間知石　石製品",139.7371627,35.68084957,TRUE
13101005100,13101,"51","","千代田区No.51遺跡","千代田区 丸の内一丁目","[中世]","墓地跡","","人骨",139.7661971,35.68075227,TRUE
13101005300,13101,"53","","千代田区No.53遺跡","千代田区 有楽町一丁目","[中世][近世]","社寺・上水跡","[中世]墓 [近世]上水道","木樋 人骨",139.7607833,35.67529979,TRUE
13101007300,13101,"73","","千代田区No.73遺跡","千代田区 神田花岡町","[中世][近世]","その他の墓","","",139.7744679,35.69812702,TRUE
13102000200,13102,"2","","中央区No.2遺跡","中央区 日本橋本石町一丁目","[中世]","貝塚","","中世土器　内耳土器　土錘　石器　管状土錘",139.7711986,35.68524433,TRUE
13102000300,13102,"3","にほんばしいっちょうめいせき","日本橋一丁目遺跡","中央区 日本橋一丁目","[中世][近世]","包蔵地","[近世]石組下水　下水木樋　土蔵　穴蔵　埋甕　埋桶　胞衣埋納遺構　芥溜","陶磁器類　土製品(玩具等)　瓦　木製品(漆器椀・下駄他)　金属製品　石製品　ガラス製品　糸繊維製品",139.7748035,35.68259513,TRUE
13102007700,13102,"77","こでんまちょうろうやしきあといせき","小伝馬町牢屋敷跡遺跡","中央区 日本橋小伝馬町","[縄文時代(中期〜晩期)][弥生時代(後期)][古墳時代][奈良時代][平安時代][中世][近世]","屋敷","[近世]土坑　礎石　道路状遺構　建物址　建物基礎　石積・石組　埋桝　石組下水　植栽痕　上水桝　上水木樋　竹","陶磁器　木製品　人骨　瓦類　金属製品　土製品　木製品　銭貨　石製品　骨角貝製品　ガラス製品　動植物遺体　縄文土器　土師器（古墳時代、奈良時代　平安時代）　中世土器・陶器　他",139.7774141,35.6911266,TRUE
13103000700,13103,"7","いまいしろやま","今井城山遺跡","港区 赤坂五丁目","[中世]","城館","","",139.7357195,35.67250843,TRUE
13103001500,13103,"15","にしくぼしろやまいせき","西久保城山遺跡","港区 虎ノ門四丁目","[中世]","城館","","",139.7441082,35.66585452,TRUE
13103001700,13103,"17","おおたどうかんしろあと","太田道灌城跡","港区 虎ノ門五丁目","[中世]","城館","","",139.7431469,35.66328836,TRUE
13103006400,13103,"64","たかなわみなみまちいせき","高輪南町遺跡","港区 高輪三丁目","[縄文時代（中期）][弥生時代（後期）][奈良時代][平安時代][中世][近世]","包蔵地・集落・屋敷・その他（道路）","住居跡　炉跡　土坑　道路状遺構　竪穴建物跡　方形周溝墓　焼土廃棄土坑　地下室","[縄文時代][弥生時代][古墳時代]土器　[奈良・平安時代]土師器　須恵器　石器　[近世]陶磁器　土器　金属製品",139.7332249,35.63236242,TRUE
13103006700,13103,"67","きゅうしろがねごりょうちいせき","旧白金御料地遺跡","港区 白金台五丁目","[縄文時代（早～後）][中世][近世]","包蔵地　城館　屋敷","[中世]土塁[近世]土坑　溝　ピット　配石","[縄文時代]土器[近世]陶磁器　土器　金属製品",139.7184964,35.63854299,TRUE
13103008700,13103,"87","しゅんとういんあといせき","春桃院跡遺跡","港区 元麻布一丁目","[中世][近世]","包蔵地 社寺 その他の墓","墓坑 甕棺 礎石建物跡 土坑","陶磁器（江戸時代） 銭貨 人骨 陶器（中世）",139.7325211,35.65253469,TRUE
13103011500,13103,"115","ぜんぷくじじいきいせき","善福寺寺域遺跡","港区 元麻布一丁目","[縄文][弥生][古墳][中世][近世]","包蔵地　集落　社寺","[近世]土坑、柱穴列、土取跡","[縄文]土器、[中世]板碑、[近世]陶磁器、瓦、土製品",139.7319718,35.65401323,TRUE
13103015600,13103,"156","いわみつわのはんかめいけやしきあといせき","石見津和野藩亀井家屋敷跡遺跡","港区 南麻布四丁目","[縄文時代][弥生時代][古墳時代][奈良時代][平安時代][中世][近世]","包蔵地・墳墓・屋敷","土坑　礎石　道路状遺構　大型方形区画　井戸　墳墓","[縄文時代]土器　[中世]陶器　[江]陶磁器　土器　瓦",139.7271824,35.65049816,TRUE
13103018300,13103,"183","はりまあこうはんもりけやしきあとかそういせき","播磨赤穂藩森家屋敷跡下層遺跡","港区 浜松町一丁目","中世、近世","その他の墓","埋葬施設、上水、溝","人骨、木棺、陶磁器、土器、木製品、銭、獣骨",139.7556322,35.6573313,TRUE
13103022300,13103,"223","ぞうじょうじしいんぐん　てんよういんあといせき","増上寺子院群天陽院跡遺跡","港区 芝公園二丁目","[弥生][古墳][中世][近世]","包蔵地・社寺","[近世]土坑","[弥生〜中世]土器、[近世]陶磁器、土器",139.750923,35.65635382,TRUE
13104001600,13104,"16","つくどじょうあと","筑土城跡","新宿区 筑土八幡町","[中世][近世]","その他の墓・城館・社寺・その他（町屋）","[近世]大型土坑 地下室 土坑 柱穴 植栽痕","磁器 陶器 せっ器 土器 瓦 土製品 金属製品",139.7404739,35.7038249,TRUE
13104001800,13104,"18","うしごめじょうあといせき","牛込城跡","新宿区 袋町 北町 中町 若宮町","[縄文時代][弥生時代（後期）][古墳時代][中世][近世]","集落・城館・屋敷・その他の墓","[弥生時代]住居跡 [近世]地下室 土坑 井戸 甕埋納遺構 小穴 大型土坑 墓 植栽痕 溝状遺構 礎石","磁器 陶器 せっ器 土器 瓦 土製品 金属製品 石製品 貝類 骨角製品 ガラス製品",139.7380147,35.70067335,TRUE
13104002800,13104,"28","おおたどうかんべっかんごてんやまいせき","太田道灌別館御殿山遺跡","新宿区 筑土八幡町","[中世][近世]","城館・社寺","[近世]馬埋葬遺構　甕棺墓","動物遺存体　人骨　甕棺　蔵骨器　泥人形",139.7394096,35.70404793,TRUE
13104003500,13104,"35","みょうしょうじがわNo.1いせき","妙正寺川No.1遺跡","新宿区 西落合二丁目","[旧石器時代][縄文時代（早期〜後期）][弥生時代（後期）][古墳時代][奈良時代][平安時代][中世][近世]","包蔵地","[旧石器時代]礫群　[縄文時代]土坑　[近世]水田址　井戸状遺構","材　縄文土器　石器　木製品　弥生土器　陶器　磁器　埴輪　土製品　石製品　金属製品　土師器",139.6748036,35.72067884,TRUE
13104004900,13104,"49","しもとつかいせき","下戸塚遺跡","新宿区 西早稲田一丁目　 西早稲田三丁目","[旧石器時代][縄文時代（草創期〜後期）][弥生時代（後期）][古墳時代][奈良時代][平安時代][中世][近世]","包蔵地・集落・屋敷","[旧石器時代]石器ブロック　礫群　[縄文時代]土坑　集石遺構　土坑　炉穴　陥坑　[弥生時代]竪穴式住居　環壕　方形周溝墓　土坑　[古墳時代]竪穴式住居跡　土坑　方形周溝墓　円墳　[奈良時代]竪穴式住居　土坑　掘立柱建物跡　溝　[中世]掘立柱建物跡　柵列　井戸　地下式坑　土坑　溝　方形周溝状区画溝　[近世]建物跡　柵列　地下室　井戸　土坑　溝状遺構　竪穴状遺構　畝状遺構　ピット","剥片　礫　縄文土器　石器　弥生土器　ガラス製小玉　青銅製品　土製勾玉　蓑玉　炭化米　金属製品　石製有孔円板　滑石製管玉　石製品　鉄製品　ガラス製品　ベンガラ塊　土師器　須恵器　灰釉　緑釉陶器　砥石　土製品　鉄器　墨書土器　磁器　陶器　瓦器　中世土器　埋納銭貨　青磁　土製品　瓦　木製品　近世土器",139.7169465,35.71088671,TRUE
13104006700,13104,"67","かすみがおかまちいせき","霞ヶ丘町遺跡","新宿区 霞ヶ丘町","[縄文時代（早期〜前期）][中世][近世][近代]","包蔵地・その他の墓・社寺・その他（暗渠下水）","[中世]土坑 溝 井戸 道路跡 [近世]池跡 井戸 溝 土坑 建物跡 土蔵 段切 採土坑 柱穴列 石組 墓坑 道路 [近代]下水暗渠","(縄文)土器 (弥生)土器 石製品（勾玉） (中世)舶載陶磁器（青白磁・白磁） 国産陶器 石製品(板碑) (近世)舶載陶磁器(青花・白磁) 国産陶磁器 土製品 瓦 金属製品 石製品 木製品 ガラス製品 骨角製品　[近代]陶磁器",139.716293,35.677074,TRUE
13104006800,13104,"68","きたしんじゅくさんちょうめいせき","北新宿三丁目遺跡","新宿区 北新宿三丁目","[旧石器時代][縄文時代（前期〜中期）][弥生時代（後期）][古墳時代][中世][近世]","包蔵地・集落","[弥生時代]竪穴住居跡　[古墳時代]竪穴住居跡　[中世]地下式壙　土坑　小穴　[近世]地下室　土坑　柱穴　溝","石器　尖頭器　石核　剥片　縄文土器　弥生土器　ガラス小玉　炭化米　古墳土器　ガラス小玉　磁器　陶器　せっ器　近世土器　瓦　金属製品",139.689965,35.70440123,TRUE
13104007300,13104,"73","つくどはちまんちょういせき","筑土八幡町遺跡","新宿区 筑土八幡町　 白銀町","[縄文時代（早期〜晩期）][弥生時代（後期）][古墳時代][奈良時代][平安時代][中世][近世]","包蔵地・屋敷","[中世]井戸　土坑　[近世]建物跡　井戸　地下室状遺構　ごみ穴　溝状遺構　杭列　土坑　小穴　柱穴　井戸状遺構　桶埋設遺構　礎石　柱穴列　井戸跡　埋桶　胞衣皿埋納遺構　粘土採掘坑　[江戸時代以前]住居跡　溝状遺構　土坑","縄文土器　石器　弥生土器　土師器　須恵器　板碑　磁器　陶器　せっ器　近世土器　瓦　土製品　金属製品　木製品　骨角製品　ガラス製品　石製品　中世陶磁器",139.739444,35.70358792,TRUE
13104010100,13104,"101","ぎょうがんじあと","行元寺跡","新宿区 神楽坂五丁目","[旧石器時代][縄文時代（早期〜後期）][弥生時代（後期）][古墳時代][平安時代][中世][近世]","包蔵地・社寺","[旧石器時代]礫群　[縄文時代]遺物集中部　[古墳時代]竪穴住居跡　[平安時代]竪穴住居跡　[中世]地点貝塚　[中世][近世]土壙墓　板碑集中壙　方形区画溝・溝状遺構　建物跡　竹樋　地下室・室状遺構　井戸・井戸状遺構　水溜状遺構　池跡?　ごみ穴　方形土坑　石列　埋桶　埋甕　胞衣埋納遺構　胎児埋葬遺構　イヌ埋葬遺構","石器　礫　縄文土器　石器　弥生土器　土師器　須恵器　磁器　陶器　せっ器　土器　瓦　土製品　金属製品　木製品　骨角製品　ガラス製品　石製品（板碑等）",139.7391693,35.70264002,TRUE
13104011500,13104,"115","かしわぎよどばしちょういせき","柏木淀橋町遺跡","新宿区 北新宿二丁目","[縄文時代（前期〜中期）][古墳時代][中世][近世]","包蔵地・その他（町屋）","","",139.6884014,35.69609467,TRUE
13104012400,13104,"124","しなのまちみなみいせき","信濃町南遺跡","新宿区 信濃町 南元町","[旧石器][縄文時代（中期〜後期）][中世][近世]","包蔵地・屋敷","[旧石器]炭化物集中部　[縄文時代]炉穴　土杭　小穴　[近世]地下室　半地下室　井戸　溝状遺構　建物跡　土坑　ごみ穴　採土坑　焼土跡　ピット　小穴列　礎石　道路遺構　硬化面　池跡　上水遺構　退避壕　埋桶　木杭　植栽痕　胞衣埋納遺構　[近代]土坑","(縄文)縄文土器 石器 剥片 礫 (中世)板碑 銭貨 (近世)磁器 陶器 せっ器 土器 瓦 土製品 金属製品 木製品 ガラス製品 骨角製品 石製品 銭貨 貝製品 皮製品 自然遺物",139.7199646,35.68117118,TRUE
13104012800,13104,"128","しんじゅくろくちょうめいせき","新宿六丁目遺跡","新宿区 新宿六丁目","[縄文時代（早期〜中期）][中世][近世]","集落・屋敷","","",139.708635,35.69656346,TRUE
13104013800,13104,"138","しろがねちょうにしいせき","白銀町西遺跡","新宿区 白銀町 赤城元町","[縄文時代][弥生時代（後期）][古墳時代][奈良時代][中世][近世]","集落・屋敷","[弥生時代]〜[古墳時代]住居跡 溝状遺構 方形周溝墓 土坑 [奈良時代]住居跡 [近世]地下室 土坑 井戸 溝 柱穴 甕棺 蔵骨器","弥生土器 土師器 須恵器 磁器 陶器 せっ器 近世土器 瓦 土製品 金属製品 骨角製品 石製品 古墳土器",139.7374699,35.70457764,TRUE
13105000300,13105,"3","おおつかさんちょうめいせき","大塚三丁目遺跡","文京区 大塚三丁目","[縄文時代][古墳時代][中世][近世]","包蔵地・貝塚?・屋敷・その他（村）","[縄文時代]土坑　[中世]溝　[近世]地下室　井戸　土坑　柱穴列　礎石列など","（縄文）土器・石器　（古墳）土師器・須恵器　（中世）せっ器・土製品・板碑　（近世）陶磁器・せっ器・土器・土製品・瓦・金属製品・石製品など",139.7373743,35.7204176,TRUE
13105003300,13105,"33","ゆみちょういせき","弓町遺跡","文京区 本郷一丁目","[旧石器時代][縄文時代][弥生時代（後期）][奈良時代][平安時代][中世][近世]","包蔵地・集落・屋敷","[奈良時代]堅穴住居　[近世]地下室　井戸　土坑","縄文土器・敲石　土器・陶磁器・金属器　（奈良）土師器・須恵器　（近世）陶磁器・土器",139.7564631,35.70617294,TRUE
13105005100,13105,"51","まさごちょう（まさご）いせき","真砂町（真砂）遺跡","文京区 本郷四丁目","[旧石器時代][縄文時代（早期〜後期）][弥生時代][古墳時代][奈良時代][平安時代][中世][近世]","集落・屋敷","[縄文時代]炉穴　[奈良平安時代]住居跡　柱穴　土坑　[近世]上水道　井戸　地下室","縄文土器　土師器　須恵器　陶磁器類",139.7560167,35.70843107,TRUE
13105005800,13105,"58","ほんごうもとまちいせき","本郷元町遺跡","文京区 本郷一丁目","[縄文時代（前期～中期）][弥生時代][古墳時代][奈良時代][平安時代][中世][近世]","包蔵地・集落・屋敷","[近世・近代以降]井戸　地下式坑　土坑　柱穴群　礎石群　溝状遺構　下水施設　池　レンガ遺構　互列遺構　[近世以降]桶　土坑　溝　礎石など　[近世]地下式坑","(旧石器)ナイフ形石器など　(縄文)土器　石器　(弥生)扁平片刃石斧　土器　(古墳)土師器　須恵器　(奈良・平安)土師器　須恵器　(中世)陶器　(近世)磁器　陶器　炻器　土器　互　金属製品　石製品　土製品　木製品　自然遺物　その他",139.7568407,35.70266017,TRUE
13105006000,13105,"60","こうらくいち・にちょうめいせき","後楽一・二丁目遺跡","文京区 後楽一丁目　後楽二丁目","[縄文時代][中世][近世]","屋敷","[中世]溝　[近世]建物跡　土蔵跡　井戸　溝　ピット　樋基礎　境杭列　境溝　土坑　上水遺構　埋桶　池　落ち込み","（縄文）石器　（中世）陶器　（近世）土器・陶磁器・瓦・木製品・石製品・土製品・金属製品・漆製品",139.7453737,35.70542022,TRUE
13105006200,13105,"62","みょうがだにまちいせき","茗荷谷町遺跡","文京区 小日向四丁目","[中世][近世]","社寺?","[近世]地下式坑　土坑","（近世)陶磁器・土器・墓石",139.7372713,35.71623646,TRUE
13105006500,13105,"65","おおつかさかしたまちいせき","大塚坂下町遺跡","文京区 大塚五丁目","[縄文時代][中世][近世]","包蔵地・社寺","溝状遺構　土坑　小穴　[近世]溝　盛土　[近代]建物基礎　溝状遺構　土坑","陶磁器　瓦　縄文土器（早期）　陶器　せっ器　近世土器　磁器",139.7261477,35.72033398,TRUE
13105007300,13105,"73","こひなただいまちみなみいせき","小日向台町南遺跡","文京区 小日向一丁目","[旧石器時代][縄文時代][弥生時代][奈良時代][中世][近世]","包蔵地・集落・屋敷","[縄文時代]陥穴　[弥生時代]竪穴住居跡　[奈良時代]竪穴住居跡　[中世]井戸 土坑墓　[近世]地下室 井戸","(旧石器)石器　(縄文)土器　(弥生)土器　(奈良)土師器 須恵器　(近世)陶磁器 土器",139.7361727,35.71261262,TRUE
13105011300,13105,"113","せんだぎさんちょうめきたいせき","千駄木三丁目北遺跡","文京区 千駄木三丁目","[縄文時代][古墳時代][中世][近世]","包蔵地・集落・屋敷","[縄文時代]土坑　[古墳時代]住居跡　土坑　堅穴状遺構　[近世]地下室　大型土坑　土坑　井戸　溝","（縄文）土器・打製石斧・磨石・石核・剥片　（古墳）土師器　（中世）陶磁器・土器　（近世）陶磁器・土製品・瓦・石製品・銭貨・金属製品・骨角製品・ガラス製品",139.760804,35.72800058,TRUE
13105011500,13105,"115","かすがにちょうめにしいせき","春日二丁目西遺跡","文京区 春日二丁目","[旧石器時代][縄文時代][弥生時代][古墳時代][奈良時代][中世][近世]","包蔵地・集落・屋敷","[旧石器時代]遺物集中部　[縄文時代]炉穴　集石　陥穴　土坑　[弥生時代]土坑　[古墳時代]土坑　[中世]溝　道路状遺構（溝）　土塁状盛土　[近世]谷埋立造成　土手状遺構　溝　砂利敷き　井戸　礎石　礎石跡　地下室　土坑","（旧石器）剥片　（縄文）土器・石製装身具　（弥生）土器　（古墳〜古代）土師器・須恵器　（中世）陶磁器・土器・板碑・銭貨　（近世以降）陶磁器・土器・土製品・金属製品・銭貨・石製品・瓦・ガラス製品",139.7410479,35.71146969,TRUE
13105011800,13105,"118","こひなたいち・にちょうめみなみいせき","小日向一・二丁目南遺跡","文京区 小日向一丁目　小日向二丁目","[縄文時代][古墳時代][奈良時代][平安時代][中世][近世]","包蔵地・集落・その他の墓・社寺・屋敷・その他（町屋）","[古墳時代]堅穴住居跡　炉跡　土坑など　[近世]土坑　甕棺墓　木棺墓　土器棺墓　蔵骨器　直葬墓　便所跡　建物基礎跡　神田上水　盛土","（縄文）土器　（古墳）土師器・須恵器　（古代）土師器・須恵器　（中世）陶器・土器　（近世）陶磁器・人骨・土器・金属製品・木製品・甕棺・墓石・間知石・胴木など",139.739594,35.712051,TRUE
13105012300,13105,"123","こいしかわしょくぶつえんにしいせき","小石川植物園西遺跡","文京区 白山三丁目","[縄文時代][中世][近世]","包蔵地･屋敷","[近世]石積遺構　土坑　小穴　溝状遺構","[縄文]土器　石製品(石棒)　[古墳]土師器　[近世]磁器　陶器　せっ器　土器　土製品(人形)　瓦　石製品　銅製品(煙管) 木製品(板材等)　銭貨(寛永通宝等)",139.7432795,35.7191354,TRUE
13105012600,13105,"126","こいしかわしょくぶつえんみなみいせき","小石川植物園南遺跡","文京区 白山三丁目","[旧石器時代][縄文時代][弥生時代][中世][近世]","包蔵地","[近世]地下室　土取り穴　土坑　井戸　溝状遺構","石器　縄文土器　弥生土器　陶器　磁器　近世土器　土製品　瓦　金属製品　石製品",139.747262,35.71802044,TRUE
13105012700,13105,"127","ほんごうさんちょうめみなみいせき","本郷三丁目南遺跡","文京区 本郷三丁目","[縄文時代][奈良時代][平安時代][中世][近世]","包蔵地･屋敷","[縄文時代]柱穴　[奈良・平安時代]柱穴　[近世]地下室　土坑等","縄文土器　陶磁器　土師器",139.7625399,35.70243713,TRUE
13105012900,13105,"129","こひなたいっちょうめひがしいせき","小日向一丁目東遺跡","文京区 小日向一丁目","［縄文時代］［弥生時代］［古墳時代］［奈良時代］［平安時代］［中世］［近世］","包蔵地・集落・その他の墓・屋敷","［縄文時代］ファイヤーピット?　［弥生時代］?［古墳時代］竪穴住居跡　［奈良時代］［平安時代］竪穴住居跡　土坑　［近世］地下室　溝状遺構　土坑　柱穴","［縄文時代］土器片　［弥生時代］土器片　［奈良時代］［平安時代］土師器　須恵器　石製品　［近世］陶磁器　土器　瓦　石製品　金属製品　土製品　炉器",139.7382326,35.71367191,TRUE
13105013800,13105,"138","こいしかわいっちょうめいせき","小石川一丁目遺跡","文京区 小石川一丁目","[縄文時代][弥生時代][古墳時代][奈良時代][平安時代][中世][近世]","屋敷　その他（水田跡）","[弥生]流路　木組遺構　溝状遺構　[古墳]溝状遺構　土坑　[奈良・平安]溝状遺構　土坑　[中世]流路　溝　水田跡　[近世]土坑　溝状遺構　井戸　上水施設　池跡　ピット　水田跡　区画溝　排水溝","[縄文]土器　[弥生]土器　石器　木製品　加工材　構造物部材　大型植物遺体　[古墳]土師器　木製品　構造物部材　[奈良・平安]土師器　須恵系土師質土器　須恵器　[中世]土器　陶器　[近世]磁器　陶器　炻器　土器　互　土製品　金属製品　木製品(繊維製品)　骨角貝製品　ガラス製品　石製品　自然遺物　土類",139.7524462,35.710494,TRUE
13105014400,13105,"144","やなぎちょういせき","柳町遺跡","文京区 小石川一丁目","[中世][近世]","屋敷","[中世]溝[近世]土坑　池　井戸　溝　埋甕　畝　礎石　竹樋　小穴","[古代]土師器[中世]陶器　土師質土器[近世]陶磁器　_器　土器　瓦　土製品　金属製品　席製品　木製品　自然遺物",139.7504831,35.71413132,TRUE
13106000401,13106,"04-1","うえのしのぶがおかいせきぐん","上野忍岡遺跡群","台東区 上野公園　上野二丁目　池之端三丁目","[旧石器時代][縄文時代（早期〜晩期）][弥生時代（後期）][古墳時代][奈良時代][平安時代][中世][近世][近代]","包蔵地・集落・社寺・屋敷・その他の墓・その他（花卉園）","[近世]建物跡　池跡","ナイフ形石器　細石刃　剥片　縄文土器　石器　弥生土器　土師器　須恵器　埴輪　陶器（灰釉）　紡錘車　帯金具　陶磁器　焼塩壺　硯　煙管　木製品　和釘　ガラス製品　瓦塔　瓦　墨書付絹布　簪　笄　数珠玉　小形巻物　甕棺　木棺　墓石　石造物　板碑　人骨",139.7736828,35.71547164,TRUE
13106000405,13106,"04-5","うえのしのぶがおかいせきぐん","上野忍岡遺跡群","台東区 上野桜木一丁目","[旧石器時代][縄文時代][古墳時代][奈良時代][平安時代][中世][近世]","包蔵地・集落・貝塚・社寺","[旧石器時代]〜[中世]礫群　陥穴　ピット群　土杭　貝塚　[近世]地下式土杭　井戸　溝　瓦留　墓杭","縄文〜古代土器　近世陶磁器瓦・石造物　旧石器〜中世礫・縄文土器・土師器・須恵器・陶器・土器　近世陶磁器・土器類・人骨",139.7701043,35.72060734,TRUE
13106000406,13106,"04-6","うえのしのぶがおかいせきぐん","上野忍岡遺跡群","台東区 上野桜木二丁目","[古墳時代][奈良時代][平安時代][中世][近世]","包蔵地・集落・社寺","[古墳時代]住居跡　[近世]土杭","古代土師器　中世陶器　近世陶磁器・瓦",139.7733144,35.72286506,TRUE
13106000408,13106,"04-8","うえのしのぶがおかいせきぐん","上野忍岡遺跡群","台東区 上野桜木一丁目","[旧石器時代][縄文時代][弥生時代][古墳時代][奈良時代][平安時代][中世][近世]","包蔵地・集落・社寺","","旧石器時代石器　古墳時代　土師器・石製品（玉類他）　奈良・平安時代　土師器・須恵器　中世陶磁器　近世陶磁器・瓦",139.7754773,35.72326921,TRUE
13106000801,13106,"08-1","せんそうじいせき","浅草寺遺跡","台東区 浅草一丁目　浅草二丁目","[縄文時代（晩期）][弥生時代][奈良時代][平安時代][中世][近世][近代]","包蔵地・集落・社寺・その他（火除地・公園地）","練塀跡　溝跡　火葬墓　井戸　杭列　池跡　井戸跡　土坑　貝殻廃棄　大型土坑　池跡（護岸・中ノ島・築堤・橋）","縄文式土器　弥生式土器　須恵器　布目瓦　中世軒瓦　陶器　古銭　（奈良）鉄鉢形土器・花瓶　（平安）灰釉水瓶　（鎌倉）灰釉土器　錫杖　光背　観音像　（古代）土師器　須恵器　（中世）瓦・陶磁器・土器・蔵骨器・板碑　（近世）陶磁器・瓦・ガラス絵　（近代）陶磁器、金属　ガラス　革製品",139.794425,35.7116722,TRUE
13106002300,13106,"23","きたいなりちょう（こうとくじあと）いせき","北稲荷町（広徳寺跡）遺跡","台東区 東上野四丁目","[古墳][奈良][平安][中世][近世]","包蔵地　社寺","[近世]建物基礎・埋桶・土坑・小穴","甕棺　銅板　仏像　墨書木札　数珠玉　木製独楽　人骨",139.7796965,35.71253637,TRUE
13106003202,13106,"32-2","てんのうじいせき","天王寺遺跡","台東区 谷中七丁目","[古墳時代][奈良時代][平安時代][中世][近世]","包蔵地・集落・社寺","[古代]土坑 [近世]地下式坑","古代土師器 近世陶磁器 貝殻 中近世陶磁器",139.7701609,35.72744673,TRUE
13106003600,13106,"36","あさくさしばさきちょういせき","浅草芝崎町遺跡","台東区 西浅草三丁目","[奈良時代][平安時代][中世][近世]","包蔵地・屋敷","杭列　溝　土坑　水田跡?　枡組","近世陶磁器・瓦　中世陶器・須恵器　陶磁器 木製品　金属製品　井戸枠",139.7899009,35.71707951,TRUE
13106004300,13106,"43","にしまちいせき","西町遺跡","台東区 東上野二丁目","[中世][近世]","包蔵地・屋敷","[近世]土坑　溝　池跡　基礎　基礎桶","（近世）陶磁器・土器・瓦・木製品・金属製品・石製品・土製品",139.7798159,35.70954017,TRUE
13106004600,13106,"46","せんげんじんじゃいせき","浅間神社遺跡","台東区 浅草五丁目","[中世][近世]","包蔵地・社寺・その他（塚）","井戸跡","近世陶磁器　瓦等",139.7984724,35.71935152,TRUE
13106004700,13106,"47","かみさんさきみなみいせき","上三崎南遺跡","台東区 谷中四丁目","[縄文時代][奈良時代][平安時代][中世][近世]","集落・社寺","[近世以前]土坑　[近世]土坑　溝　地下式土坑","縄文土器　土師器　須恵器　中世石造物　（近世）瓦　陶磁土器類",139.7678949,35.72259702,TRUE
13106005300,13106,"53","かみくるまざかちょういせき","上車坂町遺跡","台東区 東上野四丁目","[古墳時代][奈良時代][平安時代][中世][近世]","包蔵地・集落・屋敷","土坑　地下式坑　井戸　溝　池　基礎　木樋　胞衣埋納遺構　埋桶　埋甕　ピット　井戸跡　建物基礎址　礎石　池跡　地業址　木組溝　排水施設","陶磁器　土器　瓦　木製品　金属製品　石製品　ガラス　棟瓦　磁器　陶器　せっ器　骨角製品",139.779439,35.71327509,TRUE
13106006200,13106,"62","したやどうほうちょういせき","下谷同朋町遺跡","台東区 上野三丁目","[縄文時代（中期〜後期）][奈良時代][平安時代][中世][近世]","包蔵地・社寺・その他（町屋・道路）","[近世]道路跡　木組溝　溝　上水遺構　土蔵跡　建物跡　石組　礎石　杭跡　地業跡　竹柵　埋桶　胞衣埋納遺構　墓坑　溝状遺構　土坑　ピット","（縄文）土器　（弥生）土器・須恵器　（中世）石製品（板碑）　（近世）磁器・陶器・炉器・土器・瓦類・土製品・木製品・金属製品・銭貨・人骨・動物遺体",139.774209,35.70676593,TRUE
13106006900,13106,"69","こまがたいせき","駒形遺跡","台東区 駒形一丁目","[古墳時代][奈良時代][平安時代][中世][近世]","集落・その他の墓・社寺・その他（町屋）","[古墳時代]〜[中世]住居跡　土坑　埋葬遺構　[近世]遺構　地下式坑　土坑等　溝　建物基礎跡　土坑等　整地跡","（古〜中）土師器・須恵器　陶器・土器　土錘　人骨　（近世）陶磁器　玩具",139.7945967,35.70728152,TRUE
13106007200,13106,"72","やなかしもさんさきいせき","谷中下三崎遺跡","台東区 谷中五丁目","[縄文時代][弥生時代（後期）][奈良時代][平安時代][中世][近世]","包蔵地・集落・社寺・屋敷","[縄文時代]土坑　溝　[中世]土坑　[近世]土坑　地下式坑　井戸　溝　植栽痕　礎石　基礎","（縄文）土器　（弥生）土器　（古代）須恵器　土師器　（中世末）陶磁器　土器・瓦　金属製品　石製品等　（近世）陶磁器・土器・瓦・木製品・金属製品・石製品等",139.7671911,35.72509159,TRUE
13106007300,13106,"73","","台東区No.73遺跡","台東区 駒形一丁目","[奈良時代][平安時代][中世][近世]","包蔵地・その他（町屋）","","古代土師器　中世土器　近世陶磁器",139.7933779,35.70565063,TRUE
13106007500,13106,"75","かやちょうにちょうめいせき","茅町二丁目遺跡","台東区 池之端一丁目","[縄文時代][弥生時代][古墳時代][奈良時代][平安時代][中世][近世]","包蔵地・社寺・屋敷・その他（町屋）","[近世]土坑　瓦溜　地下式坑　井戸　石組溝　溝　池　埋甕　埋桶　ピット　植栽　石列　敷石","（縄〜中）縄文土器・弥生土器・土師器・中世陶器・板碑等　（近世）陶磁器・土器・瓦・木製品・金属製品・石製品等",139.7676138,35.71128241,TRUE
13106009700,13106,"97","うえのひろこうじいせき","上野広小路遺跡","台東区 上野一丁目　二丁目","[縄文時代][奈良時代][平安時代][中世][近世]","包蔵地・その他（水路）","[近世]水路　ピット列　松杭","（縄文）土器　（古代）須恵器　（中世）陶器・土器　（近世）陶磁器・土器・瓦・骨角製品・金属製品・石製品等",139.7733395,35.71043263,TRUE
13106009900,13106,"99","みなみもとまちいせき","南元町遺跡","台東区 蔵前二丁目","[古墳時代][奈良時代][平安時代][中世][近世][近代]","包蔵地・その他（蔵屋敷・発電所）","[近世]遺構　土坑　土坑（ピット）　瓦溜　石組溝　木組施設　堀？　ピット","（古代）須恵器　（中世）陶器　（近世）陶磁器・土器・瓦・木製品・金属製品・石製品等",139.7921419,35.70293241,TRUE
13106010000,13106,"100","なかねぎしいせき","中根岸遺跡","台東区 根岸三丁目","[縄文時代][奈良時代][平安時代][中世][近世]","包蔵地・集落・社寺・その他（農村地）","[近世]土坑　瓦溜　溝　井戸　木組施設　植栽　ピット　杭列　土坑（植栽痕）　礎石基礎","（縄文）土器　（古代）須恵器・土師器　（中世）陶器　（近世）陶磁器・土器・瓦・木製品・金属製品・石製品・ガラス・せっ器・ガラス製品・土製品",139.7814182,35.72382881,TRUE
13106011600,13106,"116","みよしちょういせき","三好町遺跡","台東区 蔵前二丁目","[弥生時代][古墳時代][奈良時代][平安時代][中世][近世]","包蔵地・集落・その他の墓・その他（町屋）","[古墳時代]掘立柱建物　土坑　ピット　[中世]柵列　ピット　土坑　[近世]地下室　土坑　井戸　溝　石組水路　礎石列　ピット","（古）土師器・須恵器・土製品　（中世）陶器・土器・銭　（近世）陶磁器・土器・瓦・土製品・金属製品・木製品・骨角製品・ガラス・石製品・自然遺物等",139.7933607,35.70427062,TRUE
13106012500,13106,"125","あさくさたかはらちょういせき","浅草高原町遺跡","台東区 寿二丁目","[中世][近世]","包蔵地・社寺","建物基礎　井戸跡　墓坑　廃棄土坑等","近世陶磁器　墓標　金属製品　石製品人骨等",139.7898417,35.70861966,TRUE
13109000700,13109,"7","しろがねやかたあと","白金館址","品川区 上大崎二丁目","[中世]","城館","","",139.7185611,35.63848077,TRUE
13109001000,13109,"10","いるきばしいせき","居木橋遺跡","品川区 大崎二丁目","[縄文時代（早期〜後期）][弥生時代][中世]","集落跡・貝塚","[縄文時代]住居　土坑　ピット　[中世]溝","縄文土器　打斧　磨斧　石皿　耳飾　石棒　骨角製釣針　鯨骨製棒状骨角器　獣魚骨　弥生土器　抉入石斧　陶磁器　動物遺体",139.7245685,35.61720399,TRUE
13109001700,13109,"17","えばらやかたあと","荏原館跡","品川区 旗の台三丁目","[中世]","城館","[中世]土塁","",139.7080605,35.60455922,TRUE
13109002100,13109,"21","かねこやまいせき","金子山遺跡","品川区 西大井四丁目","[中世]","城館","","",139.7196823,35.59370406,TRUE
13110000300,13110,"3","ひかわいせき","氷川遺跡","目黒区 大橋二丁目","［旧石器時代］[縄文時代（早期〜後期）][弥生時代（前期〜後期）][古墳時代][奈良時代][平安時代][中世][近世]［近代］","集落 その他（軍施設）","[縄文時代]土坑　小穴　炉穴　陥穴　[弥生時代〜古墳時代]竪穴住居跡　堀立柱建物跡　土坑　小穴　[平安時代]火葬墓　溝　[近世]溝　土坑　小穴　［近代］煉瓦構造物","縄文土器　剥片　打製石斧　石鏃　スタンプ形石器　磨石　石皿　弥生土器　弥生時代末〜古墳時代初期土器　金属製品　土製品　奈良時代須恵器　平安時代土器　瓦　板状鉄製品　中近世陶磁器　釘　鎹　銭貨　近代陶磁器　ガラス製品　金属製品　銭貨　?　煉瓦",139.6875316,35.65337917,TRUE
13110000800,13110,"8","ひがしやまかいづかいせき","東山貝塚遺跡","目黒区 東山二丁目　東山三丁目","[旧石器時代][縄文時代（早期〜晩期）][弥生時代（後期）][古墳時代][平安時代][中世][近世][近代]","集落　貝塚　その他（軍施設）","[旧石器時代]礫群　石器ブロック　[縄文時代]竪穴住居跡　土坑　土壙　土器埋設遺構　落し穴　木杭列　植物遺存体集中　小穴　柱穴群　[弥生時代]竪穴住居跡　溝　土坑　[古墳時代]土坑　[中世]溝　[近世]溝　土坑　［近代］地下式遺構　煉瓦構造物　溝","縄文土器　土偶　土製円盤　土器片錘　打製石斧　磨製石斧　弥生土器　古墳時代土器　陶磁器　細石刃　尖頭器　剥片　角錐状石器　削器　石鏃　敲石　石皿　垂飾　掻器　凹石　磨石　砥石　スタンプ形石器　石剣　石錐　石棒　土版　土製勾玉　耳栓　土錘　土玉　弭形角製品　ヤス状刺突具　骨針　浮子 （平安時代）　瓦　（近代）陶磁器　ガラス製品　鉄製品",139.6866739,35.64782322,TRUE
13110001500,13110,"15","なかめぐろいせき","中目黒遺跡","目黒区 中目黒四丁目　中目黒五丁目　目黒三丁目","[旧石器時代][縄文時代（早期〜後期）][中世][近世]","集落","[旧石器時代]礫群　石器群　石器ブロック　[縄文時代]住居　土坑[近世]溝状遺構　畝状遺構　落とし穴状遺構","ナイフ形石器　尖頭器　角錐状石器　掻器　剥片　縄文土器　打斧　礫器　石鏃　石槌　石皿　スタンプ形石器　敲石　煙管　磨石　火打石　土器片錘　陶磁器　土製円盤　瓦　石刃　凹石　磨製石斧",139.7015397,35.63607692,TRUE
13110002900,13110,"29","みなみいせき","南遺跡","目黒区 南三丁目","[縄文時代（早期・中期〜後期）][平安時代][中世][近世]","集落","[縄文時代]住居　炉穴　土坑　小穴","[縄文時代]縄文土器　打製石斧　石鏃　石槌　石棒　磨製石斧　抉入磨石　土製円盤　[平安時代]須恵器　土師器　[中世]土師質土器　[近世]陶器",139.6873992,35.61210641,TRUE
13110003300,13110,"33","とうこうじうらやまいせき","東光寺裏山遺跡","目黒区 八雲一丁目","[旧石器時代][縄文時代（草創期〜後期）][平安時代][中世][近世]","集落","[縄文時代]土坑　落とし穴　焼土　[平安時代]住居　火葬墓　[中世][近世]土坑　溝　井戸　道路状遺構","縄文土器　打斧　石鏃　石皿　土師器　須恵器　カワラケ　板碑　陶磁器　煙管　銭貨　瓦質陶製印板　尖頭器　ナイフ形石器　掻器　剥片　スタンプ形石器　磨石　敲石",139.6726427,35.62084051,TRUE
13110004500,13110,"45","ひもんやとのやまいせき","碑文谷殿山遺跡","目黒区 碑文谷五丁目","[中世]","城館","","",139.682451,35.62276607,TRUE
13110004600,13110,"46","でんめぐろしやかたあといせき","伝目黒氏館跡遺跡","目黒区 中目黒一丁目","[中世]","城館","","",139.7028444,35.64531228,TRUE
13110004700,13110,"47","おおはしいせき","大橋遺跡","目黒区 大橋二丁目","[旧石器時代][縄文時代（草創期〜晩期）][弥生時代（後期）][古墳時代][平安時代][中世][近世][近代]","集落　その他（軍施設）","[旧石器時代]石器集中　礫集中部　[縄文時代]住居　集石　炉穴　土坑　小穴　埋甕　土器敷き遺構　[弥生時代][古墳時代]住居　[平安時代]火葬墓　[中世]土坑　[近世]溝　小穴　[近代]煉瓦構造物","ナイフ形石器　角錐状石器　剥片　礫器　縄文土器　打斧　磨斧　耳栓　有舌尖頭器　石鏃　掻器　石匙　石皿　石棒　磨石　敲石　土製円盤　けつ状耳飾　土偶　弥生土器　陶磁器　銭貨　彫刻刀形石器　管状土錘　土師器　中世土器　瓦　（近世）陶磁器　金属製品　銭貨　(近代)陶磁器　金属製品　ガラス製品　煉瓦",139.684373,35.65446715,TRUE
13110004900,13110,"49","えんゆうじいせき","円融寺遺跡","目黒区 碑文谷一丁目","[縄文時代（早期〜前期）][中世][近世]","包蔵地・社寺","掘立柱建物　井戸　土坑　溝状遺構　集石遺構　墓域関連遺構　小穴","縄文土器　石皿　磨石　打製石斧　剥片　陶磁器　土器　板碑　砥石　石臼　銅製仏飯具　煙管　錠前　銭貨",139.6898324,35.62014271,TRUE
13110005600,13110,"56","すげかりいせき","菅刈遺跡","目黒区 青葉台二丁目","[縄文時代（前期〜中期）][中世][近世][近代]","包蔵地・屋敷跡・その他（庭園）","[縄文時代]ピット　[中世]土坑　[近世]溝状遺構　池　ピット　[近代]池跡　滝跡　屋敷跡","縄文土器　打斧　陶磁器　せっ器　[近代]木製品",139.6939523,35.65030619,TRUE
13110005900,13110,"59","ほりのうちいせき","堀ノ内遺跡","目黒区 目黒本町二丁目　碑文谷二丁目","[中世][近世]","包蔵地","[近世]土坑　溝状遺構","土器　陶器　磁器",139.6893861,35.62388237,TRUE
13110006100,13110,"61","しもめぐろきたいせき","下目黒北遺跡","目黒区 下目黒五丁目","[縄文時代]　[中世]　[近世]","包蔵地","[縄文時代]小穴　[近世]溝","陶器　磁器　土器",139.7016427,35.62991011,TRUE
13111002900,13111,"29","とうこういんうらいせき","東光院裏遺跡","大田区 田園調布本町","[中世]","包蔵地・その他（板碑出土地）","","板碑",139.6732746,35.58384688,TRUE
13111003300,13111,"33","はいづか","灰塚","大田区 千鳥町三丁目","[中世]","墳墓","","板碑",139.6872485,35.57255659,TRUE
13111006902,13111,"69-2","おおもり・さんのうかまくらかいどうしもつみちかんれんいせき","大森・山王鎌倉街道下ッ道関連遺跡","大田区 山王一丁目","[中世]","その他（道路跡）","[中世]道路遺構　溝状遺構","須恵器　かわらけ　土錘　擂鉢　銭貨　磁器",139.7288048,35.59189863,TRUE
13111007000,13111,"70","くまのじんじゃまえかいづか・あらいじゅくじょうあと","熊野神社前貝塚・新井宿城跡","大田区 山王三丁目","[奈良時代][平安時代][中世]","貝塚・城館","","土師器　須恵器　獣骨",139.721874,35.58434285,TRUE
13111008100,13111,"81","くがはらいせき","久ヶ原遺跡","大田区 久が原四丁目　 久が原五丁目　 久が原六丁目　 千鳥一丁目","[弥生時代（中期〜後期）][古墳時代][中世]","集落","竪穴住居跡","弥生土器　縄文土器　磨斧　軽石製品　土錘　勾玉　獣骨　土師器",139.6939146,35.57641986,TRUE
13111009001,13111,"90-1","こうみょうじいせき","光明寺遺跡","大田区 鵜の木一丁目","[旧石器時代][縄文時代（早期）][弥生時代][古墳時代][奈良時代][中世][近世]","集落・その他（墓地）","[旧石器時代]石器集中　礫群　[縄文時代]陥し穴　[弥生時代]住居　方形周溝墓　[中世][近世]竪穴状遺構　墓地　集石土坑　集石","石器　礫　縄文土器　弥生土器　陶磁器　蔵骨器　板碑",139.684314,35.57385397,TRUE
13111010600,13111,"106","おおもりみなみこふん","大森南古墳","大田区 大森南一丁目","[古墳時代][中世]","古墳？塚？","円墳","",139.7383679,35.56248294,TRUE
13111010700,13111,"107","はちまんづか","八幡塚","大田区 東六郷三丁目","[中世]","塚","","蔵骨器（常滑壺）",139.7135058,35.54401727,TRUE
13111011300,13111,"113","てらくぼいせき","寺窪遺跡","大田区 池上一丁目","[中世]","包蔵地・その他（草庵跡）","","石造宝塔",139.7063686,35.57707194,TRUE
13111011400,13111,"114","ほんじょういんうらいせき","本成院裏遺跡","大田区 池上一丁目","[中世]","包蔵地・その他（板碑出土地）","","板碑",139.7044589,35.57644365,TRUE
13111011500,13111,"115","ほんもんじれきだいぼしょふきんいせき","本門寺歴代墓所付近遺跡","大田区 池上二丁目","[中世]","包蔵地・その他（板碑出土地）","","板碑",139.7040512,35.58080663,TRUE
13111011700,13111,"117","かじわらづか","梶原塚","大田区 中馬込三丁目","[中世]","墳墓","","",139.7098304,35.59407108,TRUE
13111012000,13111,"120","なかいけがみいっちょうめ10ばんよこあなぼ","仲池上一丁目10番横穴墓","大田区 仲池上一丁目","[中世？]","横穴墓","","人骨",139.7008917,35.58685135,TRUE
13111012100,13111,"121","でんえんちょうふよんちょうめ12ばんよこあなぼ","田園調布四丁目12番横穴墓","大田区 田園調布四丁目","[中世]","地下式横穴","","人骨",139.6626147,35.59356136,TRUE
13111012700,13111,"127","いけがみしやかたあと","池上氏館跡","大田区 池上二丁目","[中世]","居館跡","","",139.703487,35.58029991,TRUE
13111012800,13111,"128","まごめじょうあと","馬込城跡","大田区 南馬込五丁目","[中世]","城館","","",139.7095363,35.58952412,TRUE
13111012900,13111,"129","おおもりほりのうちいせき","大森堀ノ内遺跡","大田区 大森中三丁目","[中世]","居館跡","","",139.7330972,35.56494478,TRUE
13111013000,13111,"130","なめかたしやかたあと","行方氏館跡","大田区 蒲田二丁目　 蒲田三丁目","[中世]","城館","","",139.7239992,35.56503206,TRUE
13111013100,13111,"131","はちまんづかなめかたしやかたあと","八幡塚行方氏館跡","大田区 東六郷三丁目","[中世]","城館","","",139.7129699,35.54410093,TRUE
13111013900,13111,"139","さいとうしやしきあと","斎藤氏屋敷跡","大田区 蒲田四丁目","[中世]","居館跡","","",139.7224016,35.56050941,TRUE
13111014000,13111,"140","まんぷくじいせき","万福寺遺跡","大田区 南馬込一丁目","[中世]","包蔵地・その他（板碑出土地）","","板碑",139.7134845,35.59031662,TRUE
13111014800,13111,"148","みわいつくしまじんじゃづか","三輪厳島神社塚","大田区 大森東四丁目","[中世]","墳墓","","陶器（常滑壷）　カワラケ　土師質土器　擂鉢　土錘　瓦　板碑　銭貨",139.7364313,35.56703332,TRUE
13111015300,13111,"153","ちょうおんじいせき","長遠寺遺跡","大田区 南馬込五丁目","[中世]","包蔵地・その他（板碑出土地）","","板碑",139.7094886,35.59103109,TRUE
13111016200,13111,"162","さんぼんまつづか","三本松塚","大田区 北馬込二丁目","[中世]","その他（塚）","","",139.7107203,35.59649433,TRUE
13111016300,13111,"163","にったよしおきづか","新田義興塚","大田区 矢口一丁目","[中世]","墳墓・その他（塚）","","刀子　刀　懸神",139.6906627,35.56506429,TRUE
13111016400,13111,"164","かなやまじんじゃづか","金山神社塚","大田区 大森西二丁目","[中世]","その他（塚）","","",139.7301142,35.57581576,TRUE
13111016500,13111,"165","おおざくらおおつか","大桜大塚","大田区 南久が原二丁目","[中世]","その他（塚）","","土器　板碑",139.6860204,35.57527545,TRUE
13111017000,13111,"170","さんのうづか","山王塚","大田区 山王一丁目","[中世]","塚","[中世]溝","陶器",139.7212286,35.59318545,TRUE
13111017200,13111,"172","いけがみにちょうめ1ばんいせき","池上二丁目1番遺跡","大田区 池上二丁目","[縄文時代（前期）][中世][近世]","包蔵地","[縄文時代]炉穴　[近世]供養塔　石組　石畳","縄文土器　カワラケ　蔵骨器　甕棺　板碑　石塔　経石",139.7038385,35.58116395,TRUE
13111018200,13111,"182","きねんじづか","祈念寺塚","大田区 大森北一丁目","[中世]","墳墓","","",139.7292311,35.58552474,TRUE
13111018300,13111,"183","うちかわこうちかいづか","内川耕地貝塚","大田区 大森北六丁目","[中世]","貝塚","","",139.7336619,35.57917748,TRUE
13111018700,13111,"187","みょうれんづか","妙蓮塚","大田区 下丸子二丁目","[中世]","墳墓","","",139.6860345,35.56790833,TRUE
13111018900,13111,"189","かまたやしきあと","鎌田屋敷跡","大田区 東矢口二丁目","[中世]","屋敷","","",139.7018703,35.56481887,TRUE
13111019000,13111,"190","やまぶしぎいせき","山伏木遺跡","大田区 東矢口二丁目","[中世]","包蔵地","","",139.7005613,35.56464432,TRUE
13111019100,13111,"191","じゅっきみょうじんづか","十騎明神塚","大田区 矢口二丁目","[中世]","墳墓","","",139.6917637,35.56295117,TRUE
13111019900,13111,"199","みょうでんじいせき","妙典寺遺跡","大田区 蒲田二丁目","[中世]","包蔵地・その他（板碑出土地）","","",139.7247515,35.5674357,TRUE
13111020800,13111,"208","にしろくごういっちょうめ22ばんかいづか","西六郷一丁目22番貝塚","大田区 西六郷一丁目","[奈良時代][平安時代][中世]","貝塚","","",139.7065417,35.55395887,TRUE
13111022200,13111,"222","もりにゅうどうづか","森入道塚","大田区 南六郷二丁目","[中世]","墳墓","","",139.7212147,35.54592805,TRUE
13111022600,13111,"226","うめだいせき","梅田遺跡","大田区 南馬込六丁目","[平安時代][中世]","墳墓","地下式坑","人骨（1体）",139.7058846,35.58289697,TRUE
13112000300,13112,"3","そしがやおおみちきたいせき","祖師谷大道北遺跡","世田谷区 上祖師谷六丁目　上祖師谷七丁目　給田一丁目","[旧石器時代][縄文時代（中期〜後期）][弥生時代（後期）][古墳時代][奈良時代][平安時代][中世][近世]","集落","[旧石器時代]ブロック　[縄文時代]住居　竪穴　[古墳時代]住居　[中世][近世]井戸　地下式土坑　[時期不明]ピット　溝","ナイフ形石器　削器　縄文土器　石器　土師器　鉄鏃　陶器　カワラケ　土師質土器　羽釜　内耳鍋　鉄片　石臼　板碑　漆器　桶",139.596436,35.659981,TRUE
13112000600,13112,"6","とうがくいんいせき","東覚院遺跡","世田谷区 千歳台四丁目　 千歳台五丁目","[中世][近世]","包蔵地","[中世]地下式土壙","朱塗土器　板碑",139.6124427,35.65667294,TRUE
13112000700,13112,"7","つりがねいけきたいせき","釣鐘池北遺跡","世田谷区 上祖師谷三丁目　 祖師谷六丁目","[縄文時代（早期〜晩期）][平安時代][中世][近世]","集落","[縄文時代]住居　集石土坑　土坑　ピット　[平安時代][中世][近世]竪穴　ピット　土坑　溝　炭窯","縄文土器　打斧　磨斧　石鏃　土製円板　大珠　土師器　須恵器　土師質土器　陶磁器　カワラケ　銭貨",139.6035377,35.65423201,TRUE
13112001800,13112,"18","しものしんめいいせき","下神明遺跡","世田谷区 成城一丁目　成城三丁目","[旧石器時代][縄文時代（早期・中期〜後期）][弥生時代][古墳時代][奈良時代][平安時代][中世][近世]","集落","[旧石器時代]ブロック　ブロック　礫群　[縄文時代]土坑　ピット　土坑　[古墳時代]住居址　[平安時代]住居址　[近世]溝　土坑　ピット　溝","（旧石器）石器・剥片　（縄文）縄文土器・石器　（古墳）土師器・石器　（平安）土師器・須恵器・砥石　（近世）煙管",139.5990011,35.63509307,TRUE
13112001900,13112,"19","かみのしんめいいせき","上神明遺跡","世田谷区 成城四丁目　 成城五丁目","[旧石器時代][縄文時代（早期〜晩期）][弥生時代][古墳時代][平安時代][中世][近世]","集落","[縄文時代]住居　土坑　[弥生時代][古墳時代]住居　ピット群　方形周溝墓","石器　縄文土器　弥生土器　土師器　須恵器　鉄製品　土製品",139.5923661,35.6414265,TRUE
13112002900,13112,"29","なかのだいせき","中野田遺跡","世田谷区 喜多見八丁目　 喜多見九丁目","[縄文時代（早期〜中期）][古墳時代][奈良時代][平安時代][中世][近世]","集落","[古墳時代]住居　ピット　溝　[奈良時代]掘立柱建物　[平安時代]住居　[中世]竪穴遺構　井戸　土坑　[近世]ピット　土坑　溝","縄文土器　石器　弥生土器　土師器　須恵器　カワラケ　瓦質土器　陶磁器　鉄製品　青銅製品　煙管　木竹製品　板碑　銭貨　枕石　灰釉陶器　土錘　鉱滓",139.5907257,35.63643646,TRUE
13112003000,13112,"30","おおくら","大蔵遺跡","世田谷区 大蔵三丁目　 砧五丁目　 砧七丁目","[縄文時代（早期〜後期）][弥生時代（後期）][古墳時代][奈良時代][平安時代][中世][近世]","集落","[縄文時代]住居址　小竪穴　土坑　配石　[弥生時代][古墳時代]住居址　溝　[時期不明]溝状遺構","縄文土器　石器　土偶　土師器　須恵器　陶磁器　土製品　ガラス製品",139.608383,35.633945,TRUE
13112003700,13112,"37","とのやまいせき・おおくらやかたあと","殿山遺跡・大蔵館跡","世田谷区 大蔵五丁目　 大蔵六丁目","[縄文時代（中期）][弥生時代][古墳時代][中世]","集落　城跡","[縄文時代]落し穴　土坑　ピット　[古墳時代]土坑　ピット　[近世]地下式坑　ピット","",139.6083733,35.62732583,TRUE
13112003800,13112,"38","かまたいせき","鎌田遺跡","世田谷区 鎌田三丁目　 鎌田四丁目","[縄文時代（前期）] [古墳時代][奈良時代][平安時代][中世][近世]","集落","","土師器　須恵器　カワラケ　陶磁器　瓦",139.6130779,35.62209475,TRUE
13112004700,13112,"47","きぬたおおつか","砧大塚","世田谷区 砧公園一丁目","[中世]","その他（塚）","移築保存","陶器　カワラケ　銭貨",139.6230367,35.62835449,TRUE
13112004800,13112,"48","うえのだいいせき","上之台遺跡","世田谷区 砧八丁目　 祖師谷三丁目","[旧石器時代][縄文時代（早期〜中期）][弥生時代（後期）][古墳時代][奈良時代][中世]","集落","[縄文時代]住居　集石　集石土坑　土坑　[古墳時代]住居　[時期不明]溝　段状遺溝","石器　縄文土器　石器　焼礫　弥生土器　土師器　須恵器　鉄鏃　鉄製品　青銅製品　泥人形",139.6035552,35.64107284,TRUE
13112005200,13112,"52","どうがやといせき","堂ヶ谷戸遺跡","世田谷区 岡本一丁目　 岡本二丁目　 岡本三丁目","[旧石器時代][縄文時代（早期〜晩期）][弥生時代（後期）][古墳時代][奈良時代][平安時代][中世][近世]","集落","[縄文時代]住居　集石　集石土坑　土坑　ピット　[弥生時代][古墳時代][奈良時代][平安時代]住居　竪穴　[近世]溝","石器　縄文土器　弥生土器　土製品　土師器　須恵器　鉄製品　銅鏃　玉類　陶磁器　砥石　煙管",139.6176809,35.62386155,TRUE
13112005300,13112,"53","はちまんやまいせき","八幡山遺跡","世田谷区 八幡山一丁目　 八幡山二丁目","[縄文時代（早期〜後期）][中世][近世]","集落","[縄文時代]住居　[近世]竪穴　井戸　炭窯","縄文土器　石器　石皿　台石　砥石　土錘　陶器　瓦　砥石　石臼　鉄製品",139.6190615,35.66066027,TRUE
13112005800,13112,"58","むかいやまいせき","向山遺跡","世田谷区 桜上水三丁目","[旧石器時代][縄文時代（中期）][中世][近世]","集落","[縄文時代]住居　竪穴　土坑　ピット　[中世]井戸　溝","",139.6340721,35.66073805,TRUE
13112008000,13112,"80","しんぱちやまががわいせき","新八山賀川遺跡","世田谷区 桜上水五丁目","[中世]","包蔵地","","板碑",139.6273,35.66404,TRUE
13112008500,13112,"85","たもんやまいせき・みしゅくじょうあと","多聞山遺跡・三宿城跡","世田谷区 三宿二丁目","[縄文時代（早期〜後期）][古墳時代][中世][近世]","集落 城館","[縄文時代]炉 土坑 [古墳時代]住居 [中世]溝","縄文土器 石器 土師器 炭化物",139.6755,35.65216,TRUE
13112008800,13112,"88","せたがやじょうせき","世田谷城跡","世田谷区 豪徳寺二丁目 梅丘二丁目","[中世]","城館","※遺跡範囲のすべてが、東京都指定旧跡世田谷城跡となっています。","陶器 板碑",139.6476,35.64749,TRUE
13112010500,13112,"105","せたいせき・せたじょうせき","瀬田遺跡・瀬田城跡","世田谷区 瀬田一丁目 瀬田二丁目","[旧石器時代][縄文時代（早期〜後期）][弥生時代（後期）][古墳時代][奈良時代][平安時代][中世][近世]","集落・城館","[旧石器時代]ブロック 礫群 [縄文時代]住居 土坑 ピット [弥生時代〜古墳時代]住居 [奈良〜平安時代]住居 [近世]ピット 土坑 井戸 溝 配石","石器 縄文土器 石器 礫 けつ状耳飾 弥生土器 土師器 須恵器 陶器 灰釉陶器 土製品 陶磁器",139.6318,35.61599,TRUE
13112010700,13112,"107","しもやまいせき","下山遺跡","世田谷区 瀬田四丁目 瀬田五丁目","[旧石器時代][縄文時代（早期〜晩期）][弥生時代（後期）][古墳時代][奈良時代][平安時代][中世][近世]","集落","[旧石器時代]ブロック 礫群 [縄文時代]住居 集石 炉穴 土坑 ピット [弥生時代]環濠 住居 方形周溝墓 墓壙 甕棺 溝状遺構 [古墳時代]住居 円形周溝墓 [奈良時代][平安時代]住居","ナイフ形石器 尖頭器 礫器 縄文土器 打斧 石鏃 土錘 けつ状耳飾 弥生土器 抉入石斧 石包丁 石皿 土師器 須恵器 土製紡錘車 土製勾玉 ソロバン玉状土製品 石櫃 陶磁器 カワラケ 瓦質土器 煙管 銭貨",139.6244,35.62158,TRUE
13112011100,13112,"111","しょうげんづか（にしおか2ごうふん）","将監塚（西岡2号墳）","世田谷区 瀬田四丁目","[中世][近世]","塚","","",139.6283,35.61972,TRUE
13112011200,13112,"112","しもやまきたいせき","下山北遺跡","世田谷区 岡本一丁目","[旧石器時代][縄文時代（早期〜前期）][弥生時代][古墳時代][中世][近世]","集落","[旧石器時代]ブロック [縄文時代]住居 集石 土坑 [弥生時代]住居 溝 [古墳時代]住居 [中世]掘立柱建物 井戸 [近世]建物 門","石器 縄文土器 石器 弥生土器 土師器 ガラス玉",139.6227,35.62252,TRUE
13112011700,13112,"117","かまがやいせき","鎌ヶ谷遺跡","世田谷区 瀬田一丁目","[旧石器時代][縄文時代（早期〜中期）][弥生時代（後期）][古墳時代][奈良時代][平安時代][中世][近世]","集落","[旧石器時代]ブロック 礫群 [縄文時代]土坑 ピット [弥生時代][古墳時代]V字溝 溝状遺構","縄文土器 石器 弥生土器 土師器 須恵器 陶器",139.6336,35.6134,TRUE
13112012100,13112,"121","やがわうえいせき","谷川上遺跡","世田谷区 野毛一丁目","[旧石器時代][縄文時代（中期）][古墳時代][中世][近世]","集落","[縄文時代]住居 ピット [中世][近世]竪穴土坑 溝","縄文土器 石器 土師器 陶磁器",139.6451,35.60425,TRUE
13112012300,13112,"123","しものげいせき","下野毛遺跡","世田谷区 野毛一丁目 野毛二丁目","[旧石器時代][縄文時代（早期〜後期）][中世][近世]","集落","[縄文時代]住居 集石 炉 土坑","縄文土器 石器 剥片 礫 陶器",139.6424,35.60424,TRUE
13112013100,13112,"131","にしおか3ごうふん","西岡3号墳","世田谷区 等々力三丁目","[中世]","その他（塚）","","鉄鏃 鉄刀 仏像",139.6475,35.61235,TRUE
13112013800,13112,"138","はちまんづか（にしおか14ごうふん・しんめいづか）こふん","八幡塚(西岡14号墳・神明塚)古墳","世田谷区 尾山台二丁目","[古墳時代][中世]","古墳","円墳","土師器 ヤリガンナ <U+9299>帯金具 刀身 石製模造品 銅鏡 直刀 鉄槍 鉄鏃 ガラス小玉",139.6552,35.60042,TRUE
13112014300,13112,"143","すわやまいせき","諏訪山遺跡","世田谷区 奥沢一丁目 奥沢三丁目","[旧石器時代][縄文時代（早期〜後期）][弥生時代（後期）][平安時代][中世][近世]","集落","[縄文時代]住居 竪穴 集石 集石土坑 焼土 土坑 ピット [平安時代]土坑 火葬墓 [中世]焼土 溝 [近世]溝","縄文土器 石器 土錘 耳栓 土製品 礫 土師器 須恵器 土師質土器 陶器 陶磁器 鉄板 人骨",139.6748,35.60334,TRUE
13112015900,13112,"159","きたみじんやいせき","喜多見陣屋遺跡","世田谷区 喜多見一丁目 喜多見三丁目 喜多見四丁目","[旧石器時代][縄文時代（早期〜晩期）][弥生時代（中期〜後期][古墳時代][奈良時代][平安時代][中世][近世]","集落","[旧石器時代]ブロック [縄文時代]住居 炉穴 土坑 [弥生時代]住居 溝 [古墳時代]住居 竪穴 方形周溝墓 周溝 棺 墓壙 [奈良〜平安時代]住居 地下式土坑 [中世〜近世]掘立柱建物 ピット 礎石 土坑 井戸 溝 堀 池","石器 縄文土器 弥生土器 土師器 須恵器 埴輪 臼玉 ガラス玉 灰釉 緑釉 陶磁器 土師質土器 鉄製品 鉄鏃 釘 茶臼 羽口 瓦 板碑 銭貨 胞衣容器 人骨 灰釉陶器 円筒埴輪 土製品 鉱滓",139.5966,35.6261,TRUE
13112016700,13112,"167","おくさわじょうあと","奥沢城跡","世田谷区 奥沢七丁目","[中世]","城館","※遺跡範囲のすべてが、世田谷区指定史跡奥沢城跡となっています。 [中世]空堀 土塁","縄文土器? 陶磁器",139.6609159,35.60826729,TRUE
13112016800,13112,"168","しものげねいせき","下野毛根遺跡","世田谷区 野毛一丁目 野毛二丁目","[縄文時代（前期〜後期）][古墳時代][中世][近世]","集落","[縄文時代]屋外炉 土坑 ピット [古墳時代]周溝 [中世][近世]土坑 溝","縄文土器 石器 土師器 埴輪 土師質土器 玉類（水晶製切子玉、ガラス製小玉） 人骨",139.6426511,35.6016517,TRUE
13112017900,13112,"179","せんたくじいせき","泉沢寺遺跡","世田谷区 南烏山二丁目 粕谷二丁目 粕谷四丁目","[中世][近世]","社寺","","板碑 陶器",139.6065982,35.66533359,TRUE
13112018500,13112,"185","ふなばしかんのんどうづか","船橋観音堂塚","世田谷区 船橋一丁目","[中世][近世]","塚","","",139.6227687,35.65138597,TRUE
13112018600,13112,"186","ながさかいせき","長坂遺跡","世田谷区 成城四丁目","[中世]","出土地","単独出土地","板碑",139.5895397,35.64444121,TRUE
13112018800,13112,"188","なかのしまいせき","中の島遺跡","世田谷区 成城四丁目","[縄文時代][古墳時代][中世]","集落","","縄文土器 土師器 陶磁器",139.589677,35.64137214,TRUE
13112019100,13112,"191","まえごうちいせき","前河内遺跡","世田谷区 喜多見一丁目 喜多見二丁目","[奈良時代][平安時代][中世]","包蔵地","","須恵器 板碑",139.5951198,35.62435062,TRUE
13112019200,13112,"192","おおがわらいせき","大河原遺跡","世田谷区 喜多見二丁目","[中世]","包蔵地","","",139.5921673,35.62019235,TRUE
13112019300,13112,"193","うなねかわはらいせき","宇奈根河原遺跡","世田谷区 宇奈根二丁目","[中世]","包蔵地","","板碑",139.5990337,35.61960627,TRUE
13112020700,13112,"207","ときわづか","常盤塚","世田谷区 上馬五丁目","[中世]","塚","※遺跡範囲のすべてが、世田谷区指定史跡常盤塚となっています。","鏡 くし",139.6587008,35.64156211,TRUE
13112020800,13112,"208","あみだまるいせき","阿弥陀丸遺跡","世田谷区 弦巻二丁目","[中世]","包蔵地","","甕 石櫃 板碑",139.6532077,35.63405636,TRUE
13112020900,13112,"209","せきやづか","関屋塚","世田谷区 桜新町一丁目","[中世][近世]","塚","","銭貨",139.6405734,35.62920097,TRUE
13112021000,13112,"210","ながさきづかいせき","長崎塚遺跡","世田谷区 桜新町一丁目","[中世][近世]","その他（塚）","","陶磁器",139.641466,35.62864286,TRUE
13112021200,13112,"212","せんぶづかいせき","千部塚遺跡","世田谷区 深沢五丁目","[中世][近世]","その他（塚）","","土師器",139.6508388,35.62021492,TRUE
13112021800,13112,"218","いなりざかいせき","稲荷坂遺跡","世田谷区 上野毛二丁目 上野毛三丁目","[中世]","包蔵地","","板碑",139.6357599,35.61034736,TRUE
13112022400,13112,"224","どうのさかいせき","堂の坂遺跡","世田谷区 尾山台一丁目 尾山台二丁目","[中世]","出土地","","板碑 人骨",139.6552733,35.59994465,TRUE
13112022700,13112,"227","おおひらとりであと","大平砦跡","世田谷区 奥沢一丁目 奥沢三丁目","[中世]","城館","","",139.677948,35.601883,TRUE
13112022800,13112,"228","ふかさわじょうあと","深沢城跡","世田谷区 中町二丁目 等々力三丁目 等々力八丁目","[中世]","城館","","",139.6476802,35.61371197,TRUE
13112023700,13112,"237","しものげはらいなりいせき","下野毛原稲荷遺跡","世田谷区 野毛一丁目","[中世]","単独出土地","","板碑",139.644508,35.60183593,TRUE
13112023800,13112,"238","はちまんやまいなりまえいせき","八幡山稲荷前遺跡","世田谷区 八幡山一丁目","[縄文時代（早期・中期）][中世][近世]","集落","[縄文時代]土坑 ピット [中世][近世]溝 井戸 土坑 ピット","縄文土器 石器 土製品 陶磁器 土師質土器 煙管 鉄製石 碁石",139.6197138,35.66181788,TRUE
13112023900,13112,"239","かねづか","カネ塚","世田谷区 南烏山二丁目","[中世][近世]","塚","","陶器 石碑",139.6082034,35.66783259,TRUE
13112024000,13112,"240","こがやいせき","児ヶ谷遺跡","世田谷区 八幡山三丁目","[中世][近世]","包蔵地","","土師器 陶磁器",139.6136568,35.66900123,TRUE
13112024300,13112,"243","ほしのづか","星野塚","世田谷区 船橋五丁目","[中世]","塚","","",139.6265406,35.65754063,TRUE
13112024500,13112,"245","いしいどづか","石井土塚","世田谷区 大蔵三丁目","[古墳時代][奈良時代][平安時代][中世][近世]","塚？","方墳","",139.6073487,35.63401113,TRUE
13112024700,13112,"247","しものだいせき","下野田遺跡","世田谷区 喜多見五丁目 喜多見六丁目 喜多見七丁目","[旧石器時代][縄文時代（早期～晩期）][古墳時代][奈良時代][平安時代][中世][近世]","包蔵地・集落","[旧石器時代]遺物集中箇所[縄文時代]落し穴　ピット　集石[古墳時代]住居　竪穴　土坑　溝　ピット[古代]住居　土坑　ピット[中世]溝　井戸　集石[近世]溝","旧石器　縄文土器　石器(石槍)　土師器　鉄製品　石製品　古銭　陶磁器",139.601044,35.63098942,TRUE
13112024800,13112,"248","おかもとはらいせき","岡本原遺跡","世田谷区 岡本一丁目","[縄文時代（早期〜中期）][古墳時代][中世][近世]","包蔵地","[古墳時代]溝","縄文土器 土師器 紡錘車 陶磁器",139.620332,35.62631979,TRUE
13112024900,13112,"249","せたうえはらいせき","瀬田上原遺跡","世田谷区 瀬田五丁目","[奈良時代][平安時代][中世]","包蔵地","","土師器 須恵器 カワラケ",139.6246306,35.62443671,TRUE
13112026400,13112,"264","きたみしみずいせき","喜多見清水遺跡","世田谷区 喜多見五丁目","[縄文時代（早期・中期〜後期）][古墳時代][奈良時代][平安時代][中世][近世]","集落","[奈良時代][平安時代]住居 [中世][近世]土坑 地下式土坑 井戸 溝","縄文土器 土師器 須恵器 土師質土器 陶磁器 石臼 鉄製品",139.6029495,35.62791983,TRUE
13112026500,13112,"265","しものだやまいせき","下野田山遺跡","世田谷区 喜多見六丁目","[旧石器時代][古墳時代][奈良時代][平安時代][中世][近世]","集落","[旧石器時代]ブロック","石器 焼礫 土師器 陶器 カワラケ",139.6039245,35.6300624,TRUE
13112027800,13112,"278","からすやまじょう（とりで）せき・からすやまみなみはらいせき","烏山城(砦)跡・烏山南原遺跡","世田谷区 南烏山一丁目 南烏山二丁目","[旧石器時代][縄文時代（中期）][中世][近世]","集落・城館","[旧石器時代]ブロック 礫群 [近世]溝状遺構 [時期不明]溝","石器 焼礫 縄文土器 陶磁器",139.6085982,35.6676234,TRUE
13112028000,13112,"280","きたみなかどおりいせき","喜多見中通遺跡","世田谷区 喜多見七丁目","[縄文時代（中期〜晩期）][古墳時代][奈良時代][平安時代][中世][近世]","集落","","土師器",139.5953277,35.63203595,TRUE
13112028100,13112,"281","たなおしいせき","田直遺跡","世田谷区 大蔵五丁目","[旧石器時代][縄文時代(早期〜後期)][奈良時代][平安時代][中世][近世]","集落","[旧石器時代]ブロック [縄文時代]住居址 土坑 炉穴 集石 ピット 配石 遺物集中部 土器埋設土坑 [古代以降]溝 土坑 ピット [中世以降]土坑 [近世以降]段切り ピット","[旧石器時代]石器 [縄文時代]土器 石器 土製品 石製品（装飾品） [古代以降]土師器 須恵器 [中世以降]陶磁器 [近世以降]陶磁器",139.6064007,35.62882062,TRUE
13112028200,13112,"282","しもそしがやまえいせき","下祖師谷前遺跡","世田谷区 成城九丁目","[中世]","包蔵地","","土師質土器",139.5975293,35.65114471,TRUE
13112028500,13112,"285","うなねほんむらいせき","宇奈根本村遺跡","世田谷区 宇奈根二丁目","[古墳時代][奈良時代][平安時代][中世][近世]","包蔵地","","土師器 陶磁器",139.6021049,35.62118808,TRUE
13112028800,13112,"288","おかもとまえこうちいせき","岡本前耕地遺跡","世田谷区 岡本二丁目","[縄文時代（早期〜晩期）][弥生時代][古墳時代][奈良時代][平安時代][中世][近世]","集落","[縄文時代]集石 杭列 [近世]溝","縄文土器 石器 土製品 石製品 木製品 浮子 弥生土器 土師器 須恵器 灰釉 陶磁器",139.6192162,35.62029178,TRUE
13112029600,13112,"296","とどろきはらいせき","等々力原遺跡","世田谷区 等々力一丁目","[旧石器時代][縄文時代（早期〜後期）][弥生時代（後期）][古墳時代][中世][近世]","集落","[縄文時代]住居 土坑 [弥生時代]住居","石器 縄文土器 石器 弥生土器 陶磁器 銭貨",139.6479353,35.60406427,TRUE
13112029700,13112,"297","とどろきねいせき","等々力根遺跡","世田谷区 等々力一丁目","[旧石器時代][縄文時代（早期〜後期）][古墳時代][中世][近世]","集落","","縄文土器 石器 土製品 陶磁器 銭貨 鉄製品 土錘 砥石 瓦 土師質土器 硯 礫 埴輪 須恵器 金属製品 ガラス製品",139.6479182,35.60188694,TRUE
13112032600,13112,"326","まるやまひがしいせき","丸山東遺跡","世田谷区 深沢五丁目","[縄文時代][中世][近世]","包蔵地","","",139.6481265,35.61929394,TRUE
13113006600,13113,"66","しぶやじょう","渋谷城","渋谷区 渋谷三丁目","[中世]","城館","[中世]空堀　土塁","",139.7065244,35.65755713,TRUE
13113009600,13113,"96","はちやまちょう・さるがくちょう17ばんいせき","鉢山町・猿楽町17番遺跡","渋谷区 鉢山町　 猿楽町","[旧石器時代][縄文時代][弥生時代][中世][近世]","集落","[旧石器時代]土坑　[縄文時代]住居　土坑　[弥生時代]環濠　住居　土坑　[中世]溝　[近世]掘立柱建物　溝","掻器　剥片　縄文土器　打斧　石鏃　削器　弥生土器　陶磁器",139.6984231,35.65017962,TRUE
13114004400,13114,"44","かたやまいせき","片山遺跡","中野区 松が丘二丁目","[縄文時代（早期・後期）][弥生時代][中世][近世]","集落","[弥生時代][古墳時代]竪穴住居跡　土坑　溝状遺構","縄文土器　打製石斧　磨製石斧　礫器　石鏃　砥石　弥生土器",139.6697081,35.72252846,TRUE
13114009600,13114,"96","なかのちょうじゃやしき","中野長者屋敷","中野区 本町二丁目","[中世]","城館","","",139.6817144,35.69361796,TRUE
13114009900,13114,"99","まつがおかいせき","松が丘遺跡","中野区 松が丘一丁目","[縄文時代（早期〜後期）][中世][近世]","集落跡","[縄文時代]住居?　土坑　[近世]土坑　溝","縄文土器　打斧　石鏃　石槍　礫器　石皿　磨石　敲石　削器　土錘　土製円板　弥生土器　土師器　管状土錘　陶磁器　砥石　土製品　くし　煙管　銭貨",139.673313,35.72110693,TRUE
13115004700,13115,"47","やくらだいみなみいせき","矢倉台南遺跡","杉並区 成田西四丁目　 荻窪一丁目","[縄文時代（草創期〜後期）][弥生時代][古墳時代][中世]","集落","[古墳時代]住居　[縄文時代]住居跡　[中世]溝状遺構","縄文土器　打斧　石鏃　石匙　石皿　弥生土器　土錘　土師器　有舌尖頭器　翡翠製石製品　須恵器　陶器　礫石器",139.626538,35.69360999,TRUE
13115006300,13115,"63","むこうやまいせき","向山遺跡","杉並区 堀ノ内二丁目","[縄文時代（中期）][平安時代][中世][近世]","集落跡","[古墳時代]住居　[平安時代]住居　[近世]竪穴状遺構　柱穴列　溝状遺構","縄文土器　土師器　須恵器　支脚　紡錘車　陶器　カワラケ　板碑　陶磁器　抜型　人形　泥面子　土笛　ままごと道具",139.6521597,35.68565187,TRUE
13115007200,13115,"72","ほんじんやまいせき","本陣山遺跡","杉並区 堀ノ内二丁目　和田二丁目","[縄文時代（早期〜中期）][弥生時代（後期）][古墳時代][中世][近世]","集落","[縄文時代]炉穴　集石　土坑　ピット　[弥生時代]住居跡　[中世][近世]掘立柱建物","（旧石器）敲石　剥片類　（縄文）土器　土製円板　（弥生）土器　ガラス小玉　（古墳時代以降）土師器　砥石　鉄環　カワラケ　陶磁器　鉄器など",139.653824,35.685158,TRUE
13115007600,13115,"76","むかいのはらいせき","向ノ原遺跡","杉並区 久我山二丁目","[旧石器時代][縄文時代（早期〜中期）][中世][近世][近代]","集落","[旧石器時代]ユニット　礫群　[縄文時代]集石　炉穴　土坑","ナイフ形石器　尖頭器　角錐状石器　台形様石器　掻器　彫器　縄文土器　打斧　磨斧　局部磨斧　礫器　石槍　石鏃　掻器　彫器　石錘　石皿　磨石　スタンプ形石器　石核",139.6043231,35.68376139,TRUE
13115007800,13115,"78","なかふくろ（やまなか）いせき","中袋（山中）遺跡","杉並区 高井戸西一丁目","[縄文時代（中期〜晩期）][古墳時代][中世]","集落","[縄文時代]住居跡　土坑　[古墳時代]住居跡　[中世]地下式土坑","縄文土器　石斧　石鏃　石製品　土製品　土師器",139.6136958,35.68203241,TRUE
13115008300,13115,"83","じゃばみいせき","蛇場美遺跡","杉並区 下高戸三丁目","[旧石器時代][縄文時代（草創期〜後期）][中世][近世]","包蔵地","[縄文時代]炉穴　[中世][近世]溝状遺構","ナイフ形石器　角錐状石器　台形様石器　縄文土器　打斧　礫器　石槍　石鏃　掻器　削器　楔形石器　磨石　スタンプ形石器　抉入磨石　敲石　石盤　陶磁器　カワラケ",139.6348998,35.67259893,TRUE
13115011000,13115,"110","たかいどひがしいせき","高井戸東遺跡","杉並区 高井戸西二丁目　 高井戸東三丁目","[旧石器時代][縄文時代（草創期〜後期）][古墳時代][中世][近世]","集落","[旧石器時代]ブロック　[縄文時代]陥し穴　[古墳時代]住居　[中世]地下式坑　段切り状遺構　土坑　ピット　溝状遺構","ナイフ形石器　台形石器　スクレイパー　局部磨製石斧　敲石　石棒　剥片　縄文土器　弥生土器　土師器　須恵器　陶器　瓦質土器　瓦",139.6161334,35.68459797,TRUE
13115012400,13115,"124","まつのききたいせき","松ノ木北遺跡","杉並区 松ノ木一丁目","[縄文時代（中期）][古墳時代][中世]","集落跡","[古墳時代]住居跡[中世]地下式土坑","[縄文時代]縄文土器　打斧[古墳時代]土師器",139.6430156,35.68886443,TRUE
13115012500,13115,"125","おおみやちゅうがっこういせき","大宮中学校遺跡","杉並区 堀ノ内一丁目","[中世]","地下式横穴","[弥生時代]住居　[中世]地下式土坑","弥生土器　土師器　石臼",139.6480457,35.68683582,TRUE
13115017400,13115,"174","ほんむらはらいせき","本村原遺跡","杉並区 和田一丁目","[縄文時代（早期〜前期・後期）][弥生時代（後期）][古墳時代][中世][近世]","包蔵地","[縄文時代]ユニット　集石　土坑","縄文土器　打斧　石鏃　磨石　弥生土器　土師器　須恵器　円筒埴輪　陶磁器",139.6624767,35.69272395,TRUE
13115017600,13115,"176","かまくらばしうえいせき","鎌倉橋上遺跡","杉並区 浜田山一丁目　 浜田山二丁目","[旧石器時代][縄文時代（早期〜後期）]　[弥生時代（後期）][古墳時代][中世][近世]","集落","[旧石器時代]礫群　ブロック　[縄文時代]住居　土坑　[弥生時代]住居　環濠","細石器　細石刃　ナイフ形石器　角錐状石器　スクレイパー　石刃　石核　細石核　縄文土器　尖頭器　打製石斧　石匙　磨石　土偶　弥生土器　石器　ミニチュア土器　被熱粘土塊　陶磁器　銭貨　鉄鏃　土師器",139.6274325,35.67714111,TRUE
13115018000,13115,"180","たかちほだいがくおおみやいせき","高千穂大学大宮遺跡","杉並区 大宮二丁目","[旧石器時代][縄文時代（早期・中期）][古墳時代][中世]","集落・古墳","[旧石器時代]礫群　ブロック　[縄文時代]陥し坑　土坑　[古墳時代]円墳（周溝）　住居　[中世]溝状遺構　溝　土坑","剥片　縄文土器　土師器　埴輪　鉄製品　陶磁器",139.6376941,35.68312,TRUE
13115018500,13115,"185","ねがわらいせきびーちてん","根河原遺跡B地点","杉並区 和泉四丁目","[旧石器時代][縄文時代（早期〜後期）][弥生時代][中世][近世]","包蔵地","[縄文時代]礫集中部","縄文土器　弥生土器　土師器　石器　陶器　土製品　ガラス製品",139.6492415,35.67842914,TRUE
13116000100,13116,"1","ひかわじんじゃうらかいづか","氷川神社裏貝塚","豊島区 池袋本町二丁目　 池袋本町三丁目","[縄文時代（前期～晩期）][弥生時代][平安時代][中世][近世]","包蔵地・貝塚","[縄文]貝塚、包含層、土坑　[中～近世]溝状遺構　[近世]土坑　生垣　溝　道　掘立柱建物　作物貯蔵孔　動物埋葬墓　畝状遺構","縄文土器　石斧　石鏃　玉類　土偶　弥生土器　土師器　須恵器　陶磁器　土器　土製品　石製品　金属製品　渡来銭　硝子製品　動物遺体",139.7105424,35.74290873,TRUE
13116000200,13116,"2","いけぶくろひがしかいづか","池袋東貝塚","豊島区 池袋本町三丁目　 池袋本町四丁目","[縄文時代（前期）][古墳時代][奈良時代][平安時代][中世]","包蔵地・貝塚","竪穴住居址　ピット　溝状遺構　畠畝　礎石　道","縄文土器　弥生土器　石斧　石皿　凹石　敲石　土師器　須恵器　陶磁器　瓦　金属製品",139.7141473,35.74416267,TRUE
13116000500,13116,"5","そめいいせき","染井遺跡","豊島区 巣鴨一丁目　 巣鴨二丁目　 巣鴨三丁目　 巣鴨四丁目　 巣鴨五丁目　 駒込一丁目　 駒込二丁目　 駒込三丁目　 駒込四丁目　 駒込五丁目　 駒込六丁目　 駒込七丁目","[縄文時代（早期〜後期）][弥生時代（後期）][古墳時代][中世][近世]","包蔵地・集落・貝塚・屋敷（大名屋敷）・その他（町屋）","[縄]住居　陥し穴　[弥生時代]方形周溝墓　[中世]道路　[近世]掘立柱建物　方形竪穴　土坑　地下室　門　井戸　畝　溝　柵列　地鎮址　ピット　畝状遺構","縄文土器　石器　弥生土器　土師器　須恵器　陶磁器　舶載磁器　土製品　石製品　硝子製品　金属製品",139.7413728,35.73716819,TRUE
13116001000,13116,"10","ながさきいっちょうめしゅうへんいせき","長崎一丁目周辺遺跡","豊島区 長崎一丁目　 西池袋四丁目","[中世][近世]","包蔵地","富士塚留石　大型溝　溝状遺構　長方形土坑　硬化面　円形土坑　畝跡　ゴミ穴　井戸　畝　植栽痕　礎石建物群","縄文土器　土師器　須恵器　板碑　近・現代陶磁器　富士講石碑群　縄文土器　金属製品　瓦　ガラス　金属器　銭貨　木製品",139.6951273,35.72769262,TRUE
13116001200,13116,"12","ぞうしがやいせき","雑司が谷遺跡","豊島区 雑司が谷二丁目　 雑司が谷三丁目","[縄文時代（早期）][平安時代][中世][近世]","包蔵地・その他（町屋）","[近世]掘立柱建物　方形竪穴　地下室　門　植栽痕　ゴミ穴　井戸　溝　柵列　ピット　胞衣埋納遺構　甕埋設遺構　石積　溝状遺構　礎石建物　土坑","題目板碑　縄文土器　土師器　板碑　陶磁器　土器　舶載磁器　土製品　石製品　金属製品　銭貨　瓦　石製品　硝子製品　金属製品　動物遺体",139.714113,35.72075244,TRUE
13117000100,13117,"1","うきまいせき","浮間遺跡","北区 浮間四丁目","[弥生時代][平安時代][中世]","包蔵地","[中世]溝","弥生土器　土師器　須恵器　陶磁器",139.6972722,35.78768443,TRUE
13117000400,13117,"4","ふくろていちいせき","袋低地遺跡","北区 赤羽北一丁目　赤羽北二丁目","[縄文時代][弥生時代][古墳時代][奈良時代][平安時代][中世][近世]","包蔵地・貝塚","[縄文時代]集石群　自然流路　貝塚　[古墳時代][奈良時代][平安時代]土坑　溝址　井戸址　[中世][近世]土坑　溝址　井戸址","縄文土器　石錘　土錘　漆塗土器　朱漆木製耳栓　牙製装飾品　石棒　石器　弥生土器　土師器　須恵器　陶磁器類　独木舟　漆器　飾り弓　銭貨",139.7092754,35.78541401,TRUE
13117000500,13117,"5","あかばねだいいせき","赤羽台遺跡","北区 赤羽台四丁目","[旧石器時代][縄文時代][弥生時代][古墳時代][奈良時代][平安時代][中世][近世]","集落","[旧石器時代]石器ブロック　[縄文時代]住居址　集石　炉穴　土坑　[弥生時代]環濠　方形周溝墓　土坑　住居址　[古墳時代]住居址　溝状遺構　[奈良時代][平安時代]住居址　掘立柱建物址　特殊遺構　[平安時代]住居　[中世]土坑　地下式土坑溝　[中世][近世]地下式壙　溝址　[近世]地下室　溝　[近代]近衛工兵隊関連施設","旧石器　石器　縄文土器　石斧　礫器　有舌尖頭器　石鏃　敲石　弥生土器　ガラス玉　土師器　須恵器　鉄器　蔵骨器　板碑　陶磁器類",139.712228,35.7839379,TRUE
13117001500,13117,"15","いねつけじょうあと","稲付城跡","北区 赤羽西一丁目","[古墳時代][奈良時代][中世]","集落・城館","[中世]空堀　[古墳時代][奈良時代]住居址　[中世]竪穴状遺構　溝","土師器　須恵器　陶器",139.7193629,35.77558484,TRUE
13117002300,13117,"23","","北区No.23遺跡","北区 王子本町三丁目","[中世]","古銭出土地","","銭貨12,672枚（永楽通宝・宣徳通宝・朝鮮通宝・大平通宝・洪式通宝他）",139.7268255,35.75233628,TRUE
13117002700,13117,"27","にしがはらいせきぐん","西ヶ原遺跡群","北区 西ヶ原一丁目　 西ヶ原二丁目　 西ヶ原三丁目　 上中里一丁目　 王子一丁目","[旧石器時代][縄文時代][弥生時代][古墳時代][奈良時代][平安時代][中世][近世]","集落・貝塚・その他の墓・城館","[縄文時代]住居址　土坑　ピット群　土壙墓　墓壙　貝塚　[弥生時代]住居址　土坑　溝址　方形周溝墓　環濠　[弥生時代][古墳時代]方形周溝墓　[古墳時代]住居址　土坑　溝址　古墳　[奈良時代][平安時代]住居址　掘立柱建物址　ピット　土坑　溝　正倉大溝　溝址　[中世][近世]溝址　土坑　[近世]建物　ピット土坑　地下式土坑　井戸　溝　区画溝　道路　土壙墓群　柵列　集石　特殊埋葬遺構","掻器　彫器　縄文土器　打斧　磨斧　石鏃　抉入石器　石器　ヤス状鹿角製品　耳飾　土板　埋葬人骨　動物遺存体　石皿　磨石　凹石　敲石　石核　大珠　骨角器　弥生土器　石皿　磨石　敲石　滑石製玉　土師器　須恵器　支脚　砥石　紡錘車　土錘　羽口　土玉　鉄製品　陶磁器類　土製品　鉄製品　銭貨　鳥獣魚骨　貝　剥片石器",139.7428408,35.74611874,TRUE
13117003000,13117,"30","なかざといせき","中里遺跡","北区 上中里二丁目　東田端一丁目　東田端二丁目","[縄文時代（早期〜後期）][弥生時代][古墳時代][奈良時代][平安時代][中世][近世]","包蔵地・貝塚","[縄文時代]集石　貝塚　木枠付土坑　杭列　炉址　木道　焚き火跡　波食台　[奈良時代][平安時代][中世]掘立柱建物　土坑　道路状遺構　杭列　[近世]旧河道","縄文土器　石斧　石皿　石棒　独木舟　石器　貝製品　耳栓　弥生土器　土師器　須恵器　埴輪　瓦　陶磁器　煙管　木簡　木製品　銭貨",139.7547197,35.74386169,TRUE
13117003100,13117,"31","たばたちょういせき","田端町遺跡","北区 中里一丁目　 中里二丁目　 中里三丁目　 田端三丁目　 田端四丁目","[弥生時代][古墳時代][奈良時代][平安時代][中世]","集落","[弥生時代]住居　[古墳時代]土坑　溝　土師器焼成遺構　[奈良時代]井戸","弥生土器　土師器　須恵器　陶器　板碑",139.7523851,35.73773108,TRUE
13117003200,13117,"32","たばたふどうさかいせき","田端不動坂遺跡","北区 田端一丁目","[縄文時代（前期）][弥生時代（中期〜後期）][古墳時代][奈良時代][平安時代][中世][近世][近代]","集落","[縄文時代]住居址　[弥生時代][古墳時代]住居址　方形周溝墓　掘立柱建物址　土坑　[奈良時代][平安時代]住居址　掘立柱建物址　ピット　道路状遺構　溝址　[平安時代]住居址　柵列　[中世][近世]道路址　溝址　[近代]胞衣埋納遺構　[時代不明]住居　土坑　溝","縄文土器　弥生土器　土師器　須恵器　陶器（灰釉）　支脚　石皿　鉄器　帯金具　青銅鏡　銅鏃　玉類",139.7624359,35.73559222,TRUE
13117003700,13117,"37","としまきよみつやかたあと","豊島清光館跡","北区 豊島七丁目","[中世]","城館","","",139.74256,35.76658299,TRUE
13117003800,13117,"38","たきのがわじょうあと","滝野川城跡","北区 滝野川三丁目","[中世]","城館","","",139.7305841,35.75213726,TRUE
13117003900,13117,"39","しもじゅうじょういせき","下十条遺跡","北区 十条台一丁目　 十条台二丁目　 滝野川四丁目","[縄文時代][古墳時代][奈良時代][平安時代][中世][近世]","集落","[縄文時代]陥穴　[奈良時代][平安時代]住居址　柵列　[近世]溝　柵列","縄文土器　土師器　須恵器　石製品　鉄製品",139.7227056,35.75462096,TRUE
13117004100,13117,"41","たばたにしだいどおりいせき","田端西台通遺跡","北区 田端二丁目　 田端三丁目　 田端四丁目　 田端五丁目　 田端六丁目","[縄文時代][弥生時代][古墳時代][奈良時代][平安時代][中世][近世]","集落・貝塚・古墳","[縄文時代]堅穴建物址　土坑　[弥生時代]堅穴建物址　方形周溝墓　[古墳時代]堅穴建物址　円墳　住居址　[奈良時代][平安時代]堅穴建物址　掘立柱建物址　住居址　[平安時代]土坑　溝　畝[中世]溝址","縄文土器　弥生土器　土師器　須恵器　灰釉陶器　金属製品　石製品　土製器　銭貨　陶磁器　ガラス製品　石器　鉄製品　帯金具　ガラス小玉　鉄釧",139.7576637,35.73804458,TRUE
13117004200,13117,"42","としまばんばいせき","豊島馬場遺跡","北区 豊島八丁目　 王子五丁目","[弥生時代（後期）][古墳時代][奈良時代][平安時代][中世][近世]","集落","[弥生時代][古墳時代]住居　掘立柱建物　土坑　溝　方形周溝墓　ピット　[古墳時代]井戸","弥生土器　土師器　須恵器　土製品　管玉　勾玉　ガラス小玉鋳型　陶磁器　木製品　石臼",139.7394357,35.76833798,TRUE
13117004700,13117,"47","じゅうじょうくぼいせき","十条久保遺跡","北区 十条台一丁目","[縄文時代（後期）][弥生時代（後期）][奈良時代][平安時代][中世][近世]","集落","[縄文時代]土坑　[弥生時代]井戸址　土坑　[奈良時代]住居址　[奈良時代][平安時代]住居址　掘立柱建物址　井戸址　土坑　[弥生時代]〜[近世]ピット群　土坑　[奈良時代]〜[近世]溝址　[平安時代]〜[近世]道路址　[中世]井戸址　[近世]畝","縄文土器　弥生土器　木製品　土師器　須恵器　陶磁器　銭貨　中世陶器　近世陶磁器　石器",139.7275011,35.75690203,TRUE
13117004800,13117,"48","ふくろにしうらいせき","袋西浦遺跡","北区 赤羽北二丁目","[縄文時代（中期）][古墳時代][中世][近世]","包蔵地","[古墳時代][中世]ピット　溝　[中世]井戸　土坑　[近世]土坑","縄文土器　打斧　土師器　須恵器　陶器　石製品　板碑　木製品　金属製品　ガラス製品　玩具　人形　銭貨",139.7047223,35.78487154,TRUE
13118000400,13118,"4","どうかんやまいせき","道灌山遺跡","荒川区 西日暮里四丁目　 西日暮里五丁目","[旧石器時代][縄文時代（前期〜後期）][弥生時代][奈良時代][平安時代][中世][近世]","集落","[弥生時代]環濠　住居　[平安時代]住居　掘立柱建物　土坑　柵状遺構　[平安時代〜近世]溝状遺構","ナイフ形石器　縄文土器　石鏃　敲石　石器　弥生土器　土師器　須恵器　鞴　紡錘車　人形　銭貨　陶磁器片",139.7651699,35.73318334,TRUE
13118000600,13118,"6","いしはまじょう","石浜城","荒川区 南千住三丁目","[中世]","城館","","",139.8075732,35.73077263,TRUE
13118001100,13118,"11","まちやよんちょうめみあがりいせき","町屋四丁目実揚遺跡","荒川区 町屋四丁目","[縄文時代][弥生時代][奈良時代][平安時代][中世][近世]","包蔵地","[古墳時代]周溝　井戸址　溝址　土杭　ピット","縄文土器　弥生土器　土師器　須恵器　陶磁器　瓦　板碑　木製品",139.7781131,35.74651757,TRUE
13119002300,13119,"23","はくさんじんじゃかいづか","白山神社貝塚","板橋区 赤塚四丁目","[縄文時代（中期〜後期）][中世]","包蔵地・貝塚","","縄文土器",139.641115,35.78638237,TRUE
13119002800,13119,"28","あかつかじょうし","赤塚城址","板橋区 赤塚四丁目　 赤塚五丁目","[縄文時代（早期〜晩期）][弥生時代（後期）][古墳時代][中世]","包蔵地・城館","[古墳時代]木道　[中世]堀　曲輪","縄文土器　石器　加工木材土師器",139.6433122,35.78259462,TRUE
13119003300,13119,"33","しょうげついんけいだい・だいもん・あかつかしもじけばんじょうめんいせき","松月院境内・大門・赤塚下寺家番匠免遺跡","板橋区 赤塚五丁目　 赤塚六丁目　 赤塚七丁目　 赤塚八丁目　 大門","[旧石器時代][縄文時代（早期〜晩期）][弥生時代（中期〜後期）][古墳時代][奈良時代][平安時代][中世][近世]","包蔵地・集落","[旧石器時代]ブロック　礫群　[縄文時代]住居　炉穴　[弥生時代]住居　方形周溝墓　[古墳時代]住居　方形周溝墓　[奈良時代][平安時代]住居　[中世]土坑　地下式土壙　ピット　[近世]土坑","ナイフ形石器　石刃　角錐状石器　掻器　縄文土器　石器　弥生土器　土師器　須恵器　紡錘車　青銅環　陶磁器　カワラケ　板碑　五輪塔",139.6476467,35.78156758,TRUE
13119003400,13119,"34","","板橋区No.34遺跡","板橋区 赤塚八丁目","[縄文時代][弥生時代][古墳時代][中世]","包蔵地","","縄文土器　石器　弥生土器　土師器　須恵器",139.6455524,35.78424134,TRUE
13119003900,13119,"39","よつばちくいせき","四葉地区遺跡","板橋区 四葉二丁目","[縄文時代（早期〜晩期）][弥生時代（後期）][古墳時代][奈良時代][平安時代][中世][近世]","包蔵地","[縄文時代]住居　[弥生時代][古墳時代]住居　焼土　[奈良時代][平安時代]住居　竪穴状遺構　[中世][近世]地下式土坑　溝　道路","縄文土器　有舌尖頭器　弥生土器　土師器　須恵器　土玉　臼玉",139.6513027,35.78112479,TRUE
13119004000,13119,"40","よつばちくいせき","四葉地区遺跡","板橋区 四葉二丁目","[旧石器時代][縄文時代（早期〜中期）][弥生時代（後期）][古墳時代][奈良時代][平安時代][中世][近世]","包蔵地","[弥生時代]環濠　住居　[平安時代]住居　土坑　溝　井戸　[近世]土壙墓　[時代不明]ピット","弥生土器　土師器　須恵器　釘　金銅製観音立像　銭貨",139.653294,35.78173754,TRUE
13119004100,13119,"41","おきやま・よつばちくいせき","沖山・四葉地区遺跡","板橋区 四葉二丁目","[縄文時代][弥生時代（中期〜後期）][古墳時代][平安時代][中世][近世]","包蔵地・集落","[弥生時代]環濠　住居　ピット　土坑　[古墳時代]住居　[奈良時代][平安時代]住居　[中世]段切り　溝状遺構　[近世]畝　土壙墓","縄文土器　打斧　弥生土器　土師器　須恵器　銅製?帯　板碑　陶磁器　くし　簪　人形　銭貨　胞衣壺",139.6520237,35.78315798,TRUE
13119004200,13119,"42","よつばちくいせき","四葉地区遺跡","板橋区 四葉二丁目　 徳丸八丁目","[旧石器時代][縄文時代（早期〜晩期）][弥生時代（後期）][古墳時代][奈良時代][平安時代][中世][近世]","包蔵地・集落","[旧石器時代]ブロック　炭化物集中　[縄文時代]住居　陥し穴　[弥生時代][古墳時代]環濠　住居　方形周溝墓　円形周溝墓　[古墳時代]土坑　[奈良時代][平安時代]住居　土坑　地下式土坑　[中世][近世]段切り　溝　[近世]地下室　ゴミ穴　溝　[時代不明]井戸　火葬墓","ナイフ形石器　細石刃　掻器　抉入石器　敲石　石核　縄文土器　打斧　磨斧　局部磨斧　有舌尖頭器　石鏃　楔形石器　石皿　磨石　スタンプ形石器　敲石　土製品　弥生土器　磨斧　石包丁　石皿　台石　土師器　須恵器　鉄鏃　陶磁器　銭貨　獣骨",139.6548046,35.7812362,TRUE
13119005200,13119,"52","とくまるいしかわ／とくまるみつわいせき","徳丸石川／徳丸三ツ和遺跡","板橋区 徳丸五丁目","[縄文時代（早期〜晩期）][弥生時代（後期）][古墳時代][中世][近世]","包蔵地・集落・城館","[縄文時代]土坑　[弥生時代]住居　円形周溝墓　特殊遺構　[古墳時代]住居　[中世]堀","角錐状石器　縄文土器　石器　耳飾　弥生土器　土師器　陶磁器",139.6565108,35.77864163,TRUE
13119005700,13119,"57","","板橋区No.57遺跡","板橋区 徳丸七丁目　 徳丸八丁目","[縄文時代（中期）][弥生時代（後期）][古墳時代][奈良時代][平安時代][中世][近世]","包蔵地・集落","","縄文土器　弥生土器　土師器",139.6586051,35.78073058,TRUE
13119006300,13119,"63","ごたんだいせき","五段田遺跡","板橋区 西台三丁目","[旧石器時代][縄文時代（中期〜晩期）][弥生時代（後期）][古墳時代][奈良時代][平安時代][中世][近世]","包蔵地・集落・墳墓","[旧石器時代]ブロック　[縄文時代]住居　炉穴　土坑　[弥生時代]住居　方形周溝墓　土坑　溝　[奈良時代][平安時代]溝　[中世]掘立柱建物　竪穴状遺構　地下式土壙　段切状遺構　[近世]土坑　井戸　畝状遺構　道路状遺構","ナイフ形石器　石刃　剥片　縄文土器　石器　弥生土器　土師器　埴輪　陶磁器　土師質土器　金属製品　銭貨",139.6682525,35.77443569,TRUE
13119009900,13119,"99","しまいはた／しむら／しむらさかうえいせき","四枚畑／志村／志村坂上遺跡","板橋区 前野町三丁目　 前野町四丁目　 志村一丁目","[旧石器時代][縄文時代（早期〜晩期）][弥生時代（後期）][古墳時代][奈良時代][平安時代][中世][近世]","包蔵地・集落・貝塚","[旧石器時代]ブロック　礫群　[縄文時代]住居　土坑　ピット　[弥生時代]住居　[古墳時代]住居　[奈良時代][平安時代]溝　[近世]溝　道路","ナイフ形石器　掻器　縄文土器　石器　けつ状耳飾　土偶　骨角器　弥生土器　土師器　須恵器",139.6953217,35.7739031,TRUE
13119010100,13119,"101","しむらしろやまいせき・しむらじょうし","志村城山遺跡・志村城址","板橋区 志村二丁目","[旧石器時代][縄文時代（早期〜後期）][弥生時代（中期〜後期）][古墳時代][奈良時代][平安時代][中世][近世]","包蔵地・集落・城館","[弥生時代]環濠　[古墳時代]方形周溝墓　[奈良時代][平安時代]住居　掘立柱建物　柵列　[中世]土壙　溝　堀","縄文土器　打斧　磨斧　石鏃　掻器　磨石　弥生土器　土師器　須恵器　支脚　羽口　鉄針　陶磁器",139.6877743,35.7758087,TRUE
13119010400,13119,"104","あずさわかいづか／あずさわみやのまえみなみいせき","小豆沢貝塚／小豆沢宮ノ前南遺跡","板橋区 小豆沢二丁目　 小豆沢四丁目","[縄文時代（早・前・中・後・晩期）][弥生時代（中・後期）][古墳時代][奈良時代][平安時代][中世][近世]","包蔵地・集落・貝塚","[縄文]住居　土坑　埋甕　焼土範囲　貝層　[弥生時代]方形周溝墓　[奈良・平安]竪穴建物跡　掘立柱建物跡　ピット　[近世]溝　[時代不明]小穴　","縄文土器　石器　礫　石製品　土製品　貝製品　弥生土器　ガラス小玉　土師器　須恵器　灰釉陶器　鉄鏃　銅製巡方　石製丸鞆　陶磁器",139.7000938,35.77888896,TRUE
13119013300,13119,"133","はやせまえ／とくまるがはらおおはしいせき","早瀬前／徳丸原大橋遺跡","板橋区 高島平六丁目　 新河岸三丁目","[縄文時代（早期・中期〜後期）][弥生時代（後期）][古墳時代][奈良時代][平安時代][中世][近世]","包蔵地・集落","[弥生時代]溝　[古墳時代]方形周溝墓　[平安時代]掘立柱建物　井戸　水田　[平安時代][中世][近世]溝","弥生土器　土師器　須恵器　石器　勾玉　石製模造品　木製品　木材　柱根　植物遺体　動物遺体　陶磁器　銭貨",139.6506256,35.79304784,TRUE
13119013400,13119,"134","ふなどいせき","舟渡遺跡","板橋区 舟渡一丁目　 舟渡二丁目　 舟渡三丁目","[縄文時代（前期〜中期）][弥生時代（後期）][古墳時代][平安時代][中世][近世]","包蔵地・集落","[平安時代]住居　溝　[中世]柱穴　井戸　大溝　掘立柱建物跡　[古墳時代]方形周溝墓　溝","縄文土器（縄文前〜中期）　弥生土器（弥生後期）　土師器　須恵器　木製品　陶磁器　根碑　石製品　木製品　土製品　石器　鉄製品　　土器　古銭　金属製品",139.6876999,35.79456869,TRUE
13119013500,13119,"135","","板橋区No.135遺跡","板橋区 赤塚四丁目","［中世］［近世］","その他（塚）","","",139.6395013,35.78496198,TRUE
13119016500,13119,"165","","板橋区No.165遺跡","板橋区 仲宿","[中世]","地下式壙","[中世]地下式土坑","",139.7099964,35.75271592,TRUE
13119016800,13119,"168","たかしまだいらきたいせき","高島平北遺跡","板橋区 高島平九丁目","[古墳時代]［奈良時代］［平安時代］［中世］[近世]","集落","[古墳時代]竪穴状遺構　土坑　集石　祭祀遺構　[奈良時代][平安時代]住居　[近世]水田　[時代不明]井戸　溝　木桶","土師器　玉類　石製品　木製品　木材　動物遺体　陶磁器　土製品　瓦　石製品　漆器　銭貨",139.6661438,35.78978954,TRUE
13119017000,13119,"170","なかじゅくいせき","仲宿遺跡","板橋区 仲宿","[縄文時代（早期）][古墳時代][中世][近世]","包蔵地","[中世]井戸　溝　[近世]建物　土坑","陶磁器",139.7103054,35.75625435,TRUE
13119017200,13119,"172","くぼたいせき","久保田遺跡","板橋区 栄町　 中板橋","[旧石器時代][縄文時代（草創・前期〜後期）][弥生時代（前期・後期）][奈良時代][平安時代][中世][近世]","包蔵地・集落","[弥生時代][中世][近世]土坑　[中世]掘立柱建物　[近世]溝　[時代不明]井戸","縄文土器　弥生土器",139.7003833,35.7555021,TRUE
13119017500,13119,"175","さかしたさんちょうめいせき","坂下三丁目遺跡","板橋区 坂下三丁目","[縄文時代（前期〜後期）][弥生時代（後期）][古墳時代][奈良時代][平安時代][中世][近世]","包蔵地・集落","[弥生時代（後期）]〜［古墳時代（前期）］土坑　井戸跡　溝跡","縄文土器　弥生土器　[古墳時代（前期）]土師器　[奈良・平安時代]土師器・須恵器　[中世]土器・陶器",139.6807991,35.78582407,TRUE
13120000200,13120,"2","おおいずみがくえんちょうきたおおいずみちょうNo.1いせき","大泉学園町・北大泉町No.1遺跡","練馬区 西大泉四丁目","[縄文時代（中期）][奈良時代][平安時代][中世]","包蔵地","集石土坑","土師器　陶器",139.5771344,35.76533944,TRUE
13120000300,13120,"3","おおいずみがくえんちょうきたおおいずみちょうNo.2いせき","大泉学園町・北大泉町No.2遺跡","練馬区 大泉学園町五丁目","[縄文時代（中期〜後期）][奈良時代][平安時代][中世]","集落","[時代不明]柱穴　溝状遺構","縄文土器　土師器　陶器",139.5826962,35.76414155,TRUE
13120000400,13120,"4","おおいずみがくえんちょうきたおおいずみちょうNo.3いせき","大泉学園町・北大泉町No.3遺跡","練馬区 大泉学園町三丁目","[縄文時代（前期〜中期）][中世]","包蔵地","","縄文土器　陶器",139.5871937,35.76344509,TRUE
13120001000,13120,"10","がいかんどうろかんれん","外かん道路関連遺跡","練馬区 大泉町三丁目　 大泉町四丁目","[旧石器時代][縄文時代（草創期〜後期）][弥生時代（中期〜後期）][古墳時代][奈良時代][平安時代][中世][近世]","包蔵地・集落・その他（低湿地）","[縄文時代]石器製作址（石鏃）　[弥生時代]方形周溝墓　[古墳時代]竪穴住居跡","（旧石器）尖頭器　ナイフ型石器　（縄文）縄文土器　打製石斧　石鏃　垂飾り　（弥生〜古墳）土器　木器（段梯子　農耕具）　ガラス玉　（奈良・平安）土師器　須恵器",139.5996239,35.76386297,TRUE
13120002000,13120,"20","まるやまいせき","丸山遺跡","練馬区 大泉町三丁目","[旧石器時代][縄文時代（早期〜後期）][弥生時代][奈良時代][平安時代][中世]","集落","[旧石器時代]礫群　[弥生時代]住居　[中世]地下式土坑　[時代不明]溝状遺構","石器　縄文土器　弥生土器　土師器　須恵器",139.5983193,35.7636401,TRUE
13120002400,13120,"24","","練馬区No.24遺跡","練馬区 東大泉四丁目","[中世]","地下式横穴","[中世]地下式土坑","",139.5829452,35.75231391,TRUE
13120002600,13120,"26","","練馬区No.26遺跡","練馬区 東大泉四丁目","[中世]","地下式横穴","[中世]地下式土坑","",139.5841812,35.75248109,TRUE
13120003800,13120,"38","ふじみいけいせきぐん","富士見池遺跡群","練馬区 関町北三丁目　 関町南四丁目","[旧石器時代][縄文時代（早期〜後期）][中世]","集落","[旧石器時代]石器ブロック　礫群　[縄文時代]住居","石器（石鏃　打製石斧）　石棒　縄文土器",139.5691093,35.72575664,TRUE
13120004500,13120,"45","しろやまいせき・あたごやまるい","城山遺跡・愛宕山塁","練馬区 上石神井三丁目","[旧石器時代][縄文時代（早期〜晩期）][弥生時代][中世]","集落・城館","[旧石器時代]礫群　[縄文時代]住居　石器集中部　礫群　炉穴　集石土坑　濠状遺構　住居址　[中世]堀","石器　縄文土器　弥生土器　ナイフ形石器　尖頭器　細石刃　細石刃核　石鏃　扶入磨石　鉄製品",139.5927615,35.732401,TRUE
13120005000,13120,"50","しゃくじいだいいせき・しゃくじいじょうあと","石神井台遺跡・石神井城跡","練馬区 石神井台一丁目","[旧石器時代][縄文時代（早期〜後期）][古墳時代][奈良時代][平安時代][中世]","集落・城館","[旧石器時代]礫群　[中世]ピット　地下式土坑　溝状遺構　[時代不明]住居　柱穴群　溝状遺構","石器　縄文土器　弥生土器　土師器　須恵器　陶磁器　木製品　素焼土器　瓦器　鉄器　石臼",139.5958224,35.73608288,TRUE
13120006400,13120,"64","いけぶちいせき","池淵遺跡","練馬区 石神井町五丁目","[旧石器時代][縄文時代（草創期〜後期）][弥生時代（後期）][古墳時代][中世]","集落","[旧石器時代]礫群　[縄文時代]住居　土坑　ピット　[中世]溝状遺構","石器（打製石斧　石皿　石鏃）　縄文土器　弥生土器　土師器　須恵器　陶磁器",139.6020365,35.73797788,TRUE
13120009800,13120,"98","おさきいせき","尾崎遺跡","練馬区 春日町五丁目","[旧石器時代][縄文時代（早期〜晩期）][弥生時代][奈良時代][平安時代][中世][近世]","集落・墓地","[旧石器時代]礫群　[縄文時代]焼土　[弥生時代]土坑　溝状遺構　[平安時代]住居　井戸　[中世]柱穴群　井戸　土坑　溝状遺構　[近世]溝状遺構","石器　縄文土器　弥生土器　土師器　須恵器　陶磁器　木器",139.6398092,35.74706462,TRUE
13120010800,13120,"108","くりやま・うまのかみやしきあといせき","栗山・右馬頭屋敷跡遺跡","練馬区 練馬二丁目","[旧石器時代][縄文時代（草創期〜後期）][弥生時代（後期）][古墳時代][平安時代][中世]","集落","[旧石器時代]石器ブロック　礫群　[縄文時代]住居　炉穴　陥穴　土坑　ピット　[平安時代]住居　[時代不明]溝状遺構","縄文土器　石器　弥生土器　土師器　須恵器",139.6531301,35.74299634,TRUE
13120013000,13120,"130","ねりまじょうあと","練馬城跡","練馬区 向山三丁目","[旧石器時代][縄文時代（早期〜中期）][弥生時代][古墳時代][奈良時代][平安時代][中世]","集落・城館","[旧石器時代]石器ブロック　[縄文時代]炉穴　集石　土坑　[古墳時代]住居[中世]堀切り","縄文土器　石器　土師器　須恵器",139.6458275,35.74255871,TRUE
13120014800,13120,"148","べんてんいけていしっちいせき","弁天池低湿地遺跡","練馬区 東大泉三丁目","[縄文時代（後期）][中世][近世]","包蔵地","水田","縄文土器　陶器　木製品　（近世）陶磁器",139.5904229,35.75597831,TRUE
13121000200,13121,"2","とねりいせき","舎人遺跡","足立区 舎人二丁目　 舎人四丁目　 舎人五丁目　 舎人六丁目","[古墳時代][奈良時代][中世][近世]","集落","[古墳時代]方形周溝墓　鍛冶遺構　[古墳時代]〜[奈良時代]住居　ピット　土坑　[中世]井戸　火葬墓","土師器　須恵器　土製支脚　土錘　鞴羽口　滑石製品(臼玉・鏡)　鉄滓　人骨",139.7688769,35.81459542,TRUE
13121001300,13121,"13","いこう・やじった・はざまいせき","伊興・谷下・狭間遺跡","足立区 東伊興一丁目　 東伊興二丁目　東伊興三丁目　東伊興四丁目　 伊興本町一丁目　伊興本町二丁目","[縄文時代（後期）][古墳時代][奈良時代][平安時代][中世][近世]","集落・その他（祭祀）","[古墳時代]住居　ピット　土坑　竪穴　井戸　溝　方形周溝墓　[古墳時代]〜[平安時代]ピット　土坑　井戸　[平安時代]火葬墓","縄文土器　石鏃　弥生土器　土師器　須恵器　鉄鏃　刀子　鉄器　砥石　紡錘車　土錘　土製支脚　埴輪　管玉　勾玉　子持勾玉　臼玉　ガラス製品　鏡　帯金具　有孔円板　石製・土製模造品　人骨",139.7867297,35.80310019,TRUE
13121001400,13121,"14","きょうづか","経塚","足立区 伊興本町二丁目","[中世]","経塚","","星の兜鉢　木製塗瓶子　銅製六器　鉄製経筒　五鈷鈴　大刀足金物　小札　銭貨",139.7863177,35.8002043,TRUE
13121001700,13121,"17","わかみやはちまんじんじゃいせき","若宮八幡神社遺跡","足立区 伊興二丁目　 伊興三丁目　 伊興四丁目　 西伊興二丁目","[奈良時代][平安時代][中世][近世]","包蔵地","[奈良時代]〜[中世]ピット　[平安時代]井戸　[近世]土坑　溝","土師器　須恵器　土錘　勾玉　陶器　釘　下駄　井戸枠",139.7819918,35.79499701,TRUE
13121002500,13121,"25","なかそねじょうし","中曽根城址","足立区 本木二丁目","[中世]","城館","","",139.7855706,35.76612391,TRUE
13121002600,13121,"26","せんげんじんじゃづかいせき","浅間神社塚遺跡","足立区 西新井六丁目","[中世？][近世？]","塚?","","",139.7764726,35.77871452,TRUE
13121002700,13121,"27","にしあらいななちょうめいせき","西新井七丁目遺跡","足立区 西新井七丁目","[中世]","単独出土地","","銭貨",139.7714601,35.78278098,TRUE
13121002800,13121,"28","ひがしいこういせき","東伊興遺跡","足立区 東伊興一丁目　 東伊興二丁目　 古千谷五丁目","[古墳時代][奈良時代][平安時代][中世][近世]","集落","[古墳時代]住居　[古墳時代]〜[平安時代]ピット　土坑　[中世]溝","土師器　須恵器　陶磁器　鉄製品　木製品",139.7826785,35.80516066,TRUE
13122000400,13122,"4","ころくてんひがしいせき","古録天東遺跡","葛飾区 柴又一丁目　 柴又三丁目","[弥生時代][古墳時代][奈良時代][平安時代][中世]","集落","[古墳時代]住居　[奈良時代][平安時代]住居　生産遺構","弥生土器　土師器　須恵器　支脚　砥石　土錘　陶磁器",139.8720469,35.75711587,TRUE
13122000500,13122,"5","ころくてんいせき","古録天遺跡","葛飾区 柴又二丁目　 柴又三丁目","[古墳時代][奈良時代][平安時代][中世][近世]","集落","[奈良時代][平安時代]住居　土坑　溝　[中世]溝　[近世]土坑","土師器　須恵器　陶磁器　ホウロク　カワラケ　瓦質土器　素焼土器　土製品　瓦　砥石　金属製品",139.8696093,35.75812292,TRUE
13122000800,13122,"8","ごてんやま・かさいじょうし","御殿山・葛西城址","葛飾区 青戸六丁目　 青戸七丁目　 青戸八丁目","[弥生時代][奈良時代][平安時代][中世][近世]","集落・城館","[古墳時代]住居　ピット　土坑　溝　[中世]掘立柱建物　土坑　ピット　井戸　溝　堀　[近世]水田","弥生土器　土師器　須恵器　土錘　砥石　陶磁器　カワラケ　瓦器　茶臼　瓦　板碑　鉄製品　鉄塊　漆椀　下駄　くし　銭貨　炭化物",139.855644,35.75541297,TRUE
13122001400,13122,"14","でんかさいきよしげやかたあと","伝葛西清重館址","葛飾区 四ツ木一丁目","[中世]","城館","","",139.8341544,35.73452287,TRUE
13122001500,13122,"15","しばまたかせんじきいせき","柴又河川敷遺跡","葛飾区 柴又五丁目　 柴又六丁目","[縄文時代][弥生時代][古墳時代][奈良時代][平安時代][中世][近世]","包蔵地","[時代不明]溝　土坑","縄文土器　弥生土器　土師器　須恵器　土錘　陶磁器　カワラケ　素焼土器　土製品",139.8833385,35.75546786,TRUE
13122001700,13122,"17","かみちばいせき","上千葉遺跡","葛飾区 西亀有一丁目　 東堀切三丁目","[中世][近世]","集落","[中世]建物跡　土坑　溝状遺構　井戸　水田状遺構","陶磁器　カワラケ　木製品",139.8379285,35.75715428,TRUE
13122001800,13122,"18","","葛飾区No.18遺跡","葛飾区 東金町四丁目","[奈良時代][平安時代][中世？]","塚","","鏡",139.8772234,35.77569338,TRUE
13122001900,13122,"19","かみこまついせき","上小松遺跡","葛飾区 東新小岩四丁目　 奥戸四丁目","［古墳時代］[奈良時代][平安時代][中世][近世]","集落","[奈良時代][平安時代]土坑　溝","土師器　須恵器　陶器　金属製品　石製紡錘車　漆器　馬歯",139.8635132,35.72651646,TRUE
13122002000,13122,"20","しばまたはちまんじんじゃいせき","柴又八幡神社遺跡","葛飾区 柴又一丁目　 柴又三丁目　 柴又七丁目","[古墳時代][奈良時代][平安時代][中世]","集落","[奈良時代][平安時代]住居　井戸　[近世]溝","土師器　須恵器　円筒埴輪　陶磁器　素焼土器　木製品",139.8751025,35.75781646,TRUE
13122002100,13122,"21","しばまたたいしゃくてんいせき","柴又帝釈天遺跡","葛飾区 柴又七丁目","[奈良時代][平安時代][中世][近世]","集落","[奈良時代][平安時代]掘立柱建物　井戸　土坑　溝　[中世]掘立柱建物　井戸　土坑　溝　[近世]井戸　土坑　溝","土師器　須恵器　木製品",139.8779444,35.75842191,TRUE
13122002200,13122,"22","ほんごういせき","本郷遺跡","葛飾区 奥戸三丁目　 奥戸五丁目 奥戸七丁目","[古墳時代][奈良時代][平安時代][中世][近世]","集落","[古墳時代]住居　竪穴状遺構　土坑　小鍛冶工房　[奈良時代][平安時代]ピット　土坑　井戸　[近世]ピット　井戸　溝","土師器　須恵器　石製紡錘車　土錘　耳環　馬歯　陶磁器",139.8620275,35.73322804,TRUE
13122002400,13122,"24","おにづかいせき","鬼塚遺跡","葛飾区 奥戸一丁目","[古墳時代][奈良時代][平安時代][中世][近世]","集落","[古墳時代]掘立柱建物　土坑　井戸　溝　[奈良時代][平安時代]掘立柱建物　溝　井戸　[中世]ピット　溝状遺構　[近世]井戸　水田","土師器　須恵器　土錘　カワラケ　陶磁器　木製品　骨製ヘラ　ウマ・イヌ・ウシ骨歯　貝殻",139.8597272,35.73077553,TRUE
13122002500,13122,"25","おにづか","鬼塚","葛飾区 奥戸一丁目","[中世]","その他（塚）","","土師器　須恵器　陶磁器",139.8589376,35.73010665,TRUE
13122002700,13122,"27","まえついせき","前津遺跡","葛飾区 亀有二丁目","[中世][近世]","包蔵地","[中世][近世]土坑　溝","カワラケ　陶磁器　素焼土器　土製品　瓦　砥石　金属製品　玩具　人形",139.8505285,35.76127755,TRUE
13122002800,13122,"28","たていしいせき","立石遺跡","葛飾区 立石八丁目","[古墳時代][奈良時代][平安時代][中世]","集落","[中世]掘立柱建物　井戸　土坑　溝　杭列","土師器　須恵器　埴輪　陶磁器　カワラケ　素焼土器　土製品　金属製品　石製品　瓦　銭貨　木製品　馬歯",139.8554036,35.73973481,TRUE
13123000100,13123,"1","かみこいわいせき","上小岩遺跡","江戸川区 北小岩六丁目 北小岩七丁目","[弥生時代][古墳時代][奈良時代][平安時代][中世][近世]","集落","[古墳時代]住居　土坑　[奈良時代][平安時代][中世]井戸　溝状遺構　[近世]水田　溝状遺構　[時代不明]土坑","弥生土器　土師器　須恵器　土錘　陶磁器　羽釜　板碑　加工木材　銭貨",139.8887425,35.74357206,TRUE
13123000300,13123,"3","かしまやまかいづか","鹿島山貝塚","江戸川区 本一色三丁目","[中世]","貝塚","","土師器　須恵器　陶器　擂鉢　石臼　土錘　馬歯・骨",139.8724633,35.72186394,TRUE
13123000500,13123,"5","どうがしまかいづか","道ヶ島貝塚","江戸川区 松島三丁目","[中世？]","貝塚","","",139.8615706,35.71225984,TRUE
13123000700,13123,"7","まつえばしかいづか","松江橋貝塚","江戸川区 東小松川一丁目","[中世？]","貝塚","","",139.8658142,35.69994451,TRUE
13123000800,13123,"8","てんじんやまかいづか","天神山貝塚","江戸川区 一之江五丁目","[中世？]","貝塚","","",139.8804834,35.69609182,TRUE
13123001200,13123,"12","ながしまやしきあと","長島屋敷跡","江戸川区 東葛西三丁目","[中世]","城館","","",139.8821059,35.66823881,TRUE
13201001900,13201,"19","とのいりひがしいせき","十内入東遺跡","八王子市 川口町","[縄文時代（早期〜中期）][奈良時代][平安時代][中世][近世]","集落","[縄文時代]住居　炉穴　集石　土坑　[古墳時代]土坑　[中近]建物跡　地下式坑　墓坑　土坑","縄文土器　石器　陶磁器　漆器　銭貨　金属製品",139.2682011,35.69471575,TRUE
13201003200,13201,"32","なかはらいせき","中原遺跡","八王子市 川口町","[縄文時代（前期〜後期）][古墳時代][平安時代][中世][近世]","集落","[縄文時代]住居","縄文土器　打斧　石鏃　石匙　石錘　磨石　凹石　耳飾　須恵器　蔵骨器　陶磁器",139.291799,35.69335256,TRUE
13201003600,13201,"36","うえじゅく（おんがたちくNo.5）いせき","上宿（恩方地区No.5)遺跡","八王子市 下恩方町","[縄文時代（早期〜後期）][平安時代][中世]","集落","[縄文時代]住居　配石状遺構　土坑　[時代不明]溝　土坑　集石　石組遺構","縄文土器　石器　土製品　土師器　陶磁器　板碑　石臼　銭貨",139.2565997,35.67386752,TRUE
13201003700,13201,"37","","八王子市No.37遺跡","八王子市 下恩方町","[中世][近世]","生産遺跡","鍛冶工房?","",139.2635348,35.67687956,TRUE
13201004200,13201,"42","はちおうじじょうあと","八王子城跡","八王子市 元八王子町三丁目　 下恩方町","[縄文時代（中期）][中世][近世]","城館","[中世]掘立柱建物　土間状遺構　腰曲輪　[近世]建物　方形竪穴　土坑　庭園　井戸　溝　石段　踊場　堀　造成面　土塁　石垣","縄文土器　石皿　陶磁器（国産・舶載）　カワラケ　鉄砲玉　釘　鉄片　鏡　砥石　石臼　羽口　坩堝　刀装具　レースガラス　毛抜き　鋲　銭貨　土弾　鉄滓　漆椀　木炭",139.253375,35.65333468,TRUE
13201004600,13201,"46","おだの（おんがたちくNo.3）いせき","小田野(恩方地区No.3)遺跡","八王子市 西寺方町","[縄文時代（早期〜後期）][古墳時代][平安時代][中世][近世]","集落","[縄文時代]敷石住居　集石土坑　[平安時代]土坑　集石　河道","縄文土器　打斧　磨斧　石槍　土師器　須恵器　陶磁器",139.2671282,35.67242441,TRUE
13201005300,13201,"53","たかつきじょうあと・はちおうじしNo.54いせき","高月城跡・八王子市No.54遺跡","八王子市 高月町","[縄文時代（前期〜後期）][中世]","包蔵地・城館","[中世]空堀　土塁　曲輪","縄文土器　陶器　鉄砲鉛弾　釘",139.3189058,35.7127551,TRUE
13201005500,13201,"55","たきやまじょうあと","滝山城跡","八王子市 高月町　 加住町一丁目　 丹木町一丁目　 丹木町二丁目　 丹木町三丁目","[中世]","城館","[中世]本丸　千畳敷　二の丸　三の丸　掘立柱建物　土間状遺構　敷石遺構　堀　曲輪　整地面","陶磁器　カワラケ　鉄砲玉　釘　羽口　土玉　鉄滓",139.3300638,35.69914337,TRUE
13201005700,13201,"57","","八王子市No.57遺跡","八王子市 加住町二丁目","[縄文時代（中期）][中世][近世]","包蔵地","","縄文土器",139.3219957,35.69569302,TRUE
13201005800,13201,"58","おおまちいせき","大町遺跡","八王子市 丹木町一丁目","[縄文時代（前期〜中期）][古墳時代][奈良時代][平安時代][中世][近世]","集落","[縄文時代]住居　貯蔵穴","縄文土器　打斧　磨斧　石鏃　掻器　石皿　磨石　凹石　砥石　土偶　土製品　彩色土器　絵画土器　土師器　陶磁器",139.3307204,35.68966714,TRUE
13201005900,13201,"59","のくぼいせき","野久保遺跡","八王子市 丹木町一丁目　 梅坪町","[縄文時代（前期〜中期）][平安時代][中世][近世]","集落","[縄文時代]住居","縄文土器　土師器　陶磁器",139.3325618,35.68865316,TRUE
13201007308,13201,"73-8","うつぎだいいせきぐんえいちちく","宇津木台遺跡群H地区","八王子市 石川町","[縄文時代][平安時代][中世][近世]","集落","[縄文時代]集石土坑　[平安時代]住居　溝　[中世]溝　[近世]柱穴　溝　墓","",139.3578414,35.68089782,TRUE
13201007900,13201,"79","こみやちょう・あわのすいせき","小宮町・粟の須遺跡","八王子市 小宮町","[縄文時代（早期〜中期）][古墳時代][奈良時代][平安時代][中世][近世]","集落","[縄文時代]集石　陥し穴　[奈良時代]住居　[平安時代]住居　集石　[中世]堀立柱建物　竪穴状遺構　焼土　井戸　土坑　炭焼土坑　溝状遺構","縄文土器　打斧　磨石　剥片　土師器　須恵器　陶磁器　カワラケ　舶載陶磁器　硯",139.3696515,35.68692916,TRUE
13201009600,13201,"96","たんぎさかいいせき","丹木境遺跡","八王子市 丹木町二丁目","[旧石器時代][縄文時代（早期〜後期）][古墳時代][平安時代][中世][近世]","集落・城館","[縄文時代]竪穴状遺構　炉穴　陥穴　集石　土坑　[中世]腰曲和錠遺構　掘状遺構　館址状遺構　溝","縄文土器",139.323392,35.69210337,TRUE
13201011000,13201,"110","つかばいせき","塚場遺跡","八王子市 石川町","[縄文時代（早期〜後期）][古墳時代][奈良時代][平安時代][中世][近世]","集落","[縄文時代]住居址　集石　炉穴　陥し穴土坑　配石土坑　[古墳時代]竪穴住居址　[平安時代]住居址　[中世]掘立柱建物址　竪穴状遺構　ピット群　土坑　室状遺構　溝状遺構　[近世]掘立柱建物址　溝状遺構　[古代]土坑","縄文土器　打斧　磨斧　礫器　石匙　石皿　磨石　敲石　石核　剥片　土師器　須恵器　鉄斧　焼成粘土塊　陶磁器　磨製石斧　石器　鉄製品",139.368141,35.67755127,TRUE
13201011600,13201,"116","いけのしたいせき","池の下遺跡","八王子市 元八王子町二丁目","[縄文時代（早期〜中期）][中世][近世]","集落","土坑　建物跡","縄文土器　土師質土器",139.282759,35.66236247,TRUE
13201011700,13201,"117","かじやしきいせき","鍛冶屋敷遺跡","八王子市 元八王子町二丁目","[縄文時代（早期〜後期）][古墳時代][奈良時代][平安時代][中世][近世]","集落","[縄文時代]住居跡　土坑　屋外炉　集石　ピット [古代以降]土坑 [中世以降]土坑　道路状遺構　溝上位行 [近世以降]溝","縄文土器　石鏃　刃器　土師器",139.2828726,35.66081305,TRUE
13201011800,13201,"118","","八王子市No.118遺跡","八王子市 元八王子町三丁目","[縄文時代（早期〜後期）][古墳時代][平安時代][中世][近世]","集落","[縄文時代]住居跡　炉穴　土坑　集石土坑 [中世][近世]建物跡　地下式坑　鍛冶炉　焼土　溝","縄文土器　石匙　刃器　剥片　土師器　陶磁器",139.2768583,35.65561522,TRUE
13201012200,13201,"122","","八王子市No.122遺跡","八王子市 廿里町","[中世][近世]","包蔵地","[平安時代][中世]地下式土坑","",139.2794486,35.64417696,TRUE
13201012900,13201,"129","ひらつかいせき","平塚遺跡","八王子市 山田町　 散田町二丁目　 台町","[縄文時代（早期〜中期）][弥生時代（中期〜後期）][古墳時代][奈良時代][平安時代][中世][近世]","集落","[縄文時代]集石　土坑　[古墳時代]住居　土坑　溝　円形周溝墓　[時代不明]敷石状遺構　道状遺構　土坑","縄文土器　打斧　石皿　弥生土器　土師器　須恵器　石器　鉄鏃　銅製品",139.319096,35.64811883,TRUE
13201013700,13201,"137","はつさわじょう（くぬぎだじょう・こうじょうじょう）あと","初沢城（椚田城・高乗城）跡","八王子市 初沢町","[中世]","城館","[中世]本丸　堀切　曲輪　櫓台　土塁","",139.2795516,35.63572276,TRUE
13201014100,13201,"141","","八王子市No.141遺跡","八王子市 椚田町","[中世][近世]","包蔵地","","",139.3099652,35.63482737,TRUE
13201014300,13201,"143","ひなたよつやいせき","日向四谷遺跡","八王子市 椚田町　 館町","[縄文時代（早期〜後期）][弥生時代（後期）][古墳時代][平安時代][中世][近世]","集落","[縄文時代]焼土　土坑　ピット群　[弥生時代]住居　[古墳時代]住居　ピット　[平安時代]住居　[時代不明]土坑","縄文土器　打斧　石鏃　掻器　ピエス・エスキーユ　石皿　磨石　石核　弥生土器　土師器　須恵器　琥珀玉　陶磁器",139.2961636,35.63686444,TRUE
13201014500,13201,"145","ひなたいせき","日南田遺跡","八王子市 寺田町　 館町","[縄文時代（早期〜中期）][弥生時代][古墳時代][奈良時代][平安時代][中世][近世]","集落","[縄文時代]住居　集石　炉穴　焼土　陥穴　屋外埋甕　土坑　ピット　[平安時代]住居　溝　[古墳時代]住居　堀立柱建物跡　土坑　溝","縄文土器　石器　土製品　土師器　須恵器　銭貨　鉄製品　陶磁器",139.3074689,35.62973917,TRUE
13201015800,13201,"158","ときた（みなみはちおうじちくNo.4）いせき","時田（南八王子地区No.4）遺跡","八王子市 小比企町","[縄文時代（草創期〜後期）][弥生時代][奈良時代][平安時代][中世][近世]","集落・その他（鍛冶遺構）","[縄文時代]住居　集石　[平安時代]住居　掘立柱建物　工房　土坑　[中世][近世]土坑　溝　道　鍛冶遺構","縄文土器　石器　弥生土器　土師器　須恵器　鉄製品　銭貨",139.3291254,35.6397966,TRUE
13201016100,13201,"161","みなみはちおうじちくNo.5いせき","南八王子地区No.5遺跡","八王子市 片倉町","[縄文時代（前期〜中期）][古墳時代][奈良時代][平安時代][中世][近世]","集落","[縄文時代]陥し穴　土坑　[古墳時代]住居　[平安時代]住居　[中世]土坑　溝状遺構　道状遺構","縄文土器　打斧　礫器　石鏃　掻器　土師器　須恵器　陶器　鉄製品",139.3319614,35.6404401,TRUE
13201016400,13201,"164","かたくら（みなみはちおうじちくNo.2）いせき","片倉（南八王子地区No.2）遺跡","八王子市 片倉町","[旧石器時代][縄文時代（早期〜後期）][弥生時代][古墳時代][奈良時代][平安時代][中世][近世]","集落","[時代不明]住居","ナイフ形石器　刃器　縄文土器　打斧　磨斧　土師器　陶磁器",139.334502,35.63893341,TRUE
13201016500,13201,"165","かたくらじょうあと","片倉城跡","八王子市 片倉町","[中世]","城館","[中世]堀切曲輪　櫓台　土塁","",139.3369739,35.63915663,TRUE
13201016600,13201,"166","ごうだばら（みなみはちおうじちくNo.12）いせき","郷田原(南八王子地区No.12）遺跡","八王子市 西片倉二丁目　 西方倉三丁目　 みなみ野一丁目","[旧石器時代][縄文時代（早期〜後期）][弥生時代][古墳時代][奈良時代][平安時代][中世][近世]","集落","[縄文時代]住居　柄鏡形住居　小堅穴　炉穴　埋甕　集石　土坑　[弥生時代]住居　[古墳時代]住居　[奈良時代]住居　[中世]地下式坑　[近世]胞衣埋納","旧石器　縄文土器　石器　土製品　土師器　須恵器　石製品　胞衣容器",139.3302584,35.63549962,TRUE
13201016700,13201,"167","みなみはちおうじちくNo.11いせき","南八王子地区No.11遺跡","八王子市 西片倉二丁目","[縄文時代（早期〜後期）][弥生時代（後期）][古墳時代][奈良時代][平安時代][中世]","集落","[縄文時代]住居　掘立柱建物　集石　炉穴　陥穴　土坑墓　[弥生時代]住居　[古墳時代]住居　土坑　[中世以降]土坑 ムロ状遺構　炭焼窯","縄文土器　石器　弥生土器　土師器",139.333108,35.63650413,TRUE
13201017400,13201,"174","","八王子市No.174遺跡","八王子市 打越町　 北野町　 子安二丁目","[縄文時代（早期〜後期）][奈良時代][平安時代][中世][近世]","集落・墳墓","[縄文時代]住居跡　炉穴　陥穴　土坑　ピット　集石 [奈良時代][平安時代]住居跡　掘立柱建物跡　土坑　ピット [中世][近世]掘立柱建物跡　柵列　段切り　溝　土坑　集石墓　火葬墓　ピット [近世以降]溝　道","縄文土器　石器　土師器　須恵器　陶磁器　鉄製品　木製品　瓦　石製品　五輪塔　銭貨　板碑　灰釉陶器",139.3440409,35.64682822,TRUE
13201021600,13201,"216","たまにゅーたうんNo.324いせき","多摩ニュータウンNo.324遺跡","八王子市 鑓水町","[奈良時代][平安時代][中世][近世]","包蔵地","","土師器　陶器",139.3532319,35.61331453,TRUE
13201022400,13201,"224","たまにゅーたうんNo.237いせき","多摩ニュータウンNo.237遺跡","八王子市 鑓水","[縄文時代（早期〜後期）][奈良時代][平安時代][中世][近世]","包蔵地","※町田市No.856遺跡と一連の多摩ニュータウン遺跡　 [縄文時代]集石　炉　焼土　土坑　[奈良時代][平安時代]土坑　[近世]土坑　井戸　溝","縄文土器　石鏃　スタンプ形石器　土師器　須恵器　陶磁器",139.3473468,35.60949397,TRUE
13201022500,13201,"225","たまにゅーたうんNo.325いせき","多摩ニュータウンNo.325遺跡","八王子市 鑓水","[縄文時代（早期〜後期）][平安時代][中世][近世]","集落","[縄文時代]集石　土坑　[平安時代]建物　焼土　柱穴　土坑　石組遺構　[近世]土坑　井戸　畝　段切り　道　馬埋葬遺構","縄文土器　打斧　礫器　石鏃　削器　石皿　磨石　石核　土師器　須恵器　土師質土器　　舶載陶磁器　　砥石　鉄製品　陶磁器　ホウロク　土製品　金具　煙管　銭貨　馬歯",139.352592,35.61173947,TRUE
13201023400,13201,"234","たまにゅーたうんNo.224いせき","多摩ニュータウンNo.224遺跡","八王子市 鑓水","[縄文時代][奈良時代][平安時代][中世]","包蔵地","[平安時代]土坑","縄文土器　土師器　須恵器　陶器",139.3609089,35.61187858,TRUE
13201023800,13201,"238","たまにゅーたうんNo.226いせき","多摩ニュータウンNo.226遺跡","八王子市 鑓水","[縄文時代（前期〜中期）][古墳時代][平安時代][中世][近世]","集落","[縄文時代]住居　土坑　[平安時代]住居　[時代不明]炭窯","縄文土器　土師器　須恵器　陶磁器",139.3608905,35.61061381,TRUE
13201024100,13201,"241","たまにゅーたうんNo.304いせき","多摩ニュータウンNo.304遺跡","八王子市 鑓水","[旧石器時代][縄文時代（前期〜後期）][弥生時代（中期）][古墳時代][奈良時代][平安時代][中世]","集落","[縄文時代]敷石住居　集石　陥し穴　土坑　[古墳時代]?[中世]土坑　[平安時代]住居　焼成坑　[平安時代][中世]土坑","ナイフ形石器　礫器　縄文土器　打斧　礫器　有舌尖頭器　削器　石皿　磨石　両面加工石　器　弥生土器　土師器　須恵器　土師質土器　陶器（灰釉）　砥石　鉄製品　瓦",139.3622479,35.6096875,TRUE
13201024600,13201,"246","たまにゅーたうんNo.307いせき","多摩ニュータウンNo.307遺跡","八王子市 鑓水","[縄文時代（早期〜後期）][弥生時代（中期）][古墳時代][奈良時代][平安時代][中世][近世]","集落","※町田市No.871遺跡と一連の多摩ニュータウン遺跡　[縄文時代]集石　集石土坑　炉　陥し穴　土坑　[古墳時代]土坑　[平安時代]住居　[近世]道","縄文土器　打斧　礫器　石鏃　削器　石匙　石皿　磨石　石核　弥生土器　土師器　須恵器　陶磁器　鉄釘　砥石　石臼　煙管　銭貨",139.3607207,35.60625203,TRUE
13201025800,13201,"258","たまにゅーたうんNo.213いせき","多摩ニュータウンNo.213遺跡","八王子市 上柚木","[旧石器時代][縄文時代（早期〜後期）][古墳時代][奈良時代][平安時代][中世][近世]","集落","[旧石器時代]]石器製作址　土坑　[近世]建物　柱穴　土坑　室　階段　畝　配石　段切状遺構　削平面　溝　墓壙","ナイフ形石器　掻器　石核　剥片　炭化材　縄文土器　打斧　礫器　尖頭器　石鏃　石皿　磨石　凹石　土師器　須恵器　瓦　陶磁器　舶載陶磁器　硯　砥石　金属製品　銭貨　人骨",139.3653004,35.61815663,TRUE
13201025900,13201,"259","たまにゅーたうんNo.184いせき","多摩ニュータウンNo.184遺跡","八王子市 上柚木","[平安時代][中世]","包蔵地","[時代不明]焼土　土坑　溝","土師器　須恵器　陶器",139.3686814,35.61709453,TRUE
13201026300,13201,"263","たまにゅーたうんNo.182いせき","多摩ニュータウンNo.182遺跡","八王子市 上柚木","[縄文時代（早期〜中期）][古墳時代][奈良時代][平安時代][中世][近世]","集落","[縄文時代]住居　集石　土坑　石鏃製作址　[古墳時代]土坑　[奈良時代][平安時代]住居　土坑　[平安時代]?[近世]土坑　溝　[近世]井戸　炭窯　段切状遺構　溝　墓","縄文土器　打斧　磨斧　礫器　尖頭器　石鏃　掻器　石皿　磨石　敲石　石核　土師器　須恵器　陶器（灰釉）　鉄製品　陶磁器　銭貨",139.3691485,35.61824036,TRUE
13201026700,13201,"267","たまにゅーたうんNo.177いせき","多摩ニュータウンNo.177遺跡","八王子市 上柚木","[旧石器時代][縄文時代（早期〜中期）][中世][近世]","包蔵地","[縄文時代]集石　土坑　[近世]土坑　炭窯","ナイフ形石器　縄文土器　打斧　礫器　板碑　陶磁器　瓦質土器　鉄鎌",139.3727011,35.62159541,TRUE
13201027500,13201,"275","たまにゅーたうんNo.496いせき","多摩ニュータウンNo.496遺跡","八王子市 上柚木　 下柚木","[旧石器時代][縄文時代（早期〜中期）][奈良時代][平安時代][中世][近世]","集落","[旧石器時代]]遺物集中地点　[縄文時代]住居　集石　土坑　[平安時代][中世]ピット　土坑　集石　井戸　[中世][近世]建物　竪穴状遺構　ピット　土坑　地下式土坑　焼土　井戸　段切状遺構　溝","ナイフ形石器　尖頭器　掻器　敲石　石核　剥片　縄文土器　打斧　礫器　石鏃　掻器　石皿　須恵器　陶磁器　土師質土器　瓦器　舶載陶磁器　鉄製品　砥石　石臼　編み石　銭貨",139.3780428,35.6225287,TRUE
13201029700,13201,"297","たまにゅーたうんNo.493いせき","多摩ニュータウンNo.493遺跡","八王子市 上柚木","[旧石器時代][縄文時代（前期）][奈良時代][平安時代][中世][近世]","集落","[縄文時代]集石　焼土　土坑　[奈良時代][平安時代]住居　[平安時代][中世]水溜め　[近世]ピット　井戸　溝　[時代不明]土坑","剥片　縄文土器　石器　土師器　須恵器　鉄斧　鉄鏃　木製品　陶磁器　土人形",139.3793244,35.62359721,TRUE
13201030000,13201,"300","たまにゅーたうんNo.115いせき","多摩ニュータウンNo.115遺跡","八王子市 下柚木","[旧石器時代][縄文時代（早期〜中期）][奈良時代][平安時代][中世][近世]","集落","[旧石器時代]]礫群　[縄文時代]住居　集石　土坑　[近世]土坑　井戸　炭窯　溝","尖頭器　縄文土器　石器　陶磁器　カワラケ",139.3806864,35.62418919,TRUE
13201030100,13201,"301","たまにゅーたうんNo.113いせき","多摩ニュータウンNo.113遺跡","八王子市 下柚木","[旧石器時代][縄文時代（前期〜中期）][奈良時代][平安時代][中世][近世]","集落・社寺","[旧石器時代]]礫群　[縄文時代]住居　集石　炉　土坑　配石　[奈良時代][平安時代]住居　土坑　[中世]ピット　集石　土坑　井戸　土坑　地下式横穴　炭窯　墓壙　[近世]土坑　井戸　段切状遺構　溝","ナイフ形石器　尖頭器　剥片　縄文土器　打斧　磨斧　石鏃　土師器　須恵器　鉄斧　刀子　陶磁器　カワラケ　和鏡　銭貨",139.381579,35.62494268,TRUE
13201030500,13201,"305","たまにゅーたうんNo.407いせき","多摩ニュータウンNo.407遺跡","八王子市 上柚木　 下柚木","[縄文時代（早期〜中期）][弥生時代][奈良時代][平安時代][中世][近世]","包蔵地","[縄文時代]集石　土坑　[平安時代]円形土坑　[中世][近世]地下式土坑　井戸","縄文土器　尖頭器　石器　弥生土器　土師器　須恵器　陶磁器　砥石",139.3764987,35.61672365,TRUE
13201030700,13201,"307","たまにゅーたうんNo.433いせき","多摩ニュータウンNo.433遺跡","八王子市 越野","[旧石器時代][縄文時代（早期〜中期）][奈良時代][平安時代][中世][近世]","集落","[縄文時代]住居　土坑　[奈良時代][平安時代]土坑　[中世][近世]建物　柱穴群　焼土　井戸　地下式土坑　墓塚　段切り　溝","石核　剥片　縄文土器　石器　板碑　陶磁器　砥石　桶　曲物　漆器",139.3940519,35.62817418,TRUE
13201030800,13201,"308","たまにゅーたうんNo.105いせき","多摩ニュータウンNo.105遺跡","八王子市 越野　 堀之内","[旧石器時代][縄文時代（早期〜後期）][古墳時代][平安時代][中世][近世]","集落・塚","[旧石器時代]]礫群　[縄文時代]住居　集石　焼土　陥し穴　土坑　[古墳時代]土坑　[平安時代]住居　火葬墓　[中世][近世]建物　竪穴状遺構　地下室　地下式土坑　焼土　井戸　炭窯　[近世]建物　土坑　池　井戸　暗渠　段切状遺構　溝　道　墓壙","ナイフ形石器　尖頭器　敲器　剥片　縄文土器　打斧　磨斧　礫器　磨製尖頭器　石鏃　掻器　石皿　磨石　スタンプ形石器　土製円板　ミニチュア土器　土師器　陶器　釘　陶磁器　土師質土器　舶載陶磁器　板碑　瓦質土器　砥石　石臼　硯　鉄製品　柄鏡　煙管　桶　人骨",139.3945743,35.62913746,TRUE
13201030900,13201,"309","たまにゅーたうんNo.432いせき","多摩ニュータウンNo.432遺跡","八王子市 越野","[旧石器時代][縄文時代（早期〜中期）][奈良時代][平安時代][中世][近世]","集落","[縄文時代]住居　集石　焼土　土坑　[奈良時代][平安時代]住居　火葬墓　[奈良時代][平安時代][中世]土坑　[中世]堀　[近世]馬埋設遺構","石器　縄文土器　石器　土師器　須恵器　陶磁器　鉄製品",139.391271,35.63153676,TRUE
13201031000,13201,"310","たまにゅーたうんNo.484いせき","多摩ニュータウンNo.484遺跡","八王子市 南大沢","[縄文時代（早期〜中期）][弥生時代][平安時代][中世]","包蔵地","[縄文時代]土坑　[中世][古墳時代]銭埋納ピット　[時代不明]土坑","縄文土器　石器　弥生土器　土師器　銭貨　鉄滓",139.3819218,35.61920393,TRUE
13201031100,13201,"311","たまにゅーたうんNo.394いせき","多摩ニュータウンNo.394遺跡","八王子市 南大沢","[旧石器時代][縄文時代（早期〜中期）][奈良時代][平安時代][中世][近世]","包蔵地","[時代不明]集石状遺構　炭窯　段状遺構　溝状遺構","尖頭器　縄文土器　打斧　土師器　陶磁器",139.3830498,35.61800697,TRUE
13201031200,13201,"312","たまにゅーたうんNo.403いせき","多摩ニュータウンNo.403遺跡","八王子市 南大沢","[奈良時代][平安時代][中世][近世]","包蔵地","","瓦　陶磁器",139.3849579,35.61999468,TRUE
13201031300,13201,"313","たまにゅーたうんNo.282いせき","多摩ニュータウンNo.282遺跡","八王子市 南大沢","[中世][近世]","塚","","",139.3816596,35.61898615,TRUE
13201031400,13201,"314","たまにゅーたうんNo.162いせき","多摩ニュータウンNo.162遺跡","八王子市 南大沢","[中世][近世]","塚","","",139.3795598,35.61825317,TRUE
13201031500,13201,"315","たまにゅーたうんNo.163いえき","多摩ニュータウンNo.163遺跡","八王子市 南大沢","[中世][近世]","塚","","",139.3786553,35.61721155,TRUE
13201031600,13201,"316","たまにゅーたうんNo.164いせき","多摩ニュータウンNo.164遺跡","八王子市 南大沢","[中世][近世]","塚","","",139.3786719,35.61701388,TRUE
13201031700,13201,"317","たまにゅーたうんNo.297いせき","多摩ニュータウンNo.297遺跡","八王子市 南大沢","[縄文時代（中期）][奈良時代][平安時代][中世][近世]","包蔵地","","縄文土器　土師器　瓦器　陶磁器",139.3802686,35.61699823,TRUE
13201031800,13201,"318","たまにゅーたうんNo.296いせき","多摩ニュータウンNo.296遺跡","八王子市 南大沢","[縄文時代（早期〜中期）][奈良時代][平安時代][中世][近世]","包蔵地","[縄文時代]集石　[中世]集石　墓","縄文土器　石器　土師器　須恵器　陶磁器",139.3816531,35.61756041,TRUE
13201032100,13201,"321","たまにゅーたうんNo.358いせき","多摩ニュータウンNo.358遺跡","八王子市 南大沢","[縄文時代（前期）][奈良時代][平安時代][中世][近世]","集落","[縄文時代]住居　竪穴状遺構　土坑　[奈良時代][平安時代]土坑　[中世]地下式土坑　段切り　[近世]炭窯　墓壙","縄文土器　石器　板碑",139.3778997,35.61466531,TRUE
13201032400,13201,"324","たまにゅーたうんNo.179いせき","多摩ニュータウンNo.179遺跡","八王子市 南大沢","[縄文時代（中期）][中世][近世]","塚","[近世]集石","縄文土器　銭貨",139.3714051,35.61340262,TRUE
13201032500,13201,"325","たまにゅーたうんNo.354いせき","多摩ニュータウンNo.354遺跡","八王子市 南大沢","[縄文時代（早期〜中期）][古墳時代][奈良時代][平安時代][中世][近世]","包蔵地","[縄文時代]土坑　[古墳時代]土坑　[奈良時代]?[中世]焼土　土坑　[近世]土坑　溝状遺構　道路","縄文土器　打斧　礫器　石鏃　削器　石匙　石皿　磨石　石核　土師器　陶器　瓦質土器　煙管　銭貨",139.3721891,35.61356923,TRUE
13201032900,13201,"329","たまにゅーたうん No.352いせき","多摩ニュータウンNo.352遺跡","八王子市 南大沢","[旧石器時代][縄文時代（早期〜中期）][奈良時代][平安時代][中世][近世]","集落","[縄文時代]土坑　[奈良時代][平安時代]住居　炉　焼土　土坑　[中世]地下式土坑　[近世]掘立柱建物　土坑　井戸　炭窯　墓","尖頭器　縄文土器　石器　土師器　須恵器　陶磁器　鉄器　鉄鎌　石臼　銭貨　炭化物",139.3736002,35.61338142,TRUE
13201033400,13201,"334","たまにゅーたうんNo.359いせき","多摩ニュータウンNo.359遺跡","八王子市 南大沢","[縄文時代（前期・後期）][平安時代][中世]","包蔵地","[縄文時代]土坑　[奈良時代][平安時代]土坑　町田市 No.124遺跡と一体","縄文土器　土師器　須恵器　陶磁器",139.3787107,35.61064974,TRUE
13201033800,13201,"338","たまにゅーたうんNo.144いせき","多摩ニュータウンNo.144遺跡","八王子市 南大沢","[旧石器時代][縄文時代（早期〜中期）][奈良時代][平安時代][中世][近世]","集落","[縄文時代]土坑　[平安時代]住居　円形土坑　[近世]炭窯","ナイフ形石器　尖頭器　縄文土器　石器　土師器　須恵器　鉄製品　土製品",139.3790646,35.60725164,TRUE
13201035700,13201,"357","たまにゅーたうんNo.204いせき","多摩ニュータウンNo.204遺跡","八王子市 南大沢","[縄文時代（前期〜中期）][奈良時代][平安時代][中世]","包蔵地","","縄文土器　砥石　土師器　須恵器　陶磁器",139.3832983,35.60334059,TRUE
13201036200,13201,"362","たまにゅーたうんNo.189いせき","多摩ニュータウンNo.189遺跡","八王子市 南大沢","[縄文時代（早期〜後期）][中世][近世]","包蔵地","","縄文土器　磁器",139.3867066,35.59996286,TRUE
13201036300,13201,"363","たまにゅーたうんNo.188いせき","多摩ニュータウンNo.188遺跡","八王子市 南大沢","[縄文時代（早期〜後期）][奈良時代][平安時代][中世][近世]","集落","[縄文時代]炉穴　焼土群","縄文土器　土師器　陶磁器",139.3875236,35.60162689,TRUE
13201036600,13201,"366","たまにゅーたうんNo.125・126（まつきやしきあと）いせき","多摩ニュータウンNo.125・126（松木屋敷跡）遺跡","八王子市 松木","[旧石器時代][縄文時代（草創期・前期〜晩期）][古墳時代][奈良時代][平安時代][中世][近世]","集落・城館・その他の墓","[旧石器時代]]遺物集中地点　礫群　[縄文時代]住居　集石土坑　[古墳時代]住居　井戸　[奈良時代][平安時代]住居　建物　焼土　土坑　溝　[中世][近世]建物　竪穴状遺構　ピット群　土坑　地下式土坑　地下室　墓壙　溝","ナイフ形石器　尖頭器　掻器　彫器　磨石　石核　打面再生剥片　剥片　縄文土器　打斧　礫器　尖頭器　有舌尖頭器　石鏃　掻器　石皿　磨石　凹石　石核　円板　けつ状耳飾　陶磁器　土師質土器　瓦質土器　舶載陶磁器　石製品　板碑　宝篋印塔　宝篋印塔",139.3935576,35.62377666,TRUE
13201036700,13201,"367","たまにゅーたうんNo.389いせき","多摩ニュータウンNo.389遺跡","八王子市 松木","[縄文時代（早期〜後期）][古墳時代][奈良時代][平安時代][中世][近世]","集落","[縄文時代]集石　土坑　[古墳時代]土坑　[奈良時代][平安時代]住居　土坑　遺物　集中地点　[近世]建物　土坑　貯蔵穴　粘土採掘坑　炭窯　溝","縄文土器　打斧　磨斧　礫器　有舌尖頭器　石鏃　石皿　磨石　スタンプ形石器　敲石　土師器　須恵器　陶器（灰釉）　円板状土製品　陶磁器　瓦　砥石　石臼　鉄製品　銭貨",139.3963965,35.62382269,TRUE
13201037000,13201,"370","たまにゅーたうんNo.400いせき","多摩ニュータウンNo.400遺跡","八王子市 松木","[旧石器時代][縄文時代（早期・中期）][奈良時代][平安時代][中世]","集落","[旧石器時代]]ユニット　[縄文時代]炉穴　土坑　[奈良時代][平安時代]住居　土坑　[中世]地下式土坑","ナイフ形石器　尖頭器　細石核　細石刃　掻器　削器　縄文土器　石器　土師器　須恵器　陶磁器　鉄器",139.391429,35.62049749,TRUE
13201037200,13201,"372","たまにゅーたうんNo.393いせき","多摩ニュータウンNo.393遺跡","八王子市 松木","[旧石器時代][縄文時代（前期〜中期）][中世][近世]","集落","[旧石器時代]]ユニット　[縄文時代]集石　土坑　[中世][近世]竪穴状遺構　地下式土坑　溝","尖頭器　剥片　礫　縄文土器　石器　陶磁器　鉄滓",139.3898794,35.61902245,TRUE
13201037600,13201,"376","たまにゅーたうんNo.398いせき","多摩ニュータウンNo.398遺跡","八王子市 松木","[縄文時代（早期〜前期・後期）][古墳時代][平安時代][中世][近世]","集落","[縄文時代]集石　[近世]建物　炭窯","縄文土器　石器　土師器　須恵器　陶器（灰釉）　銭貨",139.3895129,35.61678974,TRUE
13201037700,13201,"377","たまにゅーたうんNo.131いせき","多摩ニュータウンNo.131遺跡","八王子市 松木","[縄文時代（早期〜中期）][中世][近世]","包蔵地","","縄文土器　石鏃　削器　打製石器　磁器",139.387876,35.61857173,TRUE
13201037800,13201,"378","たまにゅーたうんNo.396いせき","多摩ニュータウンNo.396遺跡","八王子市 松木","[旧石器時代][縄文時代（早期〜中期）][奈良時代][平安時代][中世][近世]","集落","[旧石器時代]]ユニット　[縄文時代]集石　焼土　土坑　[平安時代]住居　土坑　[中世]地下式土坑","石器　縄文土器　石器　土師器　須恵器　陶器（灰釉）　陶磁器",139.3878649,35.61793403,TRUE
13201037900,13201,"379","たまにゅーたうんNo.397いせき","多摩ニュータウンNo.397遺跡","八王子市 松木","[縄文時代][奈良時代][平安時代][中世][近世]","包蔵地","","縄文土器　土師器　陶磁器",139.3889623,35.61760974,TRUE
13201038200,13201,"382","たまにゅーたうんNo.287・290・405いせき","多摩ニュータウンNo.287・290・405遺跡","八王子市 松木","［旧石器時代］[縄文時代（草創期〜後期）][弥生時代（中期）][奈良時代][平安時代][中世][近世]","集落・城館","［旧石器時代］遺物集中地点　礫群　［縄文時代］集石　集石土坑　陥し穴　土坑　[奈良時代]?[平安時代]住居　土坑　[中世]?[近世]建物　竪穴状遺構　ピット　土坑　土蔵状遺構　焼土　池　井戸　炭窯　段切状遺構　基壇状遺構　溝　道路　墓壙　集石墓　石組　配石","ナイフ形石器　尖頭器　削器　彫器　剥片　炭化物　縄文土器　打斧　磨斧　礫器　石鏃　石匙　石皿　磨石　敲石　台石　骨角器　弥生土器　土師器　須恵器　鉄製品　紡錘車　土鈴　飾金具　瓦　陶磁器　カワラケ　舶載陶磁器　陶鈴　石製品　土錘　漆器桶　木製品　碁石　銭貨　煙管　板碑　宝篋印塔　宝塔　写経石　人歯",139.3892553,35.62578506,TRUE
13201038800,13201,"388","たまにゅーたうんNo.283いせき","多摩ニュータウンNo.283遺跡","八王子市 松木","[中世][近世]","塚","","",139.3874015,35.62386455,TRUE
13201038900,13201,"389","たまにゅーたうんNo.107いせき","多摩ニュータウンNo.107遺跡","八王子市 松木","[旧石器時代][縄文時代（早期〜後期）][古墳時代][奈良時代][平安時代][中世][近世]","集落・城館","[縄文時代]住居　集石　土坑　[古墳時代]土坑　溝　[平安時代]?[中世]住居　ピット　土坑　溝　[中世]建物　墓　段切状遺構　[近世]土坑　集石　水路（水車）　炭窯　溝　濠状遺構（道）","縄文土器　打斧　礫器　石鏃　石皿　磨石　スタンプ形石器　敲石　土錘　耳飾　垂飾　土偶　土師器　須恵器　鉄製品　炭化種子　陶磁器　土師質土器　舶載陶磁器　火鉢　金属製品　砥石　瓦　板碑　石臼　杭板",139.3882042,35.62683922,TRUE
13201039300,13201,"393","たまにゅーたうんNo.388いせき","多摩ニュータウンNo.388遺跡","八王子市 松木","[旧石器時代][縄文時代（早期〜後期）][弥生時代][古墳時代][奈良時代][平安時代][中世][近世]","集落","[旧石器時代]]遺物集中地点 [縄文時代]土坑 [古墳時代]土坑 [奈良時代]住居 [平安時代]住居 土坑 [中世][近世]建物 柱穴 土坑 地下式土坑 井戸 削平面 溝","ナイフ形石器 尖頭器 細石刃 細石刃核 掻器 削器 彫器 打斧 礫器 敲石 磨石 剥片 礫 縄文土器 打斧 礫器 尖頭器 石鏃 石皿 磨石 土師器 須恵器 砥石 鉄製品 紡錘車 陶磁器 板碑 銭貨 瓦質土器 土製品 瓦 石製品 金属製品",139.3963559,35.62458597,TRUE
13201039700,13201,"397","たまにゅーたうんNo.799えーいせき","多摩ニュータウンNo.799A遺跡","八王子市 越野","[旧石器時代][縄文時代（早期〜中期）][古墳時代][奈良時代][平安時代][中世][近世]","集落","[縄文時代]集石 集石土坑 土坑 [古墳時代]焼土 [中世]掘立柱建物 竪穴状遺構 井戸 土坑 地下式土坑 墓壙 溝 [近世]建物 竪穴状遺構 ピット 土坑 池 焼土 井戸 段切状遺構 溝 道路状遺構","ナイフ形石器 尖頭器 石核 縄文土器 石器 炭化物 土師器 須恵器 陶器（灰釉） 舶載陶磁器 陶磁器 カワラケ 土師質土器 茶臼 土製品 石製品 金属製品 木製品 ガラス製品 板碑 五輪塔 銭貨",139.3910135,35.63019733,TRUE
13201040000,13201,"400","たまにゅーたうんNo.72・795いせき","多摩ニュータウンNo.72・795遺跡","八王子市 堀之内","[旧石器時代][縄文時代（前期〜中期）][奈良時代][平安時代][中世]［近世］","包蔵地・集落","[旧石器時代]]遺物集中地点　[縄文時代]土坑　住居跡　埋設土器　方形柱穴列　集石　墓壙　陥穴土坑　焼土跡　炉穴　埋甕　ピット群　配石　[古墳時代]土坑　溝　[奈良時代]住居跡　建物跡　溝　[平安時代]土坑　住居跡　[中世]土坑　水田　[近世]竪穴状遺構　井戸　階段状　土坑　[古代]土坑　地下式坑　建物跡　溝　竪穴状遺構","尖頭器　削器　剥片　掻器　石核　石斧素材　局部磨製石斧　台石　槍先形尖頭器　スクレイパー　ハンマー　打製石斧未製品　ナイフ形石器　細石核　礫器　石核　ポイント　打製石斧　磨製石斧　縄文土器　石棒　土偶　土製品　土鈴　弥生土器　土師器　須恵器　灰釉陶器　鉄製品　土製紡錘車　帯金具　銀環　陶磁器　瓦器　羽釡　石臼　銭貨　器台　ミニュチュア土器　耳飾　垂飾　仮面状　三角柱状　鍬形土",139.3996898,35.62983028,TRUE
13201040100,13201,"401","たまにゅーたうんNo.446いせき","多摩ニュータウンNo.446遺跡","八王子市 東中野","[旧石器時代][縄文時代（早期〜後期）][古墳時代][奈良時代][平安時代][中世]［近世］","集落","[縄文時代]住居　敷石住居　集石　炉　土坑　[古墳時代]住居　[奈良時代][平安時代]住居　土坑　[中世]地下式土坑","ナイフ形石器　細石刃　縄文土器　石器　垂飾　土偶　ミニチュア土器　土師器　須恵器　円筒埴輪　板碑",139.4024807,35.63351068,TRUE
13201041000,13201,"410","たまにゅーたうんNo.419いせき","多摩ニュータウンNo.419遺跡","八王子市 堀之内","[縄文時代（早期〜後期）][弥生時代][奈良時代][平安時代][中世][近世]","集落","[縄文時代]集石　土坑　[奈良時代][平安時代]住居　土坑　[中世]ピット群　井戸　土坑　地下式土坑　溝　[中世][近世]土坑　[近世]竪穴状遺構　ピット群　井戸　溝　墓","縄文土器　打斧　石鏃　剥片　弥生土器　土師器　須恵器　陶器（灰釉）　鎌　刀子　鉄鏃　土製紡錘車　陶磁器　銭貨",139.4001494,35.62469054,TRUE
13201041300,13201,"413","たまにゅーたうんNo.436いせき","多摩ニュータウンNo.436遺跡","八王子市 堀之内","[縄文時代（早期・中期）][奈良時代][平安時代][中世][近世]","集落","[縄文時代]土坑　墓壙　[平安時代]住居　土坑　[中世][近世]建物　井戸　土坑　地下式土坑　畑　溝","縄文土器　石器　土師器　須恵器　刀子　陶磁器",139.3973825,35.63194266,TRUE
13201041500,13201,"415","たまにゅーたうんNo.444いせき","多摩ニュータウンNo.444遺跡","八王子市 東中野","[縄文時代（早期〜中期）]［弥生時代（中期）］[奈良時代][平安時代]［中世］","集落","","",139.402325,35.63492891,TRUE
13201041800,13201,"418","たまにゅーたうんNo.421いせき","多摩ニュータウンNo.421遺跡","八王子市 堀之内","[旧石器時代][縄文時代（早期〜後期）][弥生時代（中期）][古墳時代][奈良時代][平安時代][中世][近世]","集落","[旧石器時代]]ユニット　[縄文時代]集石　土坑　埋甕　[奈良時代][平安時代]住居　建物　土坑　[中世]井戸　[中世][近世]柱穴群　溝　[近世]柱穴群　井戸　墓群","ナイフ形石器　尖頭器　礫器　石核　剥片　縄文土器　石器　弥生土器　土師器　須恵器　陶器（灰釉）　鉄製品　円面硯　土製品　陶磁器　土器　舶載陶磁器　石製品　銅製品　煙管　板碑　銭貨　人骨",139.4003084,35.62568867,TRUE
13201041900,13201,"419","たまにゅーたうんNo.423いせき","多摩ニュータウンNo.423遺跡","八王子市 堀之内","[縄文時代（早期〜後期）][弥生時代][奈良時代][平安時代][中世]","集落","[縄文時代]集石　土坑　[奈良時代]住居　[平安時代]溝　[中世]建物　地下式土坑","縄文土器　石器　弥生土器　土師器　須恵器　陶磁器　板碑",139.4042146,35.62825919,TRUE
13201042000,13201,"420","たまにゅーたうんNo.424いせき","多摩ニュータウンNo.424遺跡","八王子市 堀之内","[旧石器時代][縄文時代（早期〜後期）][古墳時代][奈良時代][平安時代][中世][近世]","集落","[縄文時代]住居　集石　土坑　埋甕　[古墳時代]ピット　井戸　溝　[奈良時代][平安時代]住居　土坑　[中世][近世]建物　柱穴群　井戸　土坑　炭窯　段切状遺構　溝　道路状遺構","ナイフ形石器　尖頭器　有茎尖頭器　掻器　削器　礫器　剥片　縄文土器　石器　硬玉製垂飾　土製品　土師器　須恵器　砥石　鉄製品　紡錘車　滑石製紡錘車　円面硯　陶磁器　土師質土器　舶載陶磁器　砥石　石臼　瓦　木製品　銭貨",139.4061105,35.62778164,TRUE
13201042100,13201,"421","たまにゅーたうんNo.426いせき","堀ノ内（多摩ニュータウンNo.426）遺跡","八王子市 堀之内","[旧石器時代][縄文時代（草創期〜晩期）][弥生時代（中期）][古墳時代][奈良時代][平安時代][中世][近世]","集落","[旧石器時代]]ユニット　[縄文時代]住居　集石　集石土坑　炉穴　焼土　土坑　墓壙　[古墳時代]住居　土坑　[奈良時代][平安時代]住居　土坑　[中世]建物　竪穴状遺構　ピット　柱穴列　集石　井戸　土坑　地下式土坑　溝　[近世]建物　柱穴群　土坑　井戸　炭窯　段切状遺構　溝　墓壙","ナイフ形石器　尖頭器　有茎尖頭器　細石刃　掻器　削器　石錐　石斧　礫器　敲石　台石　石核　剥片　原石　礫　縄文土器　石槍　有茎尖頭器　石器　土製円板　弥生土器　土師器　須恵器　支脚　鉄製品　石製品　紡錘車　炭化材　陶磁器　土師質土器　陶器（灰釉・緑釉）　舶載陶磁器　石臼　瓦　銭貨　骨粉",139.4063912,35.62935982,TRUE
13201042500,13201,"425","たまにゅーたうんNo.391いせき","多摩ニュータウンNo.391遺跡","八王子市 別所","[縄文時代（前期〜中期）][弥生時代（中期）][奈良時代][平安時代][中世][近世]","城館","[奈良時代][平安時代]製鉄関連遺構　[平安時代]溝　[近世]建物　土坑　炭窯","縄文土器　打斧　磨斧　磨石　弥生土器　土師器　須恵器　陶磁器　土師質土器　瓦質土器　鉄製品　石製品　銅製品　銭貨",139.3969421,35.62165023,TRUE
13201042900,13201,"429","たまにゅーたうんNo.414いせき","多摩ニュータウンNo.414遺跡","八王子市 別所","[縄文時代（前期〜中期）][古墳時代][奈良時代][平安時代][中世][近世]","集落","[縄文時代]集石　土坑　[古墳時代]土坑　[平安時代]焼土　[中世]建物　地下式土坑　墓　[近世]建物　土坑　溝","縄文土器　石器　土師器　土師質土器　陶磁器　舶載青磁　板碑",139.3986349,35.62241784,TRUE
13201043200,13201,"432","たまにゅーたうんNo.411いせき","多摩ニュータウンNo.411遺跡","八王子市 別所","[縄文時代（前期）][奈良時代][平安時代][中世][近世]","包蔵地","","縄文土器　土師器　陶磁器",139.3988318,35.61974151,TRUE
13201043400,13201,"434","たまにゅーたうんNo.463いせき","多摩ニュータウンNo.463遺跡","八王子市 別所","[縄文時代（早期〜中期）][古墳時代][奈良時代][平安時代][中世][近世]","集落","[縄文時代]住居　集石　土坑　[古墳時代]土坑　[奈良時代][平安時代]土坑　[平安時代][中世]ピット　土坑　[近世]土坑","縄文土器　打斧　礫器　石鏃　石皿　磨石　土師器　須恵器　陶磁器",139.4003212,35.61604402,TRUE
13201043500,13201,"435","たまにゅーたうんNo.387いせき","多摩ニュータウンNo.387遺跡","八王子市 別所　 堀之内","[旧石器時代][縄文時代（早期〜後期）][弥生時代（中期）][古墳時代][奈良時代][平安時代][中世][近世]","集落","[縄文時代]土坑　[古墳時代]土坑　[奈良時代]住居　集石　[平安時代]住居　[中世]ピット　井戸　土坑　溝　[中世]?[近世]室　井戸　溝","ナイフ形石器　槍先形尖頭器　剥片　縄文土器　打斧　磨斧　礫器　石鏃　石匙　土版　弥生土器　管玉　土師器　須恵器　陶器（灰釉・緑釉）　紡錘車　瓦　陶磁器　須恵質土器　石製品　板碑　銭貨　燈明具",139.3982318,35.62541471,TRUE
13201043600,13201,"436","たまにゅーたうんNo.418いせき","多摩ニュータウンNo.418遺跡","八王子市 別所","[縄文時代（前期）][奈良時代][平安時代][中世][近世]","包蔵地","","縄文土器　土師器　須恵器　陶磁器",139.3989924,35.62469743,TRUE
13201044900,13201,"449","たまにゅーたうんNo.66・67いせき","多摩ニュータウンNo.66・67遺跡","八王子市 大塚　 松ケ谷","[縄文時代（早期〜中期）][古墳時代][奈良時代][平安時代][中世]","包蔵地・集落","[縄文時代]住居　敷石住居　方形竪穴　土坑独立埋甕","縄文土器　打斧　石鏃　石錘　石皿　磨石　凹石　敲石　土錘　土製円板　耳飾　土偶　台状土製品　土師器　須恵器　陶器（灰釉）　陶磁器　剥片　土師器",139.4147228,35.63319192,TRUE
13201045300,13201,"453","たまにゅーたうんNo.64いせき","多摩ニュータウンNo.64遺跡","八王子市 大塚","[縄文時代（前期〜後期）][古墳時代][奈良時代][平安時代][中世]","集落","[縄文時代]住居 敷石住居 土坑 [時代不明]地下式土坑 溝","縄文土器 打斧 磨斧 石鏃 石皿 土師器 陶磁器",139.4206274,35.6350663,TRUE
13201045600,13201,"456","たまにゅーたうんNo.65いせき","多摩ニュータウンNo.65遺跡","八王子市 松ケ谷","[縄文時代（早期〜中期）][奈良時代][平安時代][中世][近世]","包蔵地","炭窯","縄文土器　掻器　土師器　須恵器　砥石　陶磁器　銭貨",139.4188397,35.63280017,TRUE
13201046500,13201,"465","ちからいしじょうあと","力石城跡","八王子市 上恩方町","[中世]","城館","[中世]石畳　土塁","",139.2194089,35.671717,TRUE
13201047000,13201,"470","たまにゅーたうんNo.523いせき","多摩ニュータウンNo.523遺跡","八王子市 下柚木","[縄文時代（前期）][奈良時代][平安時代][中世][近世]","集落","[縄文時代]集石　土坑　[中世][近世]建物","縄文土器　石器　土師器　陶磁器　土人形　玩具",139.3819599,35.62439328,TRUE
13201047100,13201,"471","たまにゅーたうんNo.524いせき","多摩ニュータウンNo.524遺跡","八王子市 下柚木","[縄文時代（前期〜後期）][奈良時代][平安時代][中世][近世]","包蔵地・その他の墓","[中世][近世]集石　[近世]ピット　土坑　溝","縄文土器　土師器　陶磁器　土器　砥石　煙管",139.3827287,35.62481096,TRUE
13201047200,13201,"472","","八王子市No.472遺跡","八王子市 丹木町二丁目","[旧石器時代][縄文時代（早期〜中期）][中世][近世]","集落","","縄文土器",139.3269438,35.69314715,TRUE
13201047300,13201,"473","","八王子市No.473遺跡","八王子市 丹木町一丁目　 丹木町二丁目","[縄文時代（早期〜中期）][古墳時代][中世][近世]","集落","","縄文土器　土製円板",139.329035,35.69159366,TRUE
13201047600,13201,"476","たんぎ・うめつぼちくNo.25いせき","丹木・梅坪地区No.25遺跡","八王子市 梅坪町","[縄文時代（前期〜中期）][古墳時代][平安時代][中世][近世]","包蔵地","","縄文土器　土師器　陶磁器",139.3346583,35.68590674,TRUE
13201047700,13201,"477","うめつぼ・おきのまえいせき","梅坪・沖の前遺跡","八王子市 梅坪町","[旧石器時代][縄文時代（早期〜後期）][古墳時代][奈良時代][平安時代][中世][近世]","集落","[旧石器時代]]ブロック　[縄文時代]土坑　炉穴　埋甕　[古墳]住居　土坑　[平安時代]住居　土坑　[近世]土坑　[時代不明]溝","旧石器（加工痕のある剥片・礫器）　縄文土器　石器　土師器　土製品",139.3389432,35.68568121,TRUE
13201048200,13201,"482","どうじょういせき","道場遺跡","八王子市 川口町","[中世][近世]","包蔵地","[中世]地下式土坑","",139.2837679,35.69565043,TRUE
13201048500,13201,"485","かじわらやかた","梶原館","八王子市 元八王子町三丁目","[中世]","城館","","",139.2768262,35.6567738,TRUE
13201048600,13201,"486","おだのじょうあと","小田野城跡","八王子市 西寺方町　 下恩方町","[中世]","城館","[中世]土橋　堀　腰曲輪　桝形状遺構","陶磁器　舶載磁器",139.263156,35.66913783,TRUE
13201048700,13201,"487","じょうふくじじょうあと","浄福寺城跡","八王子市 下恩方町","[中世]","城館","[中世]空堀　曲輪　土塁","",139.2478793,35.67029754,TRUE
13201048900,13201,"489","ととりるい（ととりとりで）","十々里塁(廿里砦）","八王子市 廿里町","[弥生時代（中期）][中世][近世]","包蔵地・城館","[中世]空堀","弥生土器　陶磁器",139.2772514,35.64565566,TRUE
13201049200,13201,"492","ゆいしやかた","由井氏館","八王子市 弍分方町","[中世]","城館","","",139.275471,35.68009388,TRUE
13201049400,13201,"494","とぶきじょうあと","戸吹城跡","八王子市 戸吹町","[中世]","城館","","",139.2819901,35.71336141,TRUE
13201049500,13201,"495","なかやまかげゆやかたあと","中山勘解由屋敷跡","八王子市 滝山町二丁目","[中世]","城館","","陶磁器",139.3391527,35.69188925,TRUE
13201049600,13201,"496","こうじょうじしろやまいせき","高乗寺城山遺跡","八王子市 初沢町　 高尾町","[中世]","城館","[中世]堀　曲輪","",139.2735092,35.63466244,TRUE
13201050000,13201,"500","ながぬまやかた","長沼館","八王子市 長沼町","[中世]","城館","[中世]堀　曲輪","",139.3662368,35.63877196,TRUE
13201050200,13201,"502","ゆぎしやかたあと","由木氏館跡","八王子市 下柚木","[中世]","城館","","",139.3820764,35.63195482,TRUE
13201050700,13201,"507","やえんとうげるい","野猿峠塁","八王子市 高嶺町","[中世]","城館","","",139.3625289,35.63338668,TRUE
13201050900,13201,"509","うつぎちくNo.10（うつぎみね）いせき","宇津木地区No.10（宇津木美根）遺跡","八王子市 宇津木町","[古墳時代][平安時代][中世][近世]","集落","[古墳時代]住居　[平安時代]住居　[中世][近世]溝状遺構　[時代不明]焼土　ピット","土師器　須恵器　陶磁器　鉄製品　編み石　炭化材",139.3485874,35.68514152,TRUE
13201052100,13201,"521","ひらやまじょうあと","平山城跡","八王子市 堀之内","[中世]","城館","[中世]腰曲輪　虎口　土塁","",139.3817438,35.64092476,TRUE
13201052400,13201,"524","たまにゅーたうんNo.527いせき","多摩ニュータウンNo.527遺跡","八王子市 南大沢","[旧石器時代][縄文時代（早期〜後期）][古墳時代][奈良時代][平安時代][中世][近世]","包蔵地","[縄文時代]集石　土坑　[古墳時代]土坑　[平安時代][中世]土坑　[近世]炭窯　溝","掻器　剥片　縄文土器　打斧　磨斧　礫器　石鏃　石匙　石皿　磨石　けつ状耳飾　土師器　陶磁器",139.3846672,35.60300226,TRUE
13201052600,13201,"526","たまにゅーたうんNo.529いせき","多摩ニュータウンNo.529遺跡","八王子市 南大沢","[奈良時代][平安時代]［中世］[近世]","包蔵地","","土師器　陶磁器",139.3852752,35.60443368,TRUE
13201052800,13201,"528","たまにゅーたうんNo.531いせき","多摩ニュータウンNo.531遺跡","八王子市 南大沢","[縄文時代（早期〜中期）][中世][近世]","包蔵地","[縄文時代]土坑　[近世]溝","縄文土器　石器　須恵器　陶磁器",139.3824209,35.60181815,TRUE
13201053300,13201,"533","たまにゅーたうんNo.536いせき","多摩ニュータウンNo.536遺跡","八王子市 南大沢","[縄文時代（早期）?晩期）][古墳時代][奈良時代][平安時代][中世][近世]","包蔵地","[古墳時代]柱穴　焼土　溝　[平安時代][中世]土坑　[近世]土坑　水田","縄文土器　打斧　礫器　石鏃　削器　石皿　磨石　土師器　須恵器　土師質土器　須恵質土器　置き竈　陶磁器　木製品　泥人形",139.3849363,35.60544511,TRUE
13201053400,13201,"534","たまにゅーたうんNo.537いせき","多摩ニュータウンNo.537遺跡","八王子市 南大沢","[縄文時代（早期〜前期）][奈良時代][平安時代][中世][近世]","包蔵地","","縄文土器　石鏃　土師器　陶磁器",139.3828674,35.60601319,TRUE
13201053600,13201,"536","たまにゅーたうんNo.539いせき","多摩ニュータウンNo.539遺跡","八王子市 南大沢","[縄文時代（早期）][奈良時代][平安時代][中世][近世]","包蔵地","","縄文土器　土師器　陶磁器　円礫",139.3853115,35.60842056,TRUE
13201054000,13201,"540","たまにゅーたうんNo.543いせき","多摩ニュータウンNo.543遺跡","八王子市 南大沢","[中世]","墓地","","板碑",139.384584,35.61063275,TRUE
13201054900,13201,"549","たまにゅーたうんNo.552いせき","多摩ニュータウンNo.552遺跡","八王子市 南大沢","[平安時代]［中世］［近世］","包蔵地","","陶磁器",139.3824014,35.60855633,TRUE
13201055500,13201,"555","たまにゅーたうんNo.558いせき","多摩ニュータウンNo.558遺跡","八王子市 南大沢","[縄文時代（前期）][奈良時代][平安時代][中世][近世]","包蔵地","","縄文土器　土師器　須恵器　瓦器　陶磁器",139.3831138,35.61572915,TRUE
13201055600,13201,"556","たまにゅーたうんNo.559いせき","多摩ニュータウンNo.559遺跡","八王子市 南大沢","[縄文時代（早期〜晩期）][古墳時代][平安時代]［中世］[近世]","集落","[縄文時代]集石　炉穴　土坑　[平安時代]住居　土坑　[近世]炭窯","縄文土器　石器　土師器　須恵器　瓦　陶器",139.3786184,35.60503291,TRUE
13201057200,13201,"572","たまにゅーたうんNo.575いせき","多摩ニュータウンNo.575遺跡","八王子市 南大沢","[縄文時代（早期〜中期）][奈良時代][平安時代][中世]","包蔵地","[平安時代]土坑","縄文土器　石器　土師器　須恵器　陶磁器　銭貨（北宋銭）",139.3758483,35.60837579,TRUE
13201057900,13201,"579","たまにゅーたうんNo.582いせき","多摩ニュータウンNo.582遺跡","八王子市 南大沢","[縄文時代（早期〜後期）][平安時代][中世]","包蔵地","[縄文時代]集石　土坑","縄文土器　石器　土師器　土師質土器　瓦",139.3704975,35.60768052,TRUE
13201058000,13201,"580","たまにゅーたうんNo.583いせき","多摩ニュータウンNo.583遺跡","八王子市 南大沢","[縄文時代（早期〜中期）][奈良時代][平安時代][中世][近世]","集落","[縄文時代]集石　土坑　[奈良時代][平安時代]住居　[中世][近世]土坑　井戸　炭　窯　溝","縄文土器　石器　土師器　須恵器　陶磁器　鉄器　銭貨",139.3713551,35.60778967,TRUE
13201059300,13201,"593","たまにゅーたうんNo.596いせき","多摩ニュータウンNo.596遺跡","八王子市 南大沢","[中世][近世]","包蔵地","","",139.3696726,35.61258197,TRUE
13201060300,13201,"603","たまにゅーたうんNo.606いせき","多摩ニュータウンNo.606遺跡","八王子市 南大沢","[縄文時代?][中世]","塚","","焼礫",139.3797395,35.61877459,TRUE
13201060800,13201,"608","たまにゅーたうんNo.611いせき","多摩ニュータウンNo.611遺跡","八王子市 南大沢","[縄文時代（早期〜中期）][平安時代][中世][近世]","集落","[平安時代]住居","縄文土器　石器　土師器　須恵器　陶磁器　煙管",139.3827506,35.61720693,TRUE
13201061000,13201,"610","たまにゅーたうんNo.613いせき","多摩ニュータウンNo.613遺跡","八王子市 南大沢","[縄文時代（早期〜中期）][奈良時代][平安時代][中世][近世]","集落","[平安時代]土坑　[中世]建物　竪穴状遺構　ピット　焼土　土坑　溝　[近世]井戸　溝","縄文土器　打斧　土師器　須恵器　舶載陶磁器　釘　刀子　瓦器　陶磁器",139.3845235,35.61856195,TRUE
13201061200,13201,"612","たまにゅーたうんNo.615いせき","多摩ニュータウンNo.615遺跡","八王子市 南大沢","[縄文時代（中期）][奈良時代][平安時代][中世][近世]","包蔵地","[縄文時代]集石　焼土　ピット　[中世]ピット　溝　[近世]土坑　[時代不明]溝状遺構","縄文土器　打斧　土師器　須恵器　瓦　陶磁器　瓦器　土鍋",139.3853696,35.61866345,TRUE
13201061400,13201,"614","たまにゅーたうんNo.617いせき","多摩ニュータウンNo.617遺跡","八王子市 松木","[旧石器時代][縄文時代（早期〜前期）][奈良時代][平安時代][中世][近世]","集落","[旧石器時代]]ユニット　礫群　[縄文時代]土坑　[中世]竪穴状遺構　地下式土坑　[近世]建物","剥片　礫　縄文土器　打斧　土師器　須恵器　陶磁器　瓦器　板碑",139.3855778,35.61945768,TRUE
13201061600,13201,"616","たまにゅーたうんNo.619いせき","多摩ニュータウンNo.619遺跡","八王子市 松木","[縄文時代（前期〜中期）][奈良時代][平安時代][中世][近世]","包蔵地","","縄文土器　土師器　須恵器　瓦器　陶磁器",139.3866521,35.61976203,TRUE
13201061800,13201,"618","たまにゅーたうんNo.621いせき","多摩ニュータウンNo.621遺跡","八王子市 松木","[縄文時代][平安時代][中世][近世]","包蔵地","[縄文時代]土坑　[時代不明]集石　焼土　土坑","縄文土器　土師器　陶磁器",139.3870541,35.62022517,TRUE
13201061900,13201,"619","たまにゅーたうんNo.622いせき","多摩ニュータウンNo.622遺跡","八王子市 松木","[縄文時代（早期・中期）][奈良時代][平安時代][中世][近世]","集落","[縄文時代]集石　土坑　[平安時代]土坑　[近世]建物　炭窯","縄文土器　石器　土師器　須恵器　瓦器　陶磁器",139.3875457,35.62187036,TRUE
13201062100,13201,"621","たまにゅーたうんNo.624いせき","多摩ニュータウンNo.624遺跡","八王子市 松木","[中世][近世]","包蔵地","","陶磁器",139.3889119,35.62116034,TRUE
13201062200,13201,"622","たまにゅーたうんNo.625いせき","多摩ニュータウンNo.625遺跡","八王子市 松木","[縄文時代（前期〜中期）][奈良時代][平安時代][中世][近世]","包蔵地","[縄文時代]土坑　[中世]地下式土坑","縄文土器　須恵器　陶磁器",139.3891241,35.62179934,TRUE
13201062400,13201,"624","たまにゅーたうんNo.627いせき","多摩ニュータウンNo.627遺跡","八王子市 松木","[奈良時代][平安時代][中世][近世]","包蔵地","[近世]溝","瓦器　陶磁器",139.3904397,35.62380366,TRUE
13201063200,13201,"632","たまにゅーたうんNo.635いせき","多摩ニュータウンNo.635遺跡","八王子市 下柚木","[縄文時代（早期〜中期）][奈良時代][平安時代][中世][近世]","包蔵地","[縄文時代]土坑　[近世]土坑","縄文土器　土師器　須恵器　銭貨",139.380771,35.62007098,TRUE
13201063400,13201,"634","たまにゅーたうんNo.637いせき","多摩ニュータウンNo.637遺跡","八王子市 下柚木","[縄文時代][平安時代][中世][近世]","包蔵地","","縄文土器　石器　土師器　陶器",139.3804281,35.62207622,TRUE
13201069200,13201,"692","たまにゅーたうんNo.645いせき","多摩ニュータウンNo.645遺跡","八王子市 南大沢","[縄文時代（前期〜中期）][奈良時代][平安時代][中世][近世]","包蔵地","[縄文時代]土坑","縄文土器　石器　土師器　瓦　陶磁器",139.3881911,35.60354981,TRUE
13201069706,13201,"97-6","うらじゅくいせきぐんうらじゅくじーちく","裏宿遺跡群裏宿G地区","八王子市 元八王子二丁目","[縄文時代（前期）]［中世］［近世］","包蔵地","[縄文時代]土坑　ピット状遺構","縄文土器　打斧　石皿",139.2784055,35.66317653,TRUE
13201069708,13201,"97-8","いけのしたいせき","池の下遺跡","八王子市 元八王子二丁目","[旧石器時代][縄文時代（早期〜中期）][中世][近世]","集落","[縄文時代]住居　土坑　ピット　[中世][近世]掘立柱建物　井戸　土坑　地下式土坑","ナイフ形石器　尖頭器　細石刃　削器　剥片　縄文土器　打斧　石鏃　掻器　削器　石皿　磨石　土師質土器　陶磁器　木製品　魚骨　獣骨",139.2824567,35.66274327,TRUE
13201070802,13201,"08-2","おちこしいせきぐんおちこしびーちく","落越遺跡群落越B地区","八王子市 城山手一丁目","[縄文時代（早期）][弥生時代（中期）][平安時代][中世][近世]","集落","[縄文時代]住居　炉跡等　[中世]塚状遺構　溝状遺構","縄文土器弥生土器　須恵器　陶磁器　石器",139.287048,35.65235332,TRUE
13201070805,13201,"08-5","おちこしいせきぐんおちこしえふちく","落越遺跡群落越F地区","八王子市 城山手一丁目","[平安時代][中世][近世]","集落・城館","[平安時代]住居　[中世]居館　[近世]炭焼窯","土師器　陶器　土師質土器　渡来銭",139.2863271,35.65597989,TRUE
13201070807,13201,"08-7","おちこしいせきぐんおちこしきゅーちく","落越遺跡群落越Q地区","八王子市 城山手一丁目","[縄文時代（中期）][中世]","集落","[縄文時代]集石遺構　住居　[中世]土塁状遺構","縄文土器　磨石",139.2835805,35.65500352,TRUE
13201071201,13201,"12-1","たてまちだい1ちてんいせき","館町第1地点遺跡","八王子市 館町","[旧石器時代][縄文時代（早期〜後期）][弥生時代][古墳時代][平安時代][中世][近世]","集落","[旧石器時代]]ブロック　[縄文時代]住居　集石　焼土　陥し穴　土坑　[平安時代][中世]ピット群　大溝　[古墳時代]?[中世]溝","ナイフ形石器　石核　剥片　縄文土器　打斧　磨斧　礫器　石槍　石鏃　削器　石匙　石皿　磨石　凹石　砥石　土師器　須恵器　瓦　陶磁器　鎌　鉄鏃　鉄釘　煙管　刀子　銭貨　動物遺体(馬歯)",139.3005715,35.63034917,TRUE
13201071202,13201,"12-2","たてまちだい2ちてんいせき","館町第2地点遺跡","八王子市 館町","[旧石器時代][縄文時代（早期〜後期）][弥生時代][平安時代][中世][近世]","包蔵地","[縄文時代]集石　焼土　陥し穴　土坑　[平安時代]溝　[近世]溝","ナイフ形石器　尖頭器　削器　剥片　縄文土器　打斧　礫器　石鏃　削器　石皿　磨石　凹石　砥石　石核　土師器　須恵器　陶磁器　金属製品　銭貨",139.2997132,35.6294562,TRUE
13201071203,13201,"12-3","たてまちだい3ちてんいせき","館町第3地点遺跡","八王子市 館町","[縄文時代（早期〜晩期）][弥生時代][平安時代][中世][近世]","包蔵地","[縄文時代]集石　焼土　陥し穴　土坑　[平安時代]土坑　円形土坑　[近世]溝","縄文土器　打斧　礫器　石鏃　石皿　磨石　敲石　砥石　剥片　礫　弥生土器　陶磁器　釘　煙管　銭貨",139.3007791,35.62874183,TRUE
13201071209,13201,"12-9","たてまちだい9ちてんいせき","館町第9地点遺跡","八王子市 館町","[縄文時代][弥生時代][平安時代][中世][近世]","包蔵地","","",139.3032157,35.63010597,TRUE
13201071211,13201,"12-1","たてまちだい12ちてんいせき","館町第12地点遺跡","八王子市 館町","[旧石器時代][縄文時代（早期〜後期）][中世][近世]","包蔵地","[縄文時代]陥し穴","ナイフ形石器　縄文土器　打斧　石鏃　石皿　陶磁器　鉄鏃　煙管",139.3000565,35.62591215,TRUE
13201071212,13201,"12-2","たてまちだい13ちてんいせき","館町第13地点遺跡","八王子市 館町","[縄文時代]［中世］","包蔵地","[中世]溝","",139.2997138,35.6246922,TRUE
13201071215,13201,"12-5","たてまちだい16ちてんいせき","館町第16地点遺跡","八王子市 館町　 寺田町","[旧石器時代][縄文時代（前期〜後期）][中世]","包蔵地","[縄文時代]住居　陥し穴　土坑　袋状土坑　[中世]溝","縄文土器　陶器　銭貨",139.3018036,35.62583261,TRUE
13201071216,13201,"12-6","たてまちいせきだい17・18ちてん","館町遺跡第17・18地点","八王子市 館町 寺田町","[縄文時代（前期〜後期）][平安時代][中世][近世]","集落","[縄文時代]住居 陥し穴 土坑 袋状土坑 [中世]溝","縄文土器 陶器 銭貨",139.3027306,35.62653027,TRUE
13201073500,13201,"735","ただぬま（みなみはちおうじちくNo.10）いせき","只沼（南八王子地区No.10）遺跡","八王子市 片倉町　 西片倉一丁目","[縄文時代（中期〜後期）][古墳時代][中世][近世]","集落","[縄文時代]住居　[古墳時代]住居　[中世]室状遺構","縄文土器　石棒　土師器　土製品",139.3364039,35.63748072,TRUE
13201074600,13201,"746","みなみはちおうじちくNo.23いせき","南八王子地区No.23遺跡","八王子市 みなみ野三丁目","[縄文時代（早期〜中期）][中世]","集落","[縄文時代]住居　炉穴　土坑　[中世]土坑","縄文土器　石器",139.3243189,35.62919324,TRUE
13201074700,13201,"747","みなみはちおうじちくNo.25いせき","南八王子地区No.25遺跡","八王子市 七国一丁目","[旧石器時代][縄文時代（早期〜後期）][弥生時代][古墳時代][奈良時代][平安時代][中世][近世]","集落","[旧石器時代]]ユニット　礫群　[縄文時代]住居　炉穴　集石　土坑　陥穴　[中世]段切り遺構　堀立柱建物跡　竪穴状遺構　土坑　溝　[古墳時代]住居　堀立柱建物跡　土坑","旧石器　縄文土器　石器　土師器　鉄製品",139.3278785,35.6250451,TRUE
13201075100,13201,"751","みなみはちおうじちくNo.29いせき","南八王子地区No.29遺跡","八王子市 大船町","[縄文時代（早期〜中期）][中世]","集落","[縄文時代]住居　土坑","縄文土器　石器",139.3154342,35.62266107,TRUE
13201075800,13201,"758","みなみはちおうじちくNo.37いせき","南八王子地区No.37遺跡","八王子市 七国二丁目","[縄文時代（中期）][平安時代][中世]","集落","[縄文時代]土坑　[平安時代]住居　[中世]土坑","土師器　須恵器　瓦",139.3248229,35.62024498,TRUE
13201076200,13201,"762","みなみはちおうじちくNo.42いせき","南八王子地区No.42遺跡","八王子市 宇津貫町","[縄文時代（早期〜中期）][平安時代][中世]","集落・その他（工房）","[縄文時代]住居　集石　陥穴　[平安時代]竪穴遺構　土坑　[中世以降]土坑","縄文土器　石器　土師器　須恵器　瓦",139.3293733,35.62282821,TRUE
13201076800,13201,"768","みなみはちおうじちくNo.49いせき","南八王子地区No.49遺跡","八王子市 宇津貫町　 兵衛二丁目","[縄文時代][古墳時代][平安時代][中世]","集落","[縄文時代]土坑[中世以降]土坑　炭窯","",139.331758,35.62515673,TRUE
13201078200,13201,"782","たまにゅーたうんNo.149いせき","多摩ニュータウンNo.149遺跡","八王子市 松木","[中世][近世]","墓地","","板碑　庚申塔",139.388516,35.62094485,TRUE
13201078400,13201,"784","たまにゅーたうんNo.171いせき","多摩ニュータウンNo.171遺跡","八王子市 南大沢","[中世][近世]","墓地","","板碑　馬頭観音　地蔵尊　石仏",139.37631,35.6129494,TRUE
13201078600,13201,"786","たまにゅーたうんNo.173いせき","多摩ニュータウンNo.173遺跡","八王子市 下柚木","[中世]","墓地","","板碑",139.3744492,35.62192023,TRUE
13201078700,13201,"787","たまにゅーたうんNo.903いせき","多摩ニュータウンNo.903遺跡","八王子市 堀之内","[縄文時代（早期〜中期）][奈良時代][平安時代][中世][近世]","集落","[奈良時代][平安時代]火葬墓　[平安時代][中世]集石　焼土　土坑　地下式土坑　溝　畦畔　[近世]建物　土坑　井戸　水路","縄文土器　打斧　土師器　須恵器　陶器（灰釉）　瓦　陶磁器　砥石",139.3938743,35.63185232,TRUE
13201078800,13201,"788","たまにゅーたうんNo.291いせき","多摩ニュータウンNo.291遺跡","八王子市 南大沢","[中世]","墓地","","板碑",139.3789364,35.61238328,TRUE
13201078900,13201,"789","たまにゅーたうんNo.292いせき","多摩ニュータウンNo.292遺跡","八王子市 南大沢","[中世]","墓地","","板碑　五輪塔",139.3759895,35.61379629,TRUE
13201079400,13201,"794","たまにゅーたうんNo.413いせき","多摩ニュータウンNo.413遺跡","八王子市 別所","[中世]","墓地","","板碑",139.3969803,35.62071481,TRUE
13201079500,13201,"795","たまにゅーたうんNo.415いせき","多摩ニュータウンNo.415遺跡","八王子市 別所","[中世]","墓地","","板碑",139.3975288,35.62174902,TRUE
13201079600,13201,"796","たまにゅーたうんNo.417いせき","多摩ニュータウンNo.417遺跡","八王子市 別所","[中世]","墓地","","板碑",139.3993245,35.62351087,TRUE
13201079700,13201,"797","たまにゅーたうんNo.425いせき","多摩ニュータウンNo.425遺跡","八王子市 堀之内","[中世]","墓地","","板碑",139.4068825,35.62837918,TRUE
13201079800,13201,"798","たまにゅーたうんNo.438いせき","多摩ニュータウンNo.438遺跡","八王子市 堀之内","[中世][近世]","墓地","","板碑　五輪塔",139.4007197,35.63160224,TRUE
13201080000,13201,"800","たまにゅーたうんNo.907いせき","多摩ニュータウンNo.907遺跡","八王子市 堀之内","[旧石器時代][縄文時代（早期〜中期）][奈良時代][平安時代][中世][近世]","集落","NT　432参照","",139.3914312,35.63262962,TRUE
13201080100,13201,"801","たまにゅーたうんNo.908いせき","多摩ニュータウンNo.908遺跡","八王子市 越野","[旧石器時代][縄文時代（早期）][縄文時代（前期）][縄文時代（ｋ荒中期）][奈良時代][平安時代][中世][近世]","集落","NT　432参照","",139.3903612,35.63195533,TRUE
13201080200,13201,"802","たまにゅーたうんNo.494いせき","多摩ニュータウンNo.494遺跡","八王子市 上柚木","[中世]","墓地","","板碑",139.3790326,35.62221579,TRUE
13201080500,13201,"805","たまにゅーたうんNo.646いせき","多摩ニュータウンNo.646遺跡","八王子市 南大沢","[縄文時代（早期〜中期）][奈良時代][平安時代][中世][近世]","包蔵地","[縄文時代]集石　土坑　[奈良時代][平安時代]土坑　[中世]土坑　炭窯　段切状遺構　溝","縄文土器　打斧　石鏃　掻器　磨石　土師器　須恵器　紡錘車　瓦　陶器（天目・灰釉）　擂鉢　ホウロク　鎌　鋏　小刀　鉄鏃",139.3866954,35.60402569,TRUE
13201080900,13201,"809","たまにゅーたうんNo.651いせき","多摩ニュータウンNo.651遺跡","八王子市 南大沢","[平安時代][中世][近世]","包蔵地","","土師器　土師質土器",139.386866,35.60691971,TRUE
13201082700,13201,"827","たまにゅーたうんNo.669いせき","多摩ニュータウンNo.669遺跡","八王子市 松木","[縄文時代（前期〜中期）][奈良時代][平安時代][中世][近世]","包蔵地","","縄文土器　剥片　土師器　土師質土器　陶磁器",139.3893561,35.61801115,TRUE
13201084300,13201,"843","たまにゅーたうんNo.685いせき","多摩ニュータウンNo.685遺跡","八王子市 別所","[縄文時代（前期〜中期）][奈良時代][平安時代][中世][近世]","包蔵地","[縄文時代]集石　[近世]柱穴群　石組遺構","縄文土器　石器　土師器　須恵器　陶器（天目）　土師質土器　陶磁器",139.3973616,35.62071012,TRUE
13201084600,13201,"846","たまにゅーたうんNo.688いせき","多摩ニュータウンNo.688遺跡","八王子市 別所","[縄文時代（前期）][平安時代][中世][近世]","集落","[中世][近世]建物 集石 井戸 土坑 地下式土坑 溝","縄文土器 土師器 陶磁器 土師質土器 舶載青磁 金属製品 石製品 板碑 銭貨 木製品",139.3969798,35.61933221,TRUE
13201085000,13201,"850","たまにゅーたうんNo.692いせき","多摩ニュータウンNo.692遺跡","八王子市 別所","[縄文時代（早期〜後期）][弥生時代][古墳時代][奈良時代][平安時代][中世][近世]","集落・城館・墓地","[古墳時代]住居　[平安時代]住居　[平安時代][中世]建物　集石　井戸　土坑　地下式土坑　鍛冶工房　墓壙　段切状遺構　溝　柵列　[近世]建物　土坑　室　井戸　山砂採掘坑　炭窯　溝","縄文土器　石器　弥生土器　土師器　須恵器　陶磁器　舶載陶磁器　釘　刀子　火打ち金具　包丁　鋏　鉄製品　鞴羽口　銅製品　和鏡　銭貨　鉄滓　土師質土器　硯　砥石　石臼　石鍋　瓦　木製品　人骨　馬歯骨",139.3946735,35.61740721,TRUE
13201085100,13201,"851","たまにゅーたうんNo.693いせき","多摩ニュータウンNo.693遺跡","八王子市 別所","[縄文時代（前期）][縄文時代（後期）][中世][近世]","集落","[中世]建物　溝　[近世]建物　土坑","縄文土器　陶磁器　土師質土器　須恵質土器",139.3933534,35.61637382,TRUE
13201086000,13201,"860","たまにゅーたうんNo.702いせき","多摩ニュータウンNo.702遺跡","八王子市 別所","[縄文時代（前期）][奈良時代][平安時代][中世][近世]","包蔵地","[近世]井戸　溝","縄文土器　石器　陶器",139.3932209,35.61404443,TRUE
13201087100,13201,"871","たまにゅーたうんNo.715いせき","多摩ニュータウンNo.715遺跡","八王子市 別所","[縄文時代（前期）][奈良時代][平安時代][中世][近世]","包蔵地","","縄文土器　土師器　須恵器　陶磁器",139.4010693,35.62229494,TRUE
13201087300,13201,"873","たまにゅーたうんNo.717いせき","多摩ニュータウンNo.717遺跡","八王子市 堀之内","[縄文時代（前期）][縄文時代（中期）][奈良時代][平安時代][中世][近世]","包蔵地","","縄文土器　土師器　須恵器　陶磁器",139.402045,35.62692751,TRUE
13201087400,13201,"874","たまにゅーたうんNo.718いせき","多摩ニュータウンNo.718遺跡","八王子市 堀之内","[中世][近世]","包蔵地","","陶磁器",139.4034663,35.6276955,TRUE
13201087600,13201,"876","たまにゅーたうんNo.720いせき","多摩ニュータウンNo.720遺跡","八王子市 堀之内","[縄文時代（前期）][奈良時代][平安時代][中世][近世]","包蔵地","[近世]竪穴状遺構　土坑　井戸　溝","縄文土器　土師器　須恵器　陶磁器　金属製品　銭貨",139.4047982,35.62680808,TRUE
13201087700,13201,"877","たまにゅーたうんNo.721いせき","多摩ニュータウンNo.721遺跡","八王子市 堀之内","[旧石器時代][縄文時代（前期）][縄文時代（中期）][奈良時代][平安時代][中世][近世]","集落","[縄文時代]集石　集石土坑　土坑　[奈良時代][平安時代]住居　集石　土坑　[中世]井戸　土坑　[近世]ピット","細石刃　縄文土器　打斧　石鏃　石皿　磨石　敲石　土師器　須恵器　陶磁器　陶器（灰釉・緑釉）　鉄製品　羽口　銅製品　銭貨",139.4073784,35.62828296,TRUE
13201087800,13201,"878","たまにゅーたうんNo.722いせき","多摩ニュータウンNo.722遺跡","八王子市 東中野","[旧石器時代][縄文時代（早期）][縄文時代（前期）][縄文時代（中期）][縄文時代（後期）][奈良時代][平安時代][中世][近世]","集落","[縄文時代]焼土　[平安時代]住居　[近世]溝","ナイフ形石器　縄文土器　石器　土師器　須恵器　陶器（灰釉）　陶磁器",139.408139,35.62995041,TRUE
13201087900,13201,"879","たまにゅーたうんNo.723いせき","多摩ニュータウンNo.723遺跡","八王子市 東中野","[縄文時代（前期）][平安時代][中世][近世]","集落","[平安時代]住居　[近世]竪穴状遺構　土坑　井戸","縄文土器　石器　土師器　須恵器　陶器（灰釉）　陶磁器　銭貨",139.407888,35.62826267,TRUE
13201088300,13201,"883","たまにゅーたうんNo.727いせき","多摩ニュータウンNo.727遺跡","八王子市 堀之内","[旧石器時代][縄文時代（早期）][縄文時代（前期）][奈良時代][平安時代][中世][近世]","集落","[縄文時代]住居　土坑　[近世]溝","剥片　縄文土器　石器　土師器　陶器（灰釉）",139.4043347,35.62517555,TRUE
13201088400,13201,"884","たまにゅーたうんNo.728いせき","多摩ニュータウンNo.728遺跡","八王子市 堀之内","[縄文時代（早期）][縄文時代（前期）][平安時代][中世][近世]","集落","[縄文時代]土坑　[平安時代]住居　[近世]土坑","縄文土器　石器　土師器　須恵器　土師質土器　陶磁器　銭貨",139.4037238,35.62539323,TRUE
13201089000,13201,"890","たまにゅーたうんNo.796いせき","多摩ニュータウンNo.796遺跡","八王子市 堀之内","[縄文時代（早期〜後期）][古墳時代][奈良時代][平安時代][中世][近世]","集落","[縄文時代]住居　敷石住居　集石　集石土坑　炉　焼土　土坑　配石　[古墳時代]住居　[奈良時代]住居　竪穴状遺構　[平安時代]住居　土坑　[中世]建物　竪穴状遺構　ピット　集石　井戸　土坑　水田　墓壙　版築面　溝　道路状遺構　[近世]焼土　炭窯　墓壙","尖頭器　剥片　縄文土器　石器　土製品　硬玉製大珠　土師器　須恵器　刀子　土錘　陶磁器　舶載陶磁器　砥石　石臼　板碑　銭貨",139.3981791,35.6286722,TRUE
13201089300,13201,"893","たまにゅーたうんNo.800いせき","多摩ニュータウンNo.800遺跡","八王子市 越野","[縄文時代][奈良時代][平安時代][中世][近世]","集落","[平安時代]住居　土坑　[中世][近世]土坑","縄文土器　土師器　須恵器　陶磁器",139.387546,35.62991828,TRUE
13201089400,13201,"894","たまにゅーたうんNo.801いせき","多摩ニュータウンNo.801遺跡","八王子市 越野","[縄文時代（前期）][奈良時代][平安時代][中世][近世]","包蔵地","[縄文時代]集石　[平安時代][中世]溝　[近世]溝","縄文土器　打斧　礫器　石皿　磨石　土師器　須恵器　陶器（緑釉）　土製紡錘車　陶磁器　舶載陶磁器　銭貨　漆器",139.3852457,35.62915088,TRUE
13201089500,13201,"895","たまにゅーたうんNo.802いせき","多摩ニュータウンNo.802遺跡","八王子市 下柚木","[縄文時代（前期〜後期）][古墳時代][奈良時代][中世][近世]","集落","[縄文時代]土坑　[奈良時代][平安時代]住居　ピット　溝　[近世]水路","縄文土器　石器　土師器　須恵器　土師質土器　陶器（灰釉）　陶磁器　鉄製品　紡錘車",139.3829515,35.62601114,TRUE
13201089600,13201,"896","たまにゅーたうんNo.803いせき","多摩ニュータウンNo.803遺跡","八王子市 下柚木","[縄文時代（前期〜後期）][弥生時代][古墳時代][奈良時代][平安時代][中世][近世]","包蔵地","[古墳時代]土坑","縄文土器　礫器　石鏃　弥生土器　土師器　須恵器　陶器（灰釉・緑釉）　陶磁器",139.3808973,35.62532685,TRUE
13201089900,13201,"899","たまにゅーたうんNo.806いせき","多摩ニュータウンNo.806遺跡","八王子市 上柚木","[旧石器時代][縄文時代（前期〜中期）][奈良時代][平安時代][中世][近世]","集落","[縄文時代]土坑　[近世]建物　ピット　土坑　井戸　溝","台形石器　礫器　石核　剥片　縄文土器　有舌尖頭器　土師器　須恵器　土師質土器　陶磁器　砥石",139.3740058,35.62090469,TRUE
13201090000,13201,"900","たまにゅーたうんNo.807いせき","多摩ニュータウンNo.807遺跡","八王子市 下柚木","[縄文時代（前期〜中期）][奈良時代][平安時代][中世][近世]","包蔵地","","縄文土器　土師器　須恵器　陶磁器",139.3740431,35.62248683,TRUE
13201090700,13201,"907","たまにゅーたうんNo.814いせき","多摩ニュータウンNo.814遺跡","八王子市 上柚木","[縄文時代（早期〜前期）][古墳時代][平安時代][中世][近世]","集落","[古墳時代]土坑　[平安時代]住居　土坑　[近世]炭窯　[時代不明]焼土","縄文土器　石器　土師器　石臼",139.3694203,35.61410968,TRUE
13201091100,13201,"911","たまにゅーたうんNo.818いせき","多摩ニュータウンNo.818遺跡","八王子市 南大沢","[縄文時代（早期〜後期）][弥生時代][古墳時代][奈良時代][平安時代][中世][近世]","集落","[縄文時代]集石　炉穴　焼土　土坑　[古墳時代]土坑　[奈良時代][平安時代]住居　焼土　ピット　土坑　溝　[近世]土坑　井戸　炭窯　溝","縄文土器　石器　弥生土器　土師器　須恵器　陶器（灰釉）　置き竈　瓦　鉄滓　炭化物　陶磁器　土師質土器　舶載陶磁器　鉄釘　砥石　銭貨",139.3696577,35.6080752,TRUE
13201091600,13201,"916","たまにゅーたうんNo.828いせき","多摩ニュータウンNo.828遺跡","八王子市 上柚木","[縄文時代（中期）][中世][近世]","包蔵地","","縄文土器　陶磁器",139.3638777,35.61805799,TRUE
13201091700,13201,"917","たまにゅーたうんNo.829いせき","多摩ニュータウンNo.829遺跡","八王子市 鑓水","[縄文時代（前期）][奈良時代][平安時代][中世][近世]","包蔵地","","縄文土器",139.3638928,35.61280285,TRUE
13201092000,13201,"920","たまにゅーたうんNo.832いせき","多摩ニュータウンNo.832遺跡","八王子市 鑓水","[平安時代][中世][近世]","包蔵地","[平安時代]集石","須恵器　陶磁器",139.3595615,35.61155805,TRUE
13201092200,13201,"922","たまにゅーたうんNo.834いせき","多摩ニュータウンNo.834遺跡","八王子市 別所","[縄文時代][古墳時代][奈良時代][平安時代][中世][近世]","包蔵地","[古墳時代]土坑　[時代不明]溝状遺構","縄文土器　土師器　須恵器　陶器（灰釉）　陶磁器",139.3980037,35.62150024,TRUE
13201092300,13201,"923","たまにゅーたうんNo.835いせき","多摩ニュータウンNo.835遺跡","八王子市 南大沢","[平安時代][中世]","包蔵地","","陶磁器",139.384125,35.61631023,TRUE
13201092400,13201,"924","たまにゅーたうんNo.836いせき","多摩ニュータウンNo.836遺跡","八王子市 鑓水","［旧石器時代］[縄文時代（早期〜中期）]［平安時代］［中世］［近世］","集落","","焼礫",139.3444812,35.61242181,TRUE
13201093500,13201,"935","たまにゅーたうんNo.847いせき","多摩ニュータウンNo.847遺跡","八王子市 鑓水","[縄文時代（早期〜後期）][奈良時代][平安時代][中世][近世]","集落","[縄文時代]住居　集石　炉　焼土　土坑　[奈良時代][平安時代]住居　土坑　[中世][近世]溝","縄文土器　土師器　須恵器　瓦",139.3584602,35.60577991,TRUE
13201093700,13201,"937","たまにゅーたうんNo.849いせき","多摩ニュータウンNo.849遺跡","八王子市 鑓水","[縄文時代（早期）][奈良時代][平安時代][中世][近世]","包蔵地","","縄文土器　土師器　ホウロク　燈明皿",139.3586562,35.61332864,TRUE
13201094000,13201,"940","たまにゅーたうんNo.886いせき","多摩ニュータウンNo.886遺跡","八王子市 東中野","[縄文時代（早期〜前期）]［平安時代］［中世］［近世］","包蔵地","","",139.3995326,35.63748474,TRUE
13201094100,13201,"941","たまにゅーたうんNo.887いせき","多摩ニュータウンNo.887遺跡","八王子市 東中野","[縄文時代（前期）]［平安時代］［中世］","包蔵地","","",139.3996761,35.63687059,TRUE
13201095200,13201,"952","たまにゅーたうんNo.898いせき","多摩ニュータウンNo.898遺跡","八王子市 堀之内","[縄文時代（早期〜中期）][奈良時代][平安時代][中世][近世]","包蔵地","[縄文時代]集石　土坑　[奈良時代][平安時代]土坑　[時代不明]土坑","縄文土器　石器　土師器　須恵器　陶磁器",139.3964969,35.63083486,TRUE
13201095300,13201,"953","たまにゅーたうんNo.899いせき","多摩ニュータウンNo.899遺跡","八王子市 堀之内","[縄文時代][奈良時代][平安時代][中世][近世]","包蔵地","[縄文時代]土坑　[奈良時代][平安時代]土坑","縄文土器　陶磁器",139.3957514,35.63040527,TRUE
13201095400,13201,"954","たまにゅーたうんNo.900いせき","多摩ニュータウンNo.900遺跡","八王子市 越野","[縄文時代（前期〜中期）][平安時代][中世][近世]","包蔵地","[中世]集石　土坑　[時代不明]焼土","縄文土器　打斧　土師器　陶磁器",139.3951334,35.63023918,TRUE
13201095500,13201,"955","たまにゅーたうんNo.901いせき","多摩ニュータウンNo.901遺跡","八王子市 越野　堀之内","[縄文時代][奈良時代][平安時代][中世][近世]","集落","[縄文時代]集石　土坑　[奈良時代][平安時代]住居　土坑　[中世][近世]炭窯　溝　道路状遺構　墓壙","縄文土器　土師器　須恵器　陶磁器",139.3939574,35.63084279,TRUE
13201095800,13201,"958","あらい・いのはなやまいせき","荒井・猪鼻山遺跡","八王子市 裏高尾町","[縄文時代（早期〜後期）][平安時代][中世][近世]","包蔵地","","縄文土器　石皿　磨石　土師器",139.2587696,35.63999309,TRUE
13201098400,13201,"984","","八王子市No.984遺跡","八王子市 緑町　山田町","[縄文時代（早期・中期）][古墳時代][奈良時代][平安時代][中世][近世]","包蔵地","","縄文土器　土師器　陶磁器",139.319405,35.64513361,TRUE
13201098500,13201,"985","","八王子市No.985遺跡","八王子市 小比企町","[縄文時代（早期〜後期）][弥生時代][古墳時代][平安時代][中世][近世]","包蔵地","","縄文土器　弥生土器　土師器　陶磁器",139.3218958,35.64291454,TRUE
13201099500,13201,"995","","八王子市No.995遺跡","八王子市 館町","[縄文時代（早期〜中期）][奈良時代][平安時代][中世][近世]","包蔵地","土坑","縄文土器　石器",139.2905482,35.63536574,TRUE
13201099700,13201,"997","たてまちりゅうけんじうらやまちくいせき","館町龍見寺裏山地区遺跡","八王子市 館町","[縄文時代（早期〜後期）][古墳時代][平安時代][中世][近世]","集落","[縄文時代]住居　集石土坑　[中世]経塚","縄文土器　石鏃　石核　剥片　土師器　経筒　陶磁器",139.295904,35.63190566,TRUE
13201100300,13201,"1003","","八王子市No.1003遺跡","八王子市 下柚木","[縄文時代][平安時代][中世][近世]","包蔵地","","縄文土器　土師器　須恵器　陶磁器",139.3792639,35.63085376,TRUE
13201100800,13201,"1008","こしのいせき","越野遺跡","八王子市 堀之内","[縄文時代（早期・中期）]［中世］［近世］","集落","[縄文時代]住居　土坑　[時代不明]溝状遺構","縄文土器　打斧",139.3876289,35.63260934,TRUE
13201101700,13201,"1017","やまねいせき","山根遺跡","八王子市 大和田町五丁目","[中世]","その他の墓","","板碑　火葬骨",139.3535259,35.66567168,TRUE
13201101900,13201,"1019","","八王子市No.1019遺跡","八王子市 散田町四丁目","[中世]","包蔵地","[中世]地下式土坑","",139.3062465,35.64967547,TRUE
13201102400,13201,"1024","こんぴらさんいせき","金比羅山遺跡","八王子市 高尾町　 初沢町","[中世][近世]","城館","[時代不明]竪堀?　曲輪?","",139.277078,35.64015076,TRUE
13201102700,13201,"1027","みょうおうしたいせき","明王下遺跡","八王子市 丹木町三丁目","[縄文時代][奈良時代][平安時代][中世][近世]","集落","陥穴土坑　[平安時代]住居址　土坑　[中世]井戸　道路　段切り　階段状遺構　[近世]室状遺構","縄文土器　石器　須恵器　土師器　灰釉　陶器　緑釉陶器　鉄製品　鉄滓　鞴の羽口　陶磁器",139.3231997,35.69498989,TRUE
13201102900,13201,"1029","","八王子市No.1029遺跡","八王子市 宮下町","[縄文時代（早期〜前期）][中世][近世]","包蔵地","[縄文時代]住居跡　土杭　[中世][近世]溝","縄文土器　石器",139.3038459,35.70325947,TRUE
13201103000,13201,"1030","よしはらいせき","吉原遺跡","八王子市 宮下町","[縄文時代（早期〜中期）][奈良時代][中世][近世]","包蔵地","[縄文時代]土坑　集石遺構","縄文土器　石器　須恵器　陶磁器　青磁　白磁",139.3154674,35.69875679,TRUE
13202000200,13202,"2","とのがやしんでんいせき","殿ヶ谷新田遺跡","立川市 西砂町五丁目","[縄文時代（中期）][平安時代][中世]","包蔵地","畝状遺構 ピット 土杭（時代不明）","尖頭器 縄文土器 打斧 石鏃 土師器 陶器",139.3647032,35.73408838,TRUE
13202001400,13202,"14","おおわだいせき","大和田遺跡","立川市 柴崎町四丁目 錦町五丁目","[旧石器時代][縄文時代（早期・中期〜後期）][奈良時代][平安時代][中世][近世]","集落","[縄文時代]住居 集石 土坑 [奈良時代][平安時代]住居 土坑 溝","尖頭器 礫器 縄文土器 打斧 磨斧 石皿 磨石 スタンプ形石器 土師器 須恵器 陶磁器 銭貨",139.4089033,35.69072429,TRUE
13202001700,13202,"17","たちかわしやかたあと","立川氏館跡","立川市 柴崎町四丁目","[中世][近世]","包蔵地・城館","[中世][近世]土塁 堀 礎石建物 掘立柱建物 地下式横穴 井戸 溝 土坑","陶磁器 板碑 古銭 経石 瓦",139.4023111,35.69080339,TRUE
13202001900,13202,"19","だいのしたいせき","台の下遺跡","立川市 富士見町三丁目","[縄文時代][奈良時代][平安時代][中世][近世]","集落","[平安時代]住居 土坑 [近世]水路 [時代不明]柱穴 溝状遺構","縄文土器 土師器 須恵器 陶磁器 緑釉陶器 灰釉陶器 鉄製品",139.3898832,35.69630088,TRUE
13204001000,13204,"10","のみずばしいせき","野水橋遺跡","三鷹市 大沢二丁目","[旧石器時代][縄文時代（早期・中期）][中世]","包蔵地","","石器　縄文土器　石器　板碑",139.5326815,35.67554427,TRUE
13204001400,13204,"14","ふるはちまんいせき","古八幡遺跡","三鷹市 大沢二丁目　 大沢五丁目","[旧石器時代][縄文時代（早期〜晩期）][古墳時代][奈良時代][平安時代][中世][近世]","包蔵地","[縄文時代]集石","石器　縄文土器　石器　土器片錘　陶磁器　石臼　木製高杯　ガラス製品　銭貨　種子材",139.5358014,35.67239775,TRUE
13204002600,13204,"26","まるいけいせき","丸池遺跡","三鷹市 新川二丁目 新川三丁目 新川五丁目","[旧石器時代][縄文時代（前期〜中期）][奈良時代][平安時代][中世][近世]","集落","[旧石器時代]ユニット [縄文時代]住居 集石土坑 配石 [時代不明]土坑 溝状遺構","石器 縄文土器 石器 土師器 須恵器 カワラケ",139.5718234,35.67743606,TRUE
13204002700,13204,"27","しまやしきいせき","島屋敷遺跡","三鷹市 新川四丁目 新川五丁目","[旧石器時代][縄文時代（早期〜中期）][古墳時代][奈良時代][平安時代][中世][近世]","集落","[旧石器時代]ユニット 礫群 [縄文時代]集石 陥し穴 [時代不明]掘立柱建物 ピット 柱穴 地下室 井戸 水田 溝状遺構","石器 縄文土器 石器 土師器 須恵器 板碑 陶磁器 瓦 石製品 金属製品 木製品",139.5714801,35.67469486,TRUE
13204002800,13204,"28","しもはらびーいせき","下原B遺跡","三鷹市 大沢五丁目 大沢六丁目","[旧石器時代][縄文時代（前期〜後期）][中世][近世]","集落・その他の墓","墓形態：L字型 [旧石器時代]礫群 焼土遺構 [縄文時代]住居跡 集石土坑 焼土跡 陥し穴 [中世]地下式坑 土坑 [時代不明]溝状遺構 ピット 皿鉢状遺構","ナイフ形石器 スクレイパー 縄文土器 石器 土器 陶磁器類",139.5313421,35.67334676,TRUE
13204003100,13204,"31","しりつだいごちゅうがっこういせき","市立第五中学校遺跡","三鷹市 新川一丁目 新川四丁目","[旧石器時代][縄文時代（早期〜中期）][弥生時代][古墳時代][奈良時代][平安時代][中世][近世]","集落","[旧石器時代]ユニット 礫群 [縄文時代]住居 集石 集石 土坑 [時代不明]土坑 溝状遺構","縄文土器 石器 土錘 土製円板 耳栓 土偶 弥生土器 土師器 須恵器 陶磁器 カワラケ 玉類 銭貨",139.5768721,35.6710462,TRUE
13204003800,13204,"38","なかはらいせき","中原遺跡","三鷹市 中原四丁目","[旧石器時代][縄文時代（前期〜中期）][奈良時代][平安時代][中世][近世]","包蔵地・陣屋","[中世]溝状遺構 [時代不明]畝状遺構","石器 縄文土器 石器 須恵器 カワラケ 瓦 土鍋 陶磁器 鉄製品 泥人形 銭貨",139.566847,35.66797816,TRUE
13204004800,13204,"48","いのかしらいせきぐんえーいせき","井の頭池遺跡群A遺跡","三鷹市 井の頭四丁目 井の頭五丁目","[旧石器時代][縄草][縄文時代（早期〜後期）][弥生時代][古墳時代][奈良時代][平安時代][中世][近世]","集落","[旧石器時代]ユニット 礫群 [縄文時代]住居 小竪穴 集石 集石土坑 炉穴 土坑 ピット 配石 溝状 遺構","石器 縄文土器 石器 弥生土器 土師器 須恵器 板碑 陶磁器",139.5754818,35.6984234,TRUE
13205001000,13205,"10","なかざと（あんらくじまえ）（えぬ-5）いせき","中里（安楽寺前）(N-5)遺跡","青梅市 成木一丁目","[縄文時代（前期）][平安時代][中世][近世]","包蔵地","[中世]溝","縄文土器　土師器　須恵器　陶磁器（白磁・青磁）　木製品（杭）",139.2756708,35.8382473,TRUE
13205003200,13205,"32","よろいづか","鎧塚","青梅市 沢井一丁目","[中世]","塚","※遺跡範囲のすべてが青梅市指定史跡鎧塚となっています。","",139.2082496,35.80701134,TRUE
13205003500,13205,"35","からかいじょうあと","辛垣城跡","青梅市 二俣尾辛垣山","[中世]","城館","[中世]石垣　空堀　土塁","陶磁器（古瀬戸・青磁）　鉄砲弾",139.2205749,35.81180022,TRUE
13205003600,13205,"36","こやしき","古屋敷","青梅市 二俣尾四丁目","[中世]","城館","","",139.215631,35.80559132,TRUE
13205003900,13205,"39","ますがたやまじょうあと","枡形山城跡","青梅市 二俣尾","[中世]","城館","","",139.2233215,35.80600897,TRUE
13205005600,13205,"56","すぎだいらさくあと","杉平柵跡","青梅市 梅郷一丁目","[中世]","城館・柵跡","","",139.2209182,35.78317398,TRUE
13205006500,13205,"65","たてのさくあと","楯の柵跡","青梅市 日向和田一丁目","[中世]","城館","[中世]空堀　土橋","",139.2433372,35.78899474,TRUE
13205006700,13205,"67","ものみやぐらあと","物見櫓跡","青梅市 裏宿町","[中世]","城館","※遺跡範囲のすべてが青梅市指定史跡物見櫓（矢倉台）となっています。","",139.2356468,35.79253156,TRUE
13205007100,13205,"71","あまがせいせき","天ヶ瀬遺跡","青梅市 天ヶ瀬町","［縄文時代］［中世］［近世］","包蔵地　その他の墓","","縄文土器　陶器",139.2506156,35.78790861,TRUE
13205009300,13205,"93","みたやかたあと","三田館跡","青梅市 長淵一丁目","[中世]","城館","","",139.2801721,35.77606903,TRUE
13205010100,13205,"101","かつぬまじょうあと","勝沼城跡","青梅市 東青梅六丁目","[中世]","城館","","",139.2736147,35.79592648,TRUE
13205010700,13205,"107","つか（さんき）","塚（三基）","青梅市 吹上","[中世]","塚","","",139.2812021,35.80157924,TRUE
13205010900,13205,"109","ばば（けー-6・7）いせき","馬場(K-6・7)遺跡","青梅市 師岡町一丁目　 師岡町二丁目","[旧石器時代][縄文時代（早期〜後期）][弥生時代（中期〜後期）][古墳時代][奈良時代][平安時代][中世]","集落","[旧石器時代]ユニット　[縄文時代]集石　土坑　[弥生時代]住居　方形周溝墓　[奈良時代][平安時代]土坑　井戸状遺構　鍛冶工房","細石刃　細石刃核　掻器　縄文土器　石器　弥生土器　抉入石斧　片刃石斧　石鏃　土師器　須恵器　陶磁器(青磁)　木器　鉄器",139.2824037,35.79595433,TRUE
13205011100,13205,"111","けー-8（いちかいと）いせき","K-8（市街道）遺跡","青梅市 野上町一丁目","[縄文時代（前期〜後期）][古墳時代][奈良時代][平安時代][中世]","包蔵地","[古墳時代][平安時代]住居　[中世]溝跡　[近世]土坑","縄文土器　土師器　須恵器　近世銭",139.2856653,35.79656696,TRUE
13205011600,13205,"116","かすみだい（けー-27・28・29）いせき","霞台(K-27・28・29)遺跡","青梅市 大門二丁目　 今寺三丁目　 野上町二丁目","[旧石器時代][縄文時代（前期〜中期）]［弥生時代（後期）］[古墳時代][奈良時代][平安時代][中世]","集落","[縄文時代]土坑　ピット　[弥生時代][古墳時代]住居　ピット　輪土坑　[奈良時代]住居","ナイフ形石器　尖頭器　縄文土器　石槍　石鏃　掻器　炭化材　弥生土器　土師器　須恵器　砥石　滑石製管玉　木器　炭化米",139.2931154,35.79653912,TRUE
13205011800,13205,"118","","青梅市No.118遺跡","青梅市 塩船","[中世]","横穴墓","","",139.2799661,35.80508765,TRUE
13205011900,13205,"119","にゅうじょうづか","入定塚","青梅市 塩船","[中世]","塚","","",139.2809961,35.80475352,TRUE
13205012000,13205,"120","","青梅市No.120遺跡","青梅市 塩船","[中世]","墓地","","板碑",139.2812021,35.80414095,TRUE
13205012200,13205,"122","おっこし（けー-16）いせき","打越(K-16)遺跡","青梅市 塩船","[縄文時代（前期〜中期）][奈良時代][平安時代][中世]","包蔵地","","縄文土器　須恵器　蔵骨器",139.2831247,35.80386251,TRUE
13205012500,13205,"125","つか（にき）","塚（2基）","青梅市 塩船","[中世]","塚","","",139.2851846,35.8039182,TRUE
13205013800,13205,"138","ふじはしじょうあと","藤橋城跡","青梅市 藤橋二丁目","[中世]","城館","※遺跡範囲のすべてが青梅市指定史跡藤橋城跡となっています。","",139.3002222,35.80397388,TRUE
13205013900,13205,"139","じょうがさきいせき","城ヶ崎遺跡","青梅市 藤橋二丁目","[旧石器時代][縄文時代（中期）][古墳時代][奈良時代][平安時代][中世]","包蔵地","[旧石器時代]ユニット　土坑　[縄文時代]〜[中世]土坑","尖頭器　削器　石核　剥片　縄文土器　土師器　須恵器",139.3033807,35.8043637,TRUE
13205014300,13205,"143","かじやしきあといせき","鍛冶屋敷跡遺跡","青梅市 今井一丁目","[中世]","屋敷","","鉄滓",139.3117235,35.81115738,TRUE
13205014400,13205,"144","しろのこし（けー-39）いせき","城の腰(K-39)遺跡","青梅市 今井","[旧石器時代][縄文時代（早期〜後期）][奈良時代][平安時代][中世]","集落・城館","[旧石器時代]ユニット　礫群　[縄文時代]土坑　[中世]堅穴状遺構　地下式土坑","ナイフ形石器　石核　剥片　縄文土器　石斧　石鏃　土師器　須恵器　陶器　板碑",139.3126848,35.81029428,TRUE
13205014600,13205,"146","いまいじょうあと","今井城跡","青梅市 今井一丁目","[中世]","城館","※遺跡範囲のすべてが青梅市指定史跡今井城跡となっています。","陶磁器(青磁・古瀬戸)　香炉　カワラケ　鉄器　刀子　蔵骨器　板碑　宝篋印塔　六器　銭貨",139.3144701,35.81029428,TRUE
13205014900,13205,"149","いまいほりのうちいせき","今井堀ノ内遺跡","青梅市 今井二丁目","[中世]","城館","","",139.3121698,35.80650767,TRUE
13205015800,13205,"158","たけのしたいせき","竹の下遺跡","青梅市 今井二丁目","[縄文時代（前期〜後期）][古墳時代][奈良時代][平安時代][中世][近世]","包蔵地・集落・生産関連","[平安時代]溝状遺構　粘土採掘坑　[中世]溝状遺構　[近世]溝状遺構　柱穴","縄文土器　土師器　須恵器　陶磁器　瓦",139.3085649,35.80734297,TRUE
13205017500,13205,"175","","青梅市No.175遺跡","青梅市 柚木町三丁目","[中世]","その他の墓","楕円形　1基","",139.195787,35.80252845,TRUE
13206000100,13206,"1","むさしこくぶんじあとかんれんいせき","武蔵国分寺跡関連遺跡","府中市 栄町一丁目　 栄町二丁目　 栄町三丁目　 武蔵台一丁目　 武蔵台二丁目","[旧石器時代][縄文時代（前期〜後期）][奈良時代][平安時代][中世][近世]","集落","[旧石器時代]炭化物集中部　[縄文時代]集石　土坑　焼土　[奈良時代][平安時代]土坑　火葬墓　[平安時代]住居　掘立柱建物　土坑　道路　溝　[中世][近世]柱穴列　土坑　道路　溝","ナイフ形石器　尖頭器　細石刃　石核　縄文土器　打斧　磨斧　石鏃　石匙　石錐　石錘　ピエス・エスキーユ　石皿　スタンプ形石器　剥片　凹石　敲石　土師器　須恵器　陶器(緑釉・灰釉)　磁器　擂鉢　瓦　石製品　砥石　鉄製品　瓦　銭貨　漆紙文書　土製品　木製くし　煙管",139.470458,35.69050485,TRUE
13206000200,13206,"2","むさしこくふかんれんいせき","武蔵国府関連遺跡","府中市 日鋼町、片町一丁目、片町二丁目、片町三丁目 寿町一丁目、寿町二丁目、寿町三丁目、小柳町一丁目、小柳町二丁目 清水が丘一丁目、清水が丘二丁目、清水が丘三丁目 白糸台一丁目、白糸台二丁目、白糸台三丁目、白糸台四丁目、白糸台五丁目、白糸台六丁目 八幡町一丁目、八幡町二丁目、八幡町三丁目 府中町一丁目、府中町二丁目、府中町三丁目 分梅町一丁目、分梅町二丁目、分梅町三丁目 本宿町一丁目、本宿町二丁目、本宿町三丁目、本宿町四丁目 緑町一丁目、緑町二丁目、緑町三丁目 宮西町一丁目、宮西町二丁目、宮西町三丁目、宮西町四丁目、宮西町五丁目 宮町一丁目、宮町二丁目、宮町三丁目 美好町一丁目、美好町二丁目、美好町三丁目 若松町一丁目、若松町二丁目、若松町三丁目、日吉町 西府町一丁目、西府町二丁目、西府町三丁目、西府町四丁目、西府町五丁目、日新町二丁目","[旧石器時代][縄文時代][弥生時代][古墳時代][奈良時代][平安時代][中世][近世]","官衙・集落","奈良時代][平安時代]住居　掘立柱建物　土坑　柵　道路　溝　井戸　土壙墓　地下式横穴墓　火葬墓　火葬遺構","須恵器　土師器　二彩　緑釉　刀子　鉄鏃　鉄斧　紡錘車　石帯　土錘　瓦",139.4847811,35.67019899,TRUE
13206000300,13206,"3","みたけづか","御岳塚","府中市 本宿町一丁目","［縄文時代（前期〜中期）］［奈良時代］［平安時代］[中世]［近世］","包蔵地・塚","[中世]周溝","",139.457327,35.67054776,TRUE
13206000600,13206,"6","おおくにたまじんじゃうらいせき","大国魂神社裏遺跡","府中市 宮町三丁目","[縄文時代（中期〜晩期）]［古墳時代］［奈良時代］［平安時代］［中世］","集落・社寺","[縄文時代]住居 土坑","縄文土器 打斧 石鏃 石錐 石皿 磨石",139.4790327,35.66781638,TRUE
13206000900,13206,"9","でんしょうおうじあと","伝祥応寺跡","府中市 武蔵台二丁目","[奈良時代][平安時代][中世?]","社寺","","瓦 板碑",139.4666811,35.69234093,TRUE
13206001000,13206,"10","よこかいどうきた１ごうづか","横海道北１号塚","府中市 武蔵台一丁目","中世","塚","塚状遺構","縄文土器 土師器 須恵器 土師質土器 瓦 陶器 かわらけ他",139.4683921,35.68689316,TRUE
13206001100,13206,"11","さんぜんにんづか","三千人塚","府中市 矢崎町二丁目","[中世]","塚","※遺跡範囲のすべてが都指定史跡三千人塚 附 康元元年銘板碑一基となっています。","板碑 人骨 常滑産骨蔵器",139.4752554,35.66271016,TRUE
13206001200,13206,"12","ひよしちょういせき","日吉町遺跡","府中市 日吉町","[縄文時代（中期）][中世]","包蔵地・社寺","","縄文土器 陶磁器",139.4820232,35.66248352,TRUE
13206002200,13206,"22","ほんじゅくちょういせき","本宿町遺跡","府中市 本宿町一丁目 西府町一丁目","[縄文時代（草創期〜早期・中期）]［奈良時代］［平安時代］［中世］","集落","[縄文時代]住居 ピット ユニット 土坑","縄文土器 打斧 石鏃 石錐 ピエス・エスキーユ 石皿 磨石 敲石 剥片 土偶 ミニチュア土器",139.4579558,35.67004635,TRUE
13206003401,13206,"34-1","あさひちょういせき","朝日町遺跡","府中市 朝日町三丁目","[旧石器時代][縄文時代][奈良時代][平安時代][中世]","集落","土坑 礫群 溝状遺構 堅穴状遺構 硬化面","ナイフ形石器 フレイク 礫 細石刃 尖頭器 ハンマー 縄文土器 石鏃 打製石斧 磨石 陶器",139.5197877,35.67701914,TRUE
13206003800,13206,"38","ふちゅうだいはちしょうがっこういせき","府中第八小学校遺跡","府中市 是政一丁目","[中世]","集落・その他（水田）","[中世]掘立柱建物跡　水田跡等","陶磁器　土師器　カワラケ等",139.4954382,35.66213784,TRUE
13207000300,13207,"3","りゅうしんじひがしいせき","龍津寺東遺跡","昭島市 拝島町四丁目 拝島町五丁目","[縄文時代（中期〜後期）][中世]","集落","[縄文時代（早期）]住居 敷石住居 集落 土坑 ピット 埋甕 [中世]溝状遺構","縄文土器 打斧 磨斧 石鏃 石匙 石錘 石皿 磨石 凹石 石棒",139.3413947,35.70647404,TRUE
13207001900,13207,"19","きょうづかしたいせき","経塚下遺跡","昭島市 中神町 宮沢町","[奈良時代][平安時代][中世][近世？]","集落","[平安時代]住居 土坑","土師器 須恵器 陶器（灰釉） 刀子 釘 青銅製品 硯 瓦 カワラケ",139.3659138,35.70134485,TRUE
13207003400,13207,"34","だいにちどうしたいせき","大日堂下遺跡","昭島市 拝島町一丁目","[奈良時代][平安時代]［中世］","包蔵地・社寺","","土師器 陶器",139.3460982,35.70544253,TRUE
13207005100,13207,"51","ちょうじゃやしき","長者屋敷","昭島市 松原町四丁目 松原町五丁目","[中世]","城館","","陶器 板碑 銭貨",139.3427838,35.72112314,TRUE
13208000100,13208,"1","みどりがおかいせき","緑ヶ丘遺跡","調布市 緑ヶ丘一丁目　 緑ヶ丘二丁目","[縄文時代（中期）][平安時代][中世][近世]","包蔵地・集落","[縄文時代]埋甕　[平安時代]火葬墓　[中世][近世]掘立柱建物","縄文土器　石器　土師器　須恵器　陶磁器　銭貨",139.5819554,35.66843074,TRUE
13208000200,13208,"2","やしろだいせき","社田遺跡","調布市 緑ケ丘二丁目","[縄文時代][奈良時代][中世][近世]","包蔵地","","縄文土器　土師器　陶磁器",139.5850312,35.67069691,TRUE
13208000700,13208,"7","おおはらいせき","大原遺跡","調布市 入間町一丁目","[縄文時代（早期・中期）][奈良時代][中世][近世]","包蔵地","[中世][近世]溝状遺構","縄文土器　土師器　陶器",139.5854034,35.65376101,TRUE
13208000800,13208,"8","いりまちょうしろやまいせき","入間町城山遺跡","調布市 入間町一丁目　 入間町二丁目　 入間町三丁目","[旧石器時代][古墳時代][中世]","集落","[旧石器時代]礫群　石器ブロック　[縄文時代]住居　炉穴　土坑　[弥生時代]住居　土坑　[古墳時代][奈良時代]住居　土坑　溝　横穴墓　[中世]住居　地下式坑　溝　[時代不明]掘立柱建物","ナイフ形石器　尖頭器　縄文土器　石器　土師器　須恵器　埴輪　墨書土器　陶磁器　鉄製品　鉄滓　紡錘車　土製品　人骨",139.5872189,35.64995753,TRUE
13208001800,13208,"18","てらやまいせき","寺山遺跡","調布市 深大寺元町五丁目","[縄文時代（中期〜後期）][奈良時代][平安時代][中世][近世]","集落","[縄文時代]住居　敷石住居　土坑　[古墳時代][奈良時代][平安時代]住居　溝　[近世]井戸　溝","縄文土器　石器　土師器　須恵器　墨書土師器　陶磁器　鉄製品　板碑　銭貨",139.549816,35.66756606,TRUE
13208002200,13208,"22","におうづかいせき","仁王塚遺跡","調布市 深大寺元町三丁目","[旧石器時代][縄文時代（早期〜中期）][弥生時代][奈良時代][平安時代][中世]","集落","[縄文時代]炉穴　土坑　[弥生時代][古墳時代][奈良時代]住居　[中世]地下式土坑　[時代不明]溝","縄文土器　石器　土師器　須恵器　陶磁器　カワラケ",139.5463482,35.66730348,TRUE
13208002300,13208,"23","じんだいじしろやまいせき","深大寺城山遺跡","調布市 深大寺元町二丁目","[縄文時代（早期〜中期）][弥生時代][古墳時代][奈良時代][平安時代][中世]","包蔵地・集落・城館","[縄文時代]炉穴　陥し穴　[弥生時代]〜[平安時代]住居　[中世]掘立柱建物　地下式坑　堀　土塁","縄文土器　石器　弥生土器　土師器　須恵器　鉄製品　カワラケ　銭貨　陶磁器　舶載陶磁器　鉄製品　銭貨",139.5504021,35.66519745,TRUE
13208002600,13208,"26","かねこもとやま","金子本山遺跡","調布市 西つつじケ丘一丁目","[縄文時代][古墳時代][奈良時代][中世]","包蔵地","[中世]地下式土壙","縄文土器　土師器　鉄片　漆喰",139.5692242,35.66035436,TRUE
13208002800,13208,"28","みやたまえいせき","宮田前遺跡","調布市 深大寺元町二丁目　佐須一丁目","[縄文時代][古墳時代][奈良時代][平安時代][中世]","集落","[奈良時代]竪穴住居　溝状遺構　小穴　[古墳時代]竪穴住居　溝状遺構　[古代]竪穴住居　小穴","縄文土器　土師器　蔵骨器　陶磁器　カワラケ　板碑　石製品（砥石）　須恵器　種子",139.5514406,35.66175237,TRUE
13208002901,13208,"29-1","ませぐちいせき","ませぐち遺跡","調布市 佐須町二丁目","[縄文時代（草創期〜早期・中期〜後期）][奈良時代][中世]","集落・城館・その他","[縄文時代]炉穴 [奈良時代][平安時代]住居 掘立柱建物 [近世]溝","縄文土器 石槍 土製品 土師器 須恵器 鉄製品 陶磁器 瓦",139.553741,35.66039332,TRUE
13208002902,13208,"29-2","ませぐちこせんしゅつどち","ませぐち古銭出土地","調布市 佐須町二丁目","[中世]","その他","埋納銭出土地","銭貨4,395枚",139.5522325,35.65998484,TRUE
13208003000,13208,"30","ぎおんじみなみいせき","祇園寺南遺跡","調布市 佐須町四丁目","[縄文時代（中期）][奈良時代][平安時代][中世]","包蔵地","","縄文土器 土師器 須恵器 陶磁器",139.556169,35.65751362,TRUE
13208003100,13208,"31","はらやまいせき","原山遺跡","調布市 佐須町四丁目 佐須町五丁目 柴崎一丁目","[縄文時代（中期）][奈良時代][平安時代][中世][近世]","包蔵地・集落","[縄文時代]住居 集石 集石土坑 土坑 埋甕 [平安時代]住居 溝","縄文土器 打斧 磨斧 石鏃 石錘 石皿 土錘 耳飾 土偶 垂飾 土製品 土師器 須恵器 カワラケ 陶磁器",139.5596349,35.65741136,TRUE
13208003600,13208,"36","きたうらいせき","北浦遺跡","調布市 八雲台一丁目 八雲台二丁目","[旧石器時代][縄文時代（草創期〜中期）][古墳時代][奈良時代][平安時代][中世][近世]","包蔵地・集落","[旧石器時代]遺物集中箇所 炭化物集中箇所 [縄文時代]集石 土坑 埋甕 [奈良時代][平安時代]住居 [近世]ピット 土坑 溝","尖頭器 礫器 剥片 縄文土器 有舌尖頭器 土師器 須恵器 陶磁器",139.5582019,35.653348,TRUE
13208003900,13208,"39","かみいしわらいせき","上石原遺跡","調布市 上石原二丁目","[縄文時代（早期〜前期・後期〜晩期）][古墳時代][平安時代][中世]","集落","[縄文時代]住居集石 陥し穴 [古墳時代]住居 掘立柱建物 ピット 溝 [奈良時代]住居 [平安時代]住居 掘立柱建物 ピット 土坑 集石土坑 溝 [中世]カワラケ工房","尖頭器 縄文土器 打斧 石錘 土製円板 土師器 須恵器 陶器(灰釉・二彩) 墨書土器 土製支脚 砥石 鉄鎌 鉄鏃 刀子 ヤリガンナ 紡錘車 <U+9299>帯 こう具 金属製品 銭貨 焼礫 カワラケ",139.528214,35.655678,TRUE
13208004000,13208,"40","しもいしはらいせき","下石原遺跡","調布市 下石原三丁目","[縄文時代（早期・中期〜後期）][古墳時代][奈良時代][平安時代][中世][近世]","城館","[縄文時代]住居 敷石住居 集石 炉穴 陥し穴 土壙墓 配石 [古墳時代]方形周溝墓 溝 [奈良時代][平安時代]住居 掘立柱建物 ピット 溝 井戸 火葬墓 [中世][近世]掘立柱建物 井戸 地下式土坑 溝 [近世]土坑","縄文土器 打斧 土師器 須恵器 墨書土器 陶器 支脚 砥石 台石 刀子 鉄鏃 鉄製紡錘車 土錘 銅製品 馬具 銭貨 石臼 板碑 蔵骨器 人骨 獣骨",139.53389,35.65073,TRUE
13208004200,13208,"42","ふじむかいいせき","富士向遺跡","調布市 国領町五丁目","[縄文時代][奈良時代][中世][近世]","包蔵地","[縄文時代]集石土坑 土坑 [近世]掘立柱建物 土坑","縄文土器 石器 土師器 陶磁器 焼礫",139.5527996,35.6487906,TRUE
13208004400,13208,"44","こじまちょういせき","小島町遺跡","調布市 小島町三丁目","[縄文時代（中期）][古墳時代][奈良時代][平安時代][中世][近世]","包蔵地・集落","[縄文時代]住居炉穴 陥し穴 [古墳時代]住居 [奈良時代]住居 溝 鍛冶工房 [平安時代]住居 掘立柱建物 溝 [中世]住居 土坑 地下式土坑","縄文土器 石器 土製品 土師器 須恵器 墨書土器 鉄製品 羽口 鉄滓 陶器（灰釉) 陶磁器 銭貨",139.5386634,35.64730895,TRUE
13208004500,13208,"45","かみふだいせき","上布田遺跡","調布市 布田三丁目 布田五丁目 布田六丁目 小島町三丁目","[旧石器時代][縄文時代（早期〜晩期）][古墳時代][奈良時代][平安時代][中世][近世]","集落","[縄文時代]住居 竪穴状遺構 集石 土坑 炉 柱穴 土壙墓 埋甕 配石 [古墳時代]住居 溝 円形周溝 [奈良時代][平安時代]住居 掘立柱建物 柱穴 土坑 竈 溝 道路状遺構 鍛冶工房 火葬墓 井戸 [中世]地下式土坑 土壙墓 [中世][近世]掘立柱建物 集石 土坑 溝 [近世]土壙墓 溝 道路遺構 [平安時代]蔵骨器","縄文土器 石器 土製品 石製品 土師器 須恵器 墨書土器 陶器（灰釉） 土製支脚 鎌 刀子 土錘 羽口 <U+9299>帯 銅製丸鞘 陶磁器 カワラケ 硯 砥石 石臼 瓦 板碑 銭貨 鉄滓 人骨 打製石斧 敲石 石皿 石棒 金銅製巡方 鉄製品 石器及び焼礫 土師器甕及び須恵器蓋（人骨、墨書土器を含む） 木製品",139.5445643,35.64632794,TRUE
13208004700,13208,"47","こくりょうみなみいせき","国領南遺跡","調布市 国領町五丁目　 国領町六丁目","[旧石器時代][縄文時代（早期・中期）][古墳時代][奈良時代][平安時代][中世][近世]","集落","[縄文時代]住居　集石　陥し穴　埋甕　[古墳時代]方形周溝墓　土壙墓　[古墳時代][奈良時代][平安時代]住居　掘立柱建物　溝　[中世]地下式土坑　[近世]土坑　溝","ナイフ形石器　縄文土器　土製品　土師器　須恵器　鉄製品　陶磁器",139.5532333,35.64551589,TRUE
13208004800,13208,"48","あげきゅういせき","上ヶ給遺跡","調布市 国領町四丁目　 国領町七丁目","[縄文時代（中期）][古墳時代][奈良時代][平安時代][中世][近世]","集落","[縄文時代]住居　集石　炉　貯蔵穴　陥し穴　土坑　[古墳時代]住居　土坑　道路　溝　土師器焼成工房　製鉄工房　[中世][近世]土坑　溝","縄文土器　石器　土師器　須恵器　鉄鎌　刀子　釘　鉄鏃　鉄滓　石製品　羽口　勾玉　管玉　陶磁器",139.5602214,35.6443852,TRUE
13208006000,13208,"60","こまえにゅうどうやかたあと","狛江入道館跡","調布市 佐須町五丁目","[中世]","城館","","",139.5595709,35.66211018,TRUE
13209000200,13209,"2","","町田市No.2遺跡","町田市 相原町","[奈良時代][平安時代][中世][近世]","包蔵地","","土師器　瓦　陶器",139.2860106,35.614394,TRUE
13209001300,13209,"13","むさしおかA・A'・B・C・Dちくいせき","武蔵岡A・A'・B・C・D地区遺跡","町田市 相原町","[縄文時代（中期）][古墳時代][奈良時代][平安時代][中世]","集落","[縄文時代]住居　炉穴　集石　土坑　埋甕炉　[古墳時代]住居　土坑　[中世〜]竪穴状遺構　土坑　溝","縄文土器　石器　土師器　須恵器　土製品　鉄･銅製品　置窯　石製品　古銭",139.2995565,35.60807222,TRUE
13209001700,13209,"17","","町田市No.17遺跡","町田市 相原町","[縄文時代（早期）][奈良時代][平安時代][中世]","包蔵地・その他の墓","[中世]無縫塔","縄文土器　土師器　須恵器",139.3092764,35.60622995,TRUE
13209003600,13209,"36","","町田市No.36遺跡","町田市 相原町","[奈良時代][平安時代][中世]","包蔵地","","土師器　須恵器　陶器",139.3300312,35.60860794,TRUE
13209003700,13209,"37","","町田市No.37遺跡","町田市 相原町","[奈良時代][平安時代][中世]","包蔵地","","土師器　須恵器　陶器",139.330593,35.60982906,TRUE
13209004300,13209,"43","","町田市No.43遺跡","町田市 相原町","[縄文時代（中期〜後期）][奈良時代][平安時代][中世]","包蔵地","","縄文土器　土師器　陶器",139.3408703,35.60680868,TRUE
13209004700,13209,"47","たまにゅーたうんNo.235いせき","多摩ニュータウンNo.235遺跡","町田市 小山ヶ丘六丁目","[縄文時代（早期・中期）][奈良時代][平安時代][中世][近世]","包蔵地","","",139.3485908,35.60668706,TRUE
13209005800,13209,"58","たまにゅーたうんNo.347いせき","多摩ニュータウンNo.347遺跡","町田市 小山ヶ丘一丁目","[縄文時代（早期〜後期）][中世]","包蔵地","","縄文土器　石槍",139.3887477,35.59571514,TRUE
13209006100,13209,"61","たまにゅーたうんNo.345いせき","多摩ニュータウンNo.345遺跡","町田市 小山ヶ丘三丁目","[旧石器時代][縄文時代（早期〜中期）][弥生時代（中期）][古墳時代][奈良時代][平安時代][中世][近世]","集落","[縄文時代]土坑　[弥生時代]住居　[古墳時代]住居　[奈良時代][平安時代]土坑　[近世]炭窯","掻器　剥片　縄文土器　石槍　石鏃　弥生土器　環状石斧　管玉　土師器　陶磁器",139.3761111,35.60000963,TRUE
13209007100,13209,"71","たまにゅーたうんNo.197いせき","多摩ニュータウンNo.197遺跡","町田市 小山ヶ丘一丁目","[縄文時代（早期〜後期）][古墳時代][奈良時代][平安時代][中世]","集落","[縄文時代]住居　集石　焼土　土坑　[古墳時代]住居　土坑　[奈良時代][平安時代]土坑　[中世]建物　土坑　[近世]土坑　室　井戸　炭窯　溝","ナイフ形石器　縄文土器　打斧　石鏃　磨石　弥生土器　土師器　須恵器　砥石　土錘　石器　陶磁器",139.3836837,35.59878596,TRUE
13209007400,13209,"74","たまにゅーたうんNo.200いせき","多摩ニュータウンNo.200遺跡","町田市 小山ヶ丘二丁目","[縄文時代（早期〜中期）][古墳時代][奈良時代][平安時代][中世]","集落","[縄文時代]住居　竪穴状遺構　集石　炉　土坑　[古墳時代]方形周溝墓","尖頭器　縄文土器　打斧　磨斧　礫器　有舌尖頭器　石鏃　石皿　磨石　スタンプ形石器　凹石　土師器　鉄鏃　ガラス小玉　須恵器　瓦　陶磁器　砥石　銭貨",139.381995,35.6001863,TRUE
13209008400,13209,"84","たまにゅーたうんNo.939いせき","多摩ニュータウンNo.939遺跡","町田市 小山ヶ丘三丁目","[旧石器時代][縄文時代（早期〜後期）][弥生時代][古墳時代][奈良時代][平安時代][中世][近世]","集落・横穴墓","[縄文時代]住居　集石　炉穴　焼土　土坑　ピット　[弥生時代]住居　土坑　方形周溝墓　[古墳時代]〜[平安時代]住居　竪穴状遺構　焼土　土坑　[中世][近世]建物　炉　土坑　蔵　井戸　粘土採掘坑　炭窯　段切状遺構　溝　道路状遺構","石器　縄文土器　打斧　石鏃　磨石　弥生土器　土師器　須恵器　置き竈　鉄鏃　瓦　陶磁器　擂鉢　砥石　銭貨",139.3676744,35.60018211,TRUE
13209008500,13209,"85","","町田市No.85遺跡","町田市 小山町","[奈良時代][平安時代][中世]","包蔵地","","土師器　須恵器　陶器",139.3658837,35.59907658,TRUE
13209009100,13209,"91","たまにゅーたうんNo.244いせき","多摩ニュータウンNo.244遺跡","町田市 小山ヶ丘三丁目　小山ヶ丘五丁目","[縄文時代（中期〜後期）][弥生時代][古墳時代][奈良時代][平安時代][中世][近世]","集落","[縄文時代]住居　土坑　[古墳時代]〜[平安時代]住居　ピット　土坑　井戸　[中世][近世]建物　ピット　集石　井戸　土坑　室　墓　段切状遺構　溝","縄文土器　打斧　礫器　石鏃　石皿　磨石　台石　弥生土器　土師器　須恵器　瓦　木製品　陶磁器　瓦",139.3652677,35.60182227,TRUE
13209009200,13209,"92","","町田市No.92遺跡","町田市 小山町","[縄文時代（中期）][奈良時代][平安時代][中世]","包蔵地","","縄文土器　須恵器",139.3573518,35.60294242,TRUE
13209009400,13209,"94","たまにゅーたうんNo.243いせき","多摩ニュータウンNo.243遺跡","町田市 小山ヶ丘三丁目　 小山ヶ丘五丁目","[縄文時代（前期〜後期）][古墳時代][奈良時代][平安時代][中世][近世]","集落","[縄文時代]住居　集石　集石土坑　土坑　埋甕　河道　[古墳時代][奈良時代][平安時代]住居　ピット　土坑　井戸　溝　河道　[中世][近世]建物　河道　[近世]ピット　土坑　井戸　水田　畑　段切状遺構　溝　河道　墓","尖頭器　縄文土器　打斧　磨斧　礫器　有舌尖頭器　石鏃　石皿　磨石　スタンプ形石器　敲石　台石　土製円板　耳飾　石棒　器台　木製品　土師器　須恵器　瓦　陶磁器　木製品　人骨",139.3661095,35.60175044,TRUE
13209009700,13209,"97","たまにゅーたうんNo.247いせき","多摩ニュータウンNo.247遺跡","町田市 小山ヶ丘四丁目　 小山ヶ丘五丁目","[縄文時代（前期〜中期）][古墳時代][平安時代][中世][近世]","集落","[縄文時代]土坑　[古墳時代]土坑　[平安時代]住居　柱穴列　土坑　[近世]溝","縄文土器　石器　土師器　須恵器　陶器（灰釉）　鉄斧　鉄釘　鉄鏃　瓦　銭貨　鉄滓",139.363364,35.60328922,TRUE
13209009800,13209,"98","たまにゅーたうんNo.248（せいかちくぼがようせき）いせき","多摩ニュータウンNo.248（セイカチクボ瓦窯跡)遺跡","町田市 小山ヶ丘四丁目","[縄文時代（早期〜晩期）][古墳時代][奈良時代][平安時代][中世][近世]","集落･窯･その他（粘土採掘坑・水場遺構）","[縄文時代]集石　焼土　土坑　[縄文時代]〜[古墳時代]粘土採掘坑　[奈良時代][平安時代]住居　工房　土坑　焼土　ピット　瓦窯　[中世]〜水場遺構　炭焼窯","縄文土器　石器　土師器　須恵器　灰釉陶器　瓦　鉄　他",139.3637263,35.60421105,TRUE
13209009900,13209,"99","たまにゅーたうんNo.341いせき","多摩ニュータウンNo.341遺跡","町田市 小山ヶ丘五丁目","[縄文時代（早期・中期〜後期）][古墳時代][奈良時代][平安時代][中世][近世]","集落","[縄文時代]住居　集石　炉　土坑　[古墳時代]住居　[古墳時代]〜[平安時代]ピット群　陥し穴　土坑　溝　墓壙　[奈良時代][平安時代]住居　[中世]〜[近世]土坑　室　溝","縄文土器　打斧　磨斧　石鏃　石皿　磨石　凹石　敲石　石棒　土製品　土鈴　土師器　須恵器　陶器（灰釉）　鉄製品　瓦　陶磁器　カワラケ　石製品　金属製品　銭貨　馬歯骨",139.3653898,35.60245178,TRUE
13209010000,13209,"100","たまにゅーたうんNo.342いせき","多摩ニュータウンNo.342遺跡","町田市 小山ヶ丘二丁目　小山ヶ丘三丁目　小山ヶ丘四丁目　小山ヶ丘五丁目","[旧石器時代][縄文時代（早期〜後期）][弥生時代（中期）][古墳時代][奈良時代][平安時代][中世][近世]","集落・窯","[旧石器時代]遺物集中地点　礫群　炭化物集中地点　[縄文時代]住居　集石　炉穴　焼土　陥し穴　土坑　[古墳時代]窯　[古墳時代]〜[平安時代]溝　[平安時代]〜[中世]住居　土坑　[近世]ピット群　土坑　粘土採掘坑　山砂採掘坑　炭窯　溝　河道　墓壙","ナイフ形石器　掻器　錐　石核　剥片　礫　炭化物　縄文土器　打斧　磨斧　礫器　石匙　石皿　磨石　凹石　弥生土器　土師器　須恵器　陶器（灰釉）　置き竈　砥石　穂摘み具　瓦　陶磁器　臼　鉄製品　墓石　銭貨",139.366185,35.60341048,TRUE
13209010200,13209,"102","たばた・たばたひがし（たまにゅーたうんNo.245）いせき","田端・田端東（多摩ニュータウンNo.245）遺跡","町田市 小山町 小山ヶ丘五丁目","[旧石器時代][縄文時代（前期〜晩期）][弥生時代][古墳時代][奈良時代][平安時代][中世][近世]","集落","[旧石器時代]遺物集中区 礫群 [縄文時代]住居 集石 集石土坑 焼土 土坑 環状積石 埋甕 配石 [奈良時代][平安時代]住居 掘立柱建物 焼土 土坑 [中世]地下式土坑 [近世]井戸","尖頭器 縄文土器 石器 耳飾 垂飾 石棒 土偶 土製品 土鈴 土師器 須恵器 陶磁器 板碑 古銭 石製品 銅製品ほか",139.3633985,35.60097228,TRUE
13209011800,13209,"118","","町田市No.118遺跡","町田市 小山町","[縄文時代（中期）][奈良時代][平安時代][中世]","包蔵地","","縄文土器　土師器",139.3544259,35.60218542,TRUE
13209012200,13209,"122","たまにゅーたうんNo.331いせき","多摩ニュータウンNo.331遺跡","町田市 小山ヶ丘四丁目　 小山ヶ丘五丁目","[縄文時代（早期・中期〜後期）][古墳時代][奈良時代][平安時代][中世][近世]","集落","[縄文時代]集石　焼土　土坑　[古墳時代]住居　土坑　[奈良時代][平安時代]土坑　[中世][近世]焼土　土坑　溝　道路","縄文土器　打斧　礫器　石鏃　磨石　石核　土師器　須恵器　陶磁器　鉄製品　板碑　銭貨",139.3562916,35.60549443,TRUE
13209012900,13209,"129","くぼがやと（たまにゅーたうんNo.242・312）いせき","久保ヶ谷戸(多摩ニュータウンNo.242・312)遺跡","町田市 小山町　 相原町　 小山ヶ丘六丁目","[縄文時代（早期・中期〜後期）][古墳時代][奈良時代][平安時代][中世][近世]","集落","[縄文時代]住居　炉穴　陥穴　土坑　[古〜奈]住居　[平安時代]住居　[中〜近]土坑","縄文土器　石器　土師器　須恵器　灰釉陶器　土製品",139.3478429,35.60485797,TRUE
13209013000,13209,"130","たまにゅーたうんNo.210いせき","多摩ニュータウンNo.210遺跡","町田市 小山ヶ丘三丁目","[縄文時代（早期〜後期）][弥生時代][奈良時代][平安時代][中世]","集落","[縄文時代]住居 竪穴状遺構 炉穴 土坑 焼土 集石 土器埋設ピット","ナイフ形石器 縄文土器 石器 土製品 礫",139.3723608,35.60099165,TRUE
13209015000,13209,"150","","町田市No.150遺跡","町田市 上小山田町","[縄文時代（早期〜中期）][古墳時代][奈良時代][平安時代][中世]","包蔵地","","縄文土器　土師器　瓦",139.4020017,35.59992831,TRUE
13209015800,13209,"158","たまにゅーたうんなんばー739いせき","多摩ニュータウンNo.739遺跡","町田市 上小山田町","[縄文時代（早期〜中期）][古墳時代][奈良時代][平安時代][中世][近世]","包蔵地","※多摩市No.261遺跡と一連の多摩ニュータウン遺跡　 [縄文時代]土坑　[古墳時代]土坑　[中世]ピット　[近世]土坑　墓","縄文土器　石器　土師器　須恵器　陶磁器　土師質土器　舶載陶磁器　砥石　鉄製品　煙管",139.4087995,35.61128916,TRUE
13209016400,13209,"164","","町田市No.164遺跡","町田市 上小山田町","[縄文時代（早期）][中世]","包蔵地","","縄文土器　陶器",139.3978303,35.6026949,TRUE
13209016900,13209,"169","","町田市No.169遺跡","町田市 上小山田町","[縄文時代（早期〜後期）][古墳時代][奈良時代][平安時代][中世]","包蔵地","","縄文土器　土師器　陶器",139.3931184,35.5998293,TRUE
13209018400,13209,"184","","町田市No.184遺跡","町田市 上小山田町","[縄文時代（早期〜後期）][弥生時代][奈良時代][平安時代][中世]","包蔵地","","縄文土器　弥生土器　土師器　須恵器",139.3949036,35.59388283,TRUE
13209018900,13209,"189","","町田市No.189遺跡","町田市 上小山田町","[縄文時代（中期）][奈良時代][平安時代][中世]","包蔵地","","縄文土器　土師器　陶器",139.39535,35.59248715,TRUE
13209019400,13209,"194","","町田市No.194遺跡","町田市 下小山田町","[縄文時代][中世]","包蔵地","","縄文土器　陶器",139.4167691,35.60014481,TRUE
13209019500,13209,"195","","町田市No.195遺跡","町田市 下小山田町","[奈良時代][平安時代][中世]","包蔵地","","土師器　陶器",139.4206829,35.59659946,TRUE
13209021500,13209,"215","","町田市No.215遺跡","町田市 山崎町　 図師町　 忠生二丁目","[縄文時代（早期・中期〜後期）][弥生時代（後期）][古墳時代][奈良時代][平安時代][中世]","包蔵地・城館","","縄文土器　弥生土器　土師器　須恵器",139.4283485,35.57963268,TRUE
13209022200,13209,"222","","町田市No.222遺跡","町田市 図師町","[縄文時代（中期）][古墳時代][奈良時代][平安時代][中世]","包蔵地","","縄文土器　石器　土師器　須恵器　瓦　陶器",139.4255517,35.58891847,TRUE
13209024100,13209,"241","","町田市No.241遺跡","町田市 小野路町","[縄文時代（前期・後期）][奈良時代][平安時代][中世]","包蔵地","","縄文土器　土師器　陶器",139.4489425,35.60060308,TRUE
13209024200,13209,"242","","町田市No.242遺跡","町田市 小野路町","[縄文時代（中期〜後期）][弥生時代][奈良時代][平安時代][中世]","包蔵地","","縄文土器　弥生土器　土師器　陶器",139.4504414,35.60153706,TRUE
13209024400,13209,"244","","町田市No.244遺跡","町田市 小野路町","[縄文時代（中期）][奈良時代][平安時代][中世]","包蔵地","","縄文土器　土師器　陶器",139.4563926,35.59610857,TRUE
13209024600,13209,"246","","町田市No.246遺跡","町田市 小野路町","[縄文時代（中期）][奈良時代][平安時代][中世]","包蔵地","","縄文土器　土師器　陶器",139.4528907,35.60158011,TRUE
13209026200,13209,"262","","町田市No.262遺跡","町田市 小野路町","[縄文時代][弥生時代][奈良時代][平安時代][中世]","包蔵地","","縄文土器　弥生土器　陶器",139.4375098,35.60358997,TRUE
13209026700,13209,"267","","町田市No.267遺跡","町田市 小野路町","[縄文時代（中期）][奈良時代][平安時代][中世]","包蔵地","","縄文土器　土師器　須恵器　陶器",139.4297047,35.60184413,TRUE
13209026900,13209,"269","","町田市No.269遺跡","町田市 小野路町","[縄文時代（中期）][奈良時代][平安時代][中世]","包蔵地","","縄文土器　土師器　陶器",139.4279311,35.60199883,TRUE
13209027300,13209,"273","","町田市No.273遺跡","町田市 小野路町","[縄文時代（中期）][弥生時代][奈良時代][平安時代][中世]","包蔵地","","縄文土器　弥生土器　土師器　陶器",139.432283,35.60056759,TRUE
13209027600,13209,"276","","町田市No.276遺跡","町田市 小野路町","[縄文時代（早期・中期）][弥生時代][古墳時代][奈良時代][平安時代][中世]","包蔵地","","縄文土器　弥生土器　土師器　須恵器　陶器",139.4358501,35.59533968,TRUE
13209028100,13209,"281","","町田市No.281遺跡","町田市 小野路町","[縄文時代（中期）][弥生時代][奈良時代][平安時代][中世]","包蔵地","","縄文土器　弥生土器　土師器　須恵器　陶器",139.4361626,35.59143873,TRUE
13209028600,13209,"286","","町田市No.286遺跡","町田市 野津田町","[縄文時代（早期・中期〜後期）][奈良時代][平安時代][中世][近世]","包蔵地","","縄文土器　土師器　須恵器　陶磁器",139.4460343,35.58802329,TRUE
13209029500,13209,"295","あやべはらいせき","綾部原遺跡","町田市 野津田町　 小野路町","[旧石器時代][縄文時代（草創期〜晩期）][弥生時代（前期〜後期）][古墳時代][奈良時代][平安時代][中世][近世]","集落・その他の墓","[旧石器時代]石器ブロック　礫群　[縄文時代]住居　陥穴　土坑　集石　配石　ピット　[弥生時代]土器埋設土坑　ピット　[古墳時代]住居　火葬墓　[古墳時代]〜[奈良時代]集石　土坑　[奈良時代][平安時代]住居　[中世]掘建柱建物　土坑　井戸　地下式坑　道路状遺構　溝　[近世]馬墓壙　[時代不明]住居","ナイフ形石器　縄文土器　打斧　石鏃　石皿　磨石　剥片　耳飾　土偶　土版　スタンプ形土製品　弥生土器　土師器　須恵器　灰釉陶器　陶磁器　瓦　砥石　鉄製品",139.4514588,35.59126191,TRUE
13209029700,13209,"297","のづたうえのはらいせき","野津田上の原遺跡","町田市 野津田町　 小野路町","[縄文時代（中期〜後期）][奈良時代][中世][近世]","包蔵地・集落・その他（道路）","[縄文時代]住居　敷石住居　環礫方形配石遺構　土壙墓　集石　陥穴　土坑　[奈良時代]住居　土坑　[中世]道路","尖頭器　縄文土器　石器　土製品　土師器　須恵器　丸玉　かわらけ",139.445298,35.59342448,TRUE
13209031500,13209,"315","のつだかわしまいせきじーちてん","野津田川島遺跡G地点","町田市 野津田町","[縄文時代（中期）][古墳時代][中世]","集落","[縄文時代]住居　集石　土坑　[古墳時代]住居　[平安時代]土坑　[中世]地下式土坑","縄文土器　石器　土師器　須恵器　陶器　炭化材",139.4574326,35.58735321,TRUE
13209031900,13209,"319","かないせきやまいせきぐんしーく","金井関山遺跡群C区","町田市 薬師台三丁目　 金井三丁目","[縄文時代（早期〜中期）][中世]","包蔵地","[縄文時代]陥穴","縄文土器　打斧　石鏃　石皿　磨石　スタンプ形石器　敲石　打製石器　加工痕のある剥片",139.4578122,35.58200729,TRUE
13209032000,13209,"320","かわしだにいせきぐんだい5ちてん","川島谷遺跡群第5地点","町田市 薬師台三丁目","[縄文時代（早期）][弥生時代][古墳時代][平安時代][中世]","集落","[縄文時代]陥穴　[古墳時代]住居　土坑　[平安時代]住居　焼土　土坑","縄文土器　石器　弥生土器　土師器　須恵器　陶器（灰釉他）　鉄器",139.4573144,35.58115567,TRUE
13209032100,13209,"321","かわしだにいせきぐんだい4ちてん","川島谷遺跡群第4地点","町田市 薬師台三丁目","[縄文時代（早期〜中期）][古墳時代][奈良時代][平安時代][中世][近世]","集落","[縄文時代]炉穴　陥穴　[古墳時代]住居　墓壙　[平安時代]住居　焼土　土坑　[中世]掘立柱建物　地下式土壙　墓壙　[近世]土坑　墓壙","縄文土器　石器　土師器　須恵器　陶器（縁釉）（灰釉）　磁器　鉄器　古銭　石製品",139.4546021,35.58216086,TRUE
13209032500,13209,"325","かわしだにいせきぐんだい3ちてん","川島谷遺跡群第3地点","町田市 薬師台三丁目","[旧石器時代][縄文時代（早期）][奈良時代][平安時代][中世]","集落","[縄文時代]炉穴　陥穴　土坑　[奈良時代][平安時代]住居　焼土　[近世]土坑","ナイフ形石器　尖頭器　縄文土器　石器　土製品　土師器　須恵器　陶器（灰釉他）　石製品　鉄器",139.4533662,35.58204918,TRUE
13209032700,13209,"327","かわしだにいせきぐんだい10ちてん","川島谷遺跡群第10地点","町田市 薬師台二丁目　薬師台三丁目","[縄文時代（草創期〜前期・後期）][中世][近世]","集落","[縄文時代]住居　陥穴　[近世]溝　道路状遺構　土坑","縄文土器　石器　陶器　土製品",139.4504136,35.58090437,TRUE
13209034100,13209,"341","しんこうじひろばかまいせきぐんNo.2ちてん（いりゅうだみなみ）","真光寺広袴遺跡群No.2地点(入生田南)","町田市 真光寺一丁目","[中世][近世]","集落・その他の墓・その他（生業址）","[縄文時代]集石　炉穴　焼土　土坑　[古墳時代]掘立柱建物　溝　道路状遺構　[中世]墓址　[近世]炭焼窯　炭焼坑","縄文土器　石器　土師器　須恵器　かわらけ　蔵骨器　陶磁器　板碑　鉄製品　古銭　人骨",139.4662211,35.60492945,TRUE
13209034200,13209,"342","しんこうじひろばかまいせきぐんNo.3ちてん（おおくぼ）","真光寺広袴遺跡群No.3地点(大久保)","町田市 真光寺一丁目　真光寺二丁目","[旧石器時代][縄文時代（早期〜前期・後期）][奈良時代][平安時代][中世][近世]","包蔵地・社寺？","[縄文時代]集石土坑　焼土　土坑　[平安時代]〜[近世]掘立柱建物　竪穴状遺構　礎石柱建物　ピット　井戸　土坑　段切状遺構　溝　道路状遺構　階段　炭焼窯　地下式土坑　[近世]墓壙","ナイフ形石器　尖頭器　有舌尖頭器　縄文土器　打斧　礫器　石鏃　石皿　磨石　敲石　土師器　須恵器　土師質土器　陶磁器　瓦　石製品　金属製品　木製品　板碑　かわらけ　古銭　人骨",139.4674571,35.60370123,TRUE
13209034300,13209,"343","しんこうじひろばかまいせきぐんNo.4ちてん","真光寺広袴遺跡群No.4地点","町田市 真光寺二丁目","[縄文時代（前期〜中期）][中世][近世]","包蔵地","[時代不明]土坑","縄文土器　打斧　使用痕のある剥片　陶磁器",139.4697573,35.60329248,TRUE
13209034400,13209,"344","しんこうじひろばかまいせきぐんNo.5・No.6ちてん（みやた）","真光寺広袴遺跡群No.5・No.6地点(三矢田）","町田市 真光寺二丁目","[旧石器時代][縄文時代（草創期〜中期）][古墳時代][奈良時代][平安時代][中世][近世]","集落","[縄文時代]住居　竪穴状遺構　集石　炉穴　焼土　陥穴　土坑　遺物集中箇所　礫群　[古墳時代]〜[平安時代]住居　ピット　土坑　製鉄関連遺構　道路状遺構　[中世][近世]土坑　砂採掘坑　炭焼窯","尖頭器　縄文土器　石槍　有舌尖頭器　石器　土師器",139.47065,35.60189675,TRUE
13209034900,13209,"349","","町田市No.349遺跡","町田市 真光寺町","[旧石器時代][縄文時代（前期〜中期）][中世][近世]","包蔵地・その他（塚）","","縄文土器　石器",139.4614833,35.59901149,TRUE
13209035100,13209,"351","","町田市No.351遺跡","町田市 真光寺町","[縄文時代（早期）][弥生時代][奈良時代][平安時代][中世]","包蔵地","","縄文土器　弥生土器　土師器　須恵器　陶器",139.457741,35.59789484,TRUE
13209035200,13209,"352","","町田市No.352遺跡","町田市 真光寺町","[縄文時代（早期・中期〜後期）][奈良時代][平安時代][中世]","包蔵地","","縄文土器　土師器　陶器",139.4591487,35.59728068,TRUE
13209036800,13209,"368","","町田市No.368遺跡","町田市 大蔵町","[奈良時代][平安時代][中世]","包蔵地","","土師器　須恵器　陶器",139.4694656,35.58426096,TRUE
13209039000,13209,"390","つるかわいせきぐんびー1ちてん","鶴川遺跡群b1地点","町田市 鶴川五丁目","[中世]","繋飼場?","","",139.4667832,35.59132347,TRUE
13209039100,13209,"391","つるかわいせきぐんびー2ちてん","鶴川遺跡群b2地点","町田市 鶴川五丁目　 鶴川六丁目","[中世]","繋飼場?","","",139.46826,35.59077885,TRUE
13209039800,13209,"398","つるかわいせきぐんえすちてん","鶴川遺跡群S地点","町田市 鶴川六丁目","[中世]","包蔵地","","カワラケ　古銭　素焼皿",139.4737188,35.59030937,TRUE
13209040000,13209,"400","つるかわいせきぐんびー3ちてん","鶴川遺跡群b3地点","町田市 鶴川五丁目　 鶴川六丁目","[中世]","丘陵斜面　繋飼場?","","",139.4694964,35.59110004,TRUE
13209041700,13209,"417","","町田市No.417遺跡","町田市 能ヶ谷七丁目","[縄文時代（中期）][奈良時代][平安時代][中世]","包蔵地","","縄文土器　土師器　須恵器　陶器",139.4803328,35.59415146,TRUE
13209042900,13209,"429","のうがやへいわだいいせきNo.1","能ケ谷平和台遺跡No.1","町田市 能ヶ谷六丁目","[縄文時代（早期・中期〜後期）][古墳時代][奈良時代][平安時代][中世]","集落","[縄文時代]住居　敷石住居　土坑　埋甕　[古墳時代]住居","縄文土器　打斧　石鏃　石皿　凹石　石棒　土師器　須恵器　陶器",139.4828572,35.58934769,TRUE
13209045400,13209,"454","さわやまじょうあと","沢山城跡","町田市 三輪町　 三輪緑山四丁目","[中世]","城館","[中世]井戸　空堀　腰曲輪　土塁","陶器　焼米",139.491262,35.57869462,TRUE
13209045800,13209,"458","おかがみはいじかんれんいせき","岡上廃寺関連遺跡","町田市 三輪町","[縄文時代（中期〜後期）][古墳時代][奈良時代][平安時代][中世]","包蔵地・窯","[奈良時代]瓦窯","縄文土器　石器　土師器　陶器　瓦",139.4862995,35.57729722,TRUE
13209045900,13209,"459","みわみなみいせきぐん（えー-1）","三輪南地区遺跡群（A−1）","町田市 三輪緑山二丁目","[中世][近世]","その他（塚）","[中世][近世]塚2基","縄文土器　石器　土製品　石製品",139.4846715,35.5702643,TRUE
13209046400,13209,"464","ただおびーちくいせき","忠生B地区遺跡","町田市 矢部町　 根岸町","[旧石器時代][縄文時代（草創期〜後期）][中世]","台地　集落・墳墓","[旧石器時代]ブロック　礫群　[縄文時代]住居　[中世]墓壙","ナイフ形石器　尖頭器　細石刃　細石刃核　縄文土器　石器　石製品　土製品　かわらけ　板碑　銀貨　人骨",139.4049682,35.57790611,TRUE
13209050600,13209,"506","","町田市No.506遺跡","町田市 木曽西一丁目　 木曽西四丁目","[縄文時代（中期〜後期）][奈良時代][平安時代][中世]","包蔵地","","縄文土器　石器　土師器　須恵器　陶器",139.4182204,35.56611907,TRUE
13209051800,13209,"518","かない・せきやまいせきぐんえーく","金井・関山遺跡群A区","町田市 金井三丁目","[縄文時代（早期〜中期）][奈良時代][平安時代][中世]","集落","[縄文時代]陥穴　[平安時代]住居　[中世][近世]土坑　溝","縄文土器　磨斧　礫器　石鏃　打製石器　石皿　磨石　スタンプ形石器　土師器　須恵器　土師質土器　灰釉陶器　石製品　陶磁器",139.4573315,35.57794456,TRUE
13209052100,13209,"521","","町田市No.521遺跡","町田市 薬師台一丁目","[縄文時代][奈良時代][平安時代][中世]","包蔵地","","縄文土器　土師器　陶器",139.4541215,35.57827964,TRUE
13209052800,13209,"528","かないきくら・いりやとでぃーちてんいせき","金井木倉・入谷戸D地点遺跡","町田市 金井二丁目","[縄文時代（早期・中期）][奈良時代][平安時代][中世]","集落","[縄文時代]炉穴　焼土　[近世]炭焼窯","縄文土器　石器　土師器　陶器",139.4576234,35.57515218,TRUE
13209053300,13209,"533","","町田市No.533遺跡","町田市 金井五丁目　 金井七丁目","[縄文時代][奈良時代][平安時代][中世]","包蔵地","","縄文土器　土師器　陶器",139.4627732,35.57442615,TRUE
13209054000,13209,"540","","町田市No.540遺跡","町田市 金井町","[縄文時代][奈良時代][平安時代][中世]","包蔵地","","縄文土器　土師器　須恵器　陶器",139.4718034,35.58087229,TRUE
13209055300,13209,"553","すがわらじんじゃけいだい・いでのさわるいいせき","菅原神社境内・井出ノ沢塁遺跡","町田市 本町田　 旭町三丁目","[平安時代][中世]","包蔵地・城館","","土師器　須恵器",139.4477415,35.55936116,TRUE
13209056400,13209,"564","きそだんちいせきぐん・ほんまちだしちめんやまいせき","木曽団地遺跡群・本町田七面山遺跡","町田市 本町田","[縄文時代（早期〜後期）][弥生時代（後期）][古墳時代][奈良時代][平安時代][中世]","包蔵地･その他の墓","","縄文土器　弥生土器　土師器　須恵器　板碑",139.4421797,35.5663433,TRUE
13209056700,13209,"567","ほんまちだやまのうえいせき","本町田上の山遺跡","町田市 本町田","[縄文時代（早期〜後期）][奈良時代][平安時代][中世][近世]","集落","[縄文時代]住居　陥穴　[平安時代]土坑","縄文土器　打斧　打製石器　石皿　磨石　スタンプ形石器　土師器　陶磁器",139.4417334,35.57148176,TRUE
13209057700,13209,"577","ふじのだいいせき","藤の台遺跡","町田市 本町田","[縄文時代（早期〜後期）][平安時代][中世]","集落","[縄文時代]住居　竪穴状遺構　炉穴　焼土　土坑　[時代不明]竪穴状遺構　土坑　溝","縄文土器　石器　土製品　土師器　須恵器　陶器　古銭",139.4454413,35.57131421,TRUE
13209060100,13209,"601","","町田市No.601遺跡","町田市 玉川学園三丁目　 玉川学園四丁目","[縄文時代（早期・中期〜後期）][奈良時代][平安時代][中世]","包蔵地","","縄文土器　土師器　陶器",139.4547202,35.56441504,TRUE
13209061700,13209,"617","きそもりの・きそもりのみなみ・もりのろくちょうめいせき","木曽森野・木曽森野南・森野６丁目遺跡","町田市 木曽東一丁目　 森野四丁目　 森野六丁目","[旧石器時代][縄文時代（早期・中期・晩期）][奈良時代][平安時代][中世][近世]","集落","[旧石器時代]礫群　ユニット　[縄文時代]住居　竪穴状遺構　配石　埋甕　集石　土坑　[奈良時代]竪穴住居　掘立柱建物　溝状遺構　焼成窯　溝　[平安時代]焼成窯　[中世]建物跡　溝状遺構　集石　土坑　[近世]土坑　耕作関連遺構","尖頭器　ナイフ形石器　削器　石器　礫　縄文土器　土師器　須恵器　墨書土器　陶器(灰釉)　鉄製品　石製品　羽口　土師器",139.4295872,35.55494419,TRUE
13209066900,13209,"669","なるせにしいせきぐんだいさんいせき","成瀬西遺跡群第III遺跡","町田市 西成瀬二丁目","[縄文時代（前期〜後期）][古墳時代][奈良時代][平安時代][中世]","集落","[縄文時代]焼土　土坑　埋甕　[古墳時代]住居　土坑","縄文土器　打斧　礫器　石鏃　磨石　土師器　須恵器　陶器　鉄器",139.4711203,35.54827102,TRUE
13209067700,13209,"677","とううんじいせきぐん","東雲寺遺跡群","町田市 成瀬三丁目　 成瀬四丁目　 成瀬五丁目","[縄文時代（早期・中期〜後期）][弥生時代（中期）][古墳時代][奈良時代][平安時代][中世]","集落・その他（環濠）","[縄文時代]住居　竪穴状プラン　環礫方形配石遺構　焼土　土器集中箇所　柱穴列　土坑　ピット　[弥生時代]住居　土器埋納土坑　溝状遺構(環濠)　[古墳時代][平安時代][時代不明]住居","縄文土器　石器　弥生土器　石器　鉄製品　土師器　須恵器　陶磁器",139.4796045,35.54208326,TRUE
13209069600,13209,"696","","町田市No.696遺跡","町田市 鶴間","[中世]","包蔵地","","陶器",139.4751465,35.50220841,TRUE
13209069700,13209,"697","つるまのおおつか","鶴間の大塚","町田市 鶴間　 鶴間三丁目","[中世]","その他（塚）","","土師器",139.4740822,35.50922347,TRUE
13209070700,13209,"707","やまざきたかばんづかいせき","山崎鷹番塚遺跡","町田市 山崎町","[中世][近世]","塚","[縄文時代]土坑　[時代不明]塚 方形周溝","縄文土器　石器　須恵器",139.431341,35.57583015,TRUE
13209071000,13209,"710","ふくしょうじきたいせき","福生寺北遺跡","町田市 小山町","[旧石器時代][縄文時代（中期）][弥生時代（中期）][古墳時代][平安時代][中世]","集落･横穴墓","[縄文時代]住居　集石　土坑　陥穴　〔弥生時代〕住居〔古墳時代〕横穴墓　[時代不明]住居","ナイフ形石器　縄文土器　石斧　弥生土器　土師器　須恵器　板碑　人骨",139.3695572,35.60077944,TRUE
13209071200,13209,"712","すぐじやまいせき","すぐじ山遺跡","町田市 山崎町","[縄文時代（早期）][古墳時代][奈良時代][中世]","集落","[縄文時代]集石炉　焼土　土坑　[古墳時代][奈良時代]住居　火葬墓　[奈良時代][平安時代]ピット群　[平安時代][中世]道路状遺構　溝状遺構","縄文土器　石器　土師器　須恵器　灰釉陶器　土製品　木器　鉄器　石製品　陶器",139.4318732,35.57798725,TRUE
13209071600,13209,"716","まちだだいさんしょうがっこういせき","町田第三小学校遺跡","町田市 本町田","[縄文時代（前期〜中期）][中世]","包蔵地","","縄文土器　石器　陶磁器",139.4461279,35.56408115,TRUE
13209072200,13209,"722","なるせじょうあと","成瀬城跡","町田市 南成瀬三丁目　 成瀬七丁目","[縄文時代（早期・中期）][奈良時代][平安時代][中世]","集落･城館","[縄文時代]住居　炉跡　[中世]配石　建物跡？　柱穴　道路状遺構　空堀　土坑　地下式坑","縄文土器　石器　陶器　かわらけ　鉄製品　古銭",139.4724188,35.5409274,TRUE
13209072300,13209,"723","おのじじょうあと","小野路城跡","町田市 小野路町　 下小山田町　 図師町","[中世]","城館","","",139.4276181,35.59687863,TRUE
13209072400,13209,"724","おやまだじょうあと","小山田城跡","町田市 下小山田町","[中世]","城館","","",139.4117222,35.59992149,TRUE
13209072600,13209,"726","とののじょうあと","殿ノ城跡","町田市 本町田","[中世]","城館","","",139.4479132,35.56142793,TRUE
13209072900,13209,"729","あいはらしやかたあと（とのまる）","相原氏館跡(殿丸）","町田市 相原町","[中世]","城館","","",139.339801,35.61967521,TRUE
13209073400,13209,"734","","町田市No.734遺跡","町田市 下小山田町","[縄文時代（前期〜後期）][奈良時代][平安時代][中世]","包蔵地","","縄文土器　土師器　須恵器　陶器",139.4112072,35.59729738,TRUE
13209073600,13209,"736","おやまだいせきぐんNo.1いせき","小山田遺跡群No.1遺跡","町田市 小山田桜台二丁目　 上小山田町","[中世]","城館","[中世]掘立柱建物　大形竪穴状遺構　地下式横穴","土師質土器　陶器　天目茶碗　古銭",139.4004942,35.59286198,TRUE
13209073700,13209,"737","おやまだいせきぐんNo.2いせき","小山田遺跡群No.2遺跡","町田市 小山田桜台二丁目　 上小山田町","[縄文時代（早期〜後期）][中世]","集落","[縄文時代]集石　炉穴　土坑　[中世]土坑　地下式土坑　墓壙　[近世][現]炭焼遺構・窯","縄文土器　石器　土師質土器　陶磁器　板碑　人骨　古銭",139.4001337,35.5917592,TRUE
13209074700,13209,"747","おやまだいせきぐんNo.12いせき","小山田遺跡群No.12遺跡","町田市 下小山田町　 小山田桜台一丁目","[旧石器時代][縄文時代（早期〜後期）][平安時代][中世]","集落","[縄文時代]住居　土坑　墓壙　集石　[平安時代]〜[中世]掘立柱建物　井戸　土坑　地下式横穴　竪穴状遺構","尖頭器　縄文土器　石器　土製品　土師質土器　土師器　須恵器　灰釉陶器　陶器　古銭",139.407395,35.58902315,TRUE
13209075000,13209,"750","おやまだいせきぐんNo.15いせき","小山田遺跡群No.15遺跡","町田市 小山田桜台一丁目","[縄文時代（早期〜後期）][平安時代][中世]","集落","[縄文時代]住居　集石　炉穴　焼土　土坑　[奈良時代][平安時代]住居　土坑　[中世]溝　[近世][現]炭焼窯","縄文土器　石器　土製品　土師器　須恵器　灰釉陶器",139.4045283,35.58882771,TRUE
13209075700,13209,"757","おやまだいせきぐんNo.22いせき","小山田遺跡群No.22遺跡","町田市 図師町","[中世]","包蔵地","","縄文土器　土師質土器",139.4134367,35.58523301,TRUE
13209079900,13209,"799","ほうせいだいがくたまこうちいせきぐんしーちく","法政大学多摩校地遺跡群C地区","町田市 相原町","[旧石器時代][縄文時代（早期〜晩期）][平安時代][中世][近世]","包蔵地","[縄文時代]集石　炉　焼土　土坑　炭化物集中　[平安時代]住居　焼土　土坑　[近世][現]土坑 溝","ナイフ形石器　彫刻刀形石器　縄文土器　石鏃　石槍　掻器　石匙　石錐　楔形石器　石皿　磨石　敲石　石核　剥片　土製品　弥生土器　土師器　須恵器　緑釉陶器　灰釉陶器　鉄製品　石器　陶磁器　石製品　銅製品",139.3012741,35.61226081,TRUE
13209080200,13209,"802","むさしおかおおやとちくいせき","武蔵岡大谷戸地区遺跡","町田市 相原町","[縄文時代（前期〜中期）][奈良時代][中世][近世]","集落","[縄文時代]土坑　[奈良時代]住居　[中世]掘立柱建物　ピット　井戸　溝　土塁　集石土坑","縄文土器　石器　土師器　須恵器　鉄製品　陶器　銅製品　古銭",139.305497,35.60913468,TRUE
13209082200,13209,"822","","町田市No.822遺跡","町田市 図師町","[縄文時代（前期〜中期）][奈良時代][平安時代][中世]","包蔵地","","縄文土器　土師器　須恵器　陶器",139.4185136,35.58646152,TRUE
13209082600,13209,"826","きそちゅうがっこう　ただおえー-2ちくいせき","木曽中学校　忠生A−2区遺跡","町田市 木曽町　根岸町　木曽西一丁目　木曽西二丁目","[旧石器時代][縄文時代（中期〜後期）][奈良時代][平安時代][中世]","集落","[旧石器時代]ブロック　礫群　[縄文時代]住居　集石　土坑　[平安時代]住居　掘立柱建物　土坑　溝　[中世]地下式土坑　井戸他","尖頭器　細石刃　ナイフ形石器　縄文土器　石器　土師器　須恵器　土師質土器　瓦　鉄製品　陶器",139.4138602,35.5685466,TRUE
13209082800,13209,"828","ただおちくとちくかくせいりちないいせき","忠生土地区画整理地内遺跡","町田市 忠生二丁目","[中世]","墓跡","","陶器　板碑　宝篋印塔",139.4264945,35.57675659,TRUE
13209082900,13209,"829","すぐじやましたいせき","すぐじ山下遺跡","町田市 山崎町","[縄文時代（早期・中期）][弥生時代（中期）][古墳時代][奈良時代][平安時代][中世][近世]","集落","[縄文時代]住居　敷石住居　[古墳時代]住居　　[奈良時代][平安時代]住居　掘立柱建物　[中世][近世]土坑　溝状遺構","縄文土器　石器　弥生土器　土師器　須恵器　灰釉陶器　紡錘車　鉄製品　古銭　陶磁器",139.4321135,35.57943925,TRUE
13209084500,13209,"845","しんこうじひろばかまいせきぐんNo.10ちてん（いりゅうだいせき）","真光寺・広袴遺跡群No.10地点(入生田遺跡）","町田市 真光寺一丁目","[縄文時代（前期〜後期）][奈良時代][平安時代][中世][近世]","包蔵地","[縄文時代]集石　焼土　土坑　[古墳時代]〜[近世]土坑　焼土　井戸状遺構　道路状遺構　炭焼坑","縄文土器　打斧　礫器　石鏃　石皿　磨石　加工痕のある剥片　使用痕のある剥片",139.4664271,35.60618556,TRUE
13209084700,13209,"847","しんこうじひろばかまいせきぐんNo.7ちてん（やまあらくいせき）","真光寺・広袴遺跡群No.7地点(山新久遺跡）","町田市 真光寺一丁目","[縄文時代][中世][近世]","集落","[近世]掘立柱建物　土坑　溝","縄文土器　打斧　礫器　石皿　磨石　陶磁器　かわらけ　砥石　石臼　板碑　銅製品",139.4650195,35.60476197,TRUE
13209084900,13209,"849","しんこうじひろばかまいせきぐんNo.11ちてん","真光寺・広袴遺跡群No.11地点","町田市 広袴三丁目　 真光寺二丁目","[旧石器時代][縄文時代（早期・中期）][奈良時代][平安時代][中世]","包蔵地","","縄文土器　土師器",139.4708874,35.59833336,TRUE
13209085000,13209,"850","しんこうじひろばかまいせきぐんNo.12ちてん（さんのうざかいせき）","真光寺・広袴遺跡群No.12地点(山王坂遺跡）","町田市 広袴三丁目","[縄文時代（早期〜晩期）][古墳時代][奈良時代][平安時代][中世][近世]","包蔵地","[古墳時代]〜[近世]土坑群　溝","縄文土器　打斧　礫器　有舌尖頭器　石鏃　掻器　錐　ピエス・エスキーユ　石皿　磨石　凹石　敲石　土師器　陶器",139.473034,35.59809598,TRUE
13209085600,13209,"856","たまにゅーたうんNo.237いせき","多摩ニュータウンNo.237遺跡","町田市 小山ヶ丘六丁目","[縄文時代（早期〜後期）][奈良時代][平安時代][中世][近世]","包蔵地","※八王子No.224と一連の多摩ニュータウン遺跡　[縄文時代]集石　炉　焼土　土坑　[奈良時代][平安時代]土坑　[近世]土坑　井戸　溝","縄文土器　石鏃　スタンプ形石器　土師器　須恵器　陶磁器",139.3467369,35.60925504,TRUE
13209085800,13209,"858","たまにゅーたうんNo.962いせき","多摩ニュータウンNo.962遺跡","町田市 小山ヶ丘六丁目","[縄文時代（早期〜後期）][古墳時代][奈良時代][平安時代][中世][近世]","包蔵地","※八王子No.938と一連の多摩ニュータウン遺跡 [縄文時代]集石 炉穴 焼土 土坑 [古墳時代]土坑","縄文土器 打斧 石鏃 スタンプ形石器 土師器 須恵器 陶磁器",139.3480072,35.60847349,TRUE
13209086500,13209,"865","たまにゅーたうんNo.956いせき","多摩ニュータウンNo.956遺跡","町田市 小山ヶ丘四丁目","[縄文時代（早期・中期）][奈良時代][平安時代][中世][近世]","包蔵地","","縄文土器　石鏃　土師器",139.3578187,35.60571338,TRUE
13209086700,13209,"867","たまにゅーたうんNo.957いせき","多摩ニュータウンNo.957遺跡","町田市 小山ヶ丘四丁目","[縄文時代（早期〜中期）][奈良時代][平安時代][中世][近世]","包蔵地","[縄文時代]土坑　[奈良時代][平安時代]土坑　[近世]溝","縄文土器　石鏃　石皿　土師器　須恵器　陶磁器",139.357338,35.60536446,TRUE
13209086800,13209,"868","たまにゅーたうんNo.954いせき","多摩ニュータウンNo.954遺跡","町田市 小山ヶ丘五丁目","[中世]","塚","","",139.3590691,35.60370793,TRUE
13209088200,13209,"882","たまにゅーたうんNo.819いせき","多摩ニュータウンNo.819遺跡","町田市 小山ヶ丘四丁目","[奈良時代][平安時代][中世][近世]","集落","[時代不明]住居","土師器　須恵器　陶器（天目）",139.3653546,35.60622978,TRUE
13209088500,13209,"885","たまにゅーたうんNo.944いせき","多摩ニュータウンNo.944遺跡","町田市 小山ヶ丘四丁目","[縄文時代（早期〜晩期）][奈良時代][平安時代][中世][近世]","包蔵地・窯","[縄文時代]土坑　[奈良時代]窯体　[中世][近世]土坑　[時代不明]焼土","縄文土器　石斧　石鏃　土師器　須恵器　瓦",139.3658696,35.60449913,TRUE
13209089000,13209,"890","たまにゅーたうんNo.937いせき","多摩ニュータウンNo.937遺跡","町田市 小山ヶ丘三丁目","[旧石器時代][縄文時代（早期〜後期）][古墳時代][奈良時代][平安時代][中世]","集落","[縄文時代]住居　焼土　土坑　[平安時代]住居　[平安時代][中世]土坑","石器　縄文土器　打斧　礫器　石鏃　石皿　磨石　土師器　須恵器　陶器（灰釉）　瓦",139.3700869,35.60239159,TRUE
13209089200,13209,"892","たまにゅーたうんNo.935いせき","多摩ニュータウンNo.935遺跡","町田市 小山ヶ丘二丁目","[縄文時代（早期・中期）][古墳時代][奈良時代][平安時代][中世][近世]","包蔵地","[縄文時代]集石　[近世]炭窯","縄文土器　打斧　石皿　土師器　陶器（灰釉）　陶磁器",139.3717349,35.60387106,TRUE
13209089400,13209,"894","たまにゅーたうんNo.932いせき","多摩ニュータウンNo.932遺跡","町田市 小山ヶ丘二丁目","[縄文時代（早期〜中期）][奈良時代][平安時代][中世][近世]","包蔵地","[縄文時代]集石　土坑　[平安時代]土坑　[中世][近世]土坑　焼土　炭窯","縄文土器　打斧　礫器　石鏃　磨石　敲石　土師器",139.3718498,35.60322903,TRUE
13209089500,13209,"895","たまにゅーたうんNo.930いせき","多摩ニュータウンNo.930遺跡","町田市 小山ヶ丘二丁目","[縄文時代（前期〜中期）][弥生時代][奈良時代][平安時代][中世][近世]","包蔵地・城館","[弥生時代]埋甕　[奈良時代][平安時代]溝　[中世]堀　郭　[近世]炭窯","縄文土器　石器　弥生土器　陶磁器",139.3728678,35.60281031,TRUE
13209089900,13209,"899","たまにゅーたうんNo.927いせき","多摩ニュータウンNo.927遺跡","町田市 小山ヶ丘二丁目","[縄文時代（早期〜後期）][中世][近世]","包蔵地","[縄文時代]土坑　集石　[近世]炭窯","縄文土器　石器　陶磁器",139.3746822,35.60282427,TRUE
13209090600,13209,"906","たまにゅーたうんNo.916いせき","多摩ニュータウンNo.916遺跡","町田市 小山ヶ丘三丁目","[旧石器時代][縄文時代（早期〜中期）][古墳時代][奈良時代][平安時代][中世][近世]","集落","[縄文時代]炉穴　焼土　土坑　[古墳時代]住居　土坑　溝　方形周溝墓　[奈良時代][平安時代]土坑　[中世][近世]焼土　土坑　炭窯　溝　道　杭列","尖頭器　剥片　縄文土器　石器　土師器　鉄製品　石製品　陶磁器　銭貨",139.3786636,35.6002519,TRUE
13209090800,13209,"908","たまにゅーたうんNo.918いせき","多摩ニュータウンNo.918遺跡","町田市 小山ヶ丘二丁目","[縄文時代（早期〜後期）][古墳時代][奈良時代][平安時代][中世][近世]","集落","[縄文時代]炉穴　土坑　[古墳時代]住居　掘立柱建物　ピット　[奈良時代][平安時代]土坑　溝　道路状遺構　[近世]炭窯　[時代不明]焼土","縄文土器　石器　土師器　石製品　鉄製品　紡錘車　ガラス玉　陶磁器",139.3793858,35.60098189,TRUE
13209092500,13209,"925","","町田市No.925遺跡","町田市 木曽東一丁目　 木曽東三丁目","[中世]","包蔵地","[中世]井戸　土坑　柱穴列　地下式土壙 [近世]集石　土坑","土師質土器　青磁　陶磁器　石皿　板碑　馬骨　鉄製品　古銭",139.4257346,35.56000354,TRUE
13209092900,13209,"929","のうがやかごやまこふんぐん","能ヶ谷香山古墳群","町田市 能ヶ谷二丁目","[縄文時代（早期〜中期）][弥生時代][古墳時代][奈良時代][中世]","古墳・横穴墓・包蔵地","円墳2基　横穴墓20基　[縄文時代？]床状硬化面　焼土　竪穴状プラン　[古墳時代]円墳","縄文土器　土師器　須恵器　耳環　勾玉　玉類　直刀　鉄製品　灰釉陶器　板碑　古銭",139.4825824,35.58564458,TRUE
13209093400,13209,"934","","町田市No.934遺跡","町田市 三輪町","[縄文時代（後期）][奈良時代][平安時代][中世]","包蔵地","","縄文土器　土師器　須恵器　陶器",139.4893133,35.5815773,TRUE
13209094900,13209,"949","","町田市No.949遺跡","町田市 小野路町","[縄文時代][中世]","包蔵地･その他の墓","[中世]地下式坑","カワラケ　青磁　古銭　鉄製品",139.441515,35.59779636,TRUE
13209095800,13209,"958","","町田市No.958遺跡","町田市 小山町","[縄文時代（中期〜後期）][弥生時代][古墳時代][奈良時代][平安時代][中世]","包蔵地","","縄文土器　石器　弥生土器　土師器　陶磁器",139.3851714,35.59384627,TRUE
13209095900,13209,"959","","町田市No.959遺跡","町田市 小山町","[縄文時代（前期〜後期）][弥生時代（後期）][古墳時代][奈良時代][平安時代][中世]","包蔵地","","縄文土器　弥生土器　土師器　陶磁器",139.3767683,35.59578426,TRUE
13209097500,13209,"975","","町田市No.975遺跡","町田市 図師町","[縄文時代（中期）][奈良時代][平安時代][中世]","包蔵地","","縄文土器　石器　土師器　須恵器　陶器",139.4228738,35.58847175,TRUE
13209100400,13209,"1004","","町田市No.1004遺跡","町田市 金森五丁目　鶴間","[縄文時代（中期）][古墳時代][奈良時代][平安時代][中世]","包蔵地","","縄文土器　土師器　須恵器　灰釉陶器　陶磁器　古銭",139.4613884,35.5210925,TRUE
13210000301,13210,"03-1","へいたいさかいせき","平代坂遺跡","小金井市 前原町三丁目","[旧石器時代][縄文時代（中期）][中世]","集落","[旧石器時代]礫群 [縄文時代]住居 [中世]地下式土坑","ナイフ形石器 尖頭器 礫器 磨石 石核 縄文土器 陶器",139.5013555,35.69879823,TRUE
13210001100,13210,"11","","小金井市No.11遺跡","小金井市 前原町三丁目","[縄文時代][中世]","包蔵地","","縄文土器 石棒 蔵骨器",139.5023511,35.69503419,TRUE
13210001600,13210,"16","しちけんやいせき","七軒家遺跡","小金井市 前原町二丁目","[旧石器時代][縄文時代（草創期〜後期）][古墳時代][中世][近世]","包蔵地","[時代不明]土坑 溝状遺構","有舌尖頭器 削器 剥片 縄文土器 打斧 磨石 土師器 陶磁器 カワラケ",139.5141596,35.69129435,TRUE
13210001800,13210,"18","のがわなかすきたいせき","野川中洲北遺跡","小金井市 中町一丁目","[旧石器時代][縄文時代（草創期〜早期・後期）][古墳時代][平安時代][中世][近世]","集落","[旧石器時代]ブロック 礫群 配石 炭化物集中 [縄文時代]住居 集石 土坑 ピット [平安時代]土坑 [中世]掘立柱建物 ピット 土坑 溝 [近世]ピット 土坑","ナイフ形石器 尖頭器 細石刃 打斧 局部磨斧 礫器 縄文土器 打斧 磨斧 石槍 有舌尖頭器 石鏃 石錘 石皿 磨石 敲石 木製品 土師器 刀子 陶磁器",139.5162195,35.69319042,TRUE
13210001900,13210,"19","むさしのこうえんていしっちいせき","武蔵野公園低湿地遺跡","小金井市 東町五丁目","[旧石器時代][縄文時代（前期〜後期）][古墳時代][中世][近世]","包蔵地","[時代不明]河道 土坑 丸木橋状遺構","石器 縄文土器 石斧 石鏃 石皿 磨石 木製品 漆塗りくし 土師器 板碑 銭貨 陶磁器",139.5197557,35.69098763,TRUE
13212000100,13212,"1","ななつづかいせき","七ツ塚遺跡","日野市 新町四丁目 新町五丁目","[旧石器時代][縄文時代（草創期〜後期）][古墳時代][奈良時代][中世]","集落","[縄文時代]住居 集石 土坑 溝","縄文土器 石鏃 石錘 石棒 弥生土器 土師器 須恵器 陶器",139.3793835,35.68263916,TRUE
13212000400,13212,"4","さかえちょういせき","栄町遺跡","日野市 栄町二丁目","[縄文時代（前期〜後期）][平安時代][中世][近世]","集落","[平安時代]住居 掘立柱建物 土坑 集石 溝 [中世]集石状遺構 敷石状遺構","縄文土器 打斧 石匙 土師器 須恵器 陶器（灰釉・緑釉） 陶磁器 銭貨",139.3917138,35.68405216,TRUE
13212000500,13212,"5","しんめいうえきたいせき","神明上北遺跡","日野市 日野本町二丁目 神明日野","[縄文時代（中期〜後期）][奈良時代][平安時代][中世]","集落","[縄文時代]住居 集石 土坑 [平安時代]住居 土坑 [中世]溝","縄文土器 石斧 石鏃 石匙 石皿 石棒 土師器 須恵器 陶器（灰釉） 刀子 鉄鏃 紡錘車 帯金具",139.4005028,35.6742356,TRUE
13212001200,13212,"12","","日野市No.12遺跡","日野市 神明二丁目","[中世]","その他（塚）","","銭貨",139.3942942,35.66961523,TRUE
13212001400,13212,"14","みなみひろまぢいせき","南広間地遺跡","日野市 万願寺","[縄文時代（後期〜晩期）][古墳時代][奈良時代][平安時代][中世][近世]","集落","[奈良時代][平安時代]住居 土坑 [中世]溝","縄文土器 打斧 磨斧 石鏃 石皿 磨石 凹石 土師器 須恵器 木製鋤柄 銭貨",139.4106364,35.67173494,TRUE
13212001500,13212,"15","たむらしやかたあと","田村氏館跡","日野市 下田","[中世]","城館","","",139.4150309,35.67084244,TRUE
13212001600,13212,"16","","日野市No.16遺跡","日野市 川辺堀之内","[縄文時代][古墳時代][中世]","集落","ピット 溝 中世水田 畑 竪穴住居 土坑","縄文土器 石器 土師器 須恵器 中世陶器 木製品",139.4029803,35.66908529,TRUE
13212001700,13212,"17","かわべほりのうちいせき","川辺堀之内遺跡","日野市 川辺堀之内 豊田","[縄文時代（前期〜中期）][平安時代][中世]","包蔵地","竪穴状遺構 ピット 集石 土坑 溝 柱穴 落し穴","縄文土器 土師器 須恵器 古瀬戸 瓶子",139.3978648,35.66526407,TRUE
13212002000,13212,"20","","日野市No.20遺跡","日野市 東豊田一丁目 東豊田二丁目","[奈良時代][平安時代][中世]","集落","[奈良時代][平安時代]住居 溝","土師器 須恵器 銭貨",139.3884116,35.66212941,TRUE
13212002200,13212,"22","ひらやまいせき","平山遺跡","日野市 東平山二丁目 西平山 豊田","[旧石器時代][縄文時代（早期・中期）][弥生時代（後期）][古墳時代][奈良時代][平安時代][中世]","集落・古墳・墳墓","[旧石器時代]ユニット、[縄文時代]竪穴建物跡、集石、土坑、炉穴、[弥生時代]竪穴建物跡、方形周溝墓、[古墳時代]竪穴建物跡、古墳、[奈良～平安時代]掘立柱建物跡、柵列（ピット）、[中世]地下式土坑","[旧石器]石器、[縄文]土器、石器、[弥生]土器、[古墳]土師器、須恵器、鉄製刀子、人骨、[平安]土師器、[中世]銭貨、鉄製品",139.3756535,35.65123057,TRUE
13212002600,13212,"26","ひらやましやかた","平山氏館","日野市 平山五丁目","[平安時代][中世]","城館","※遺跡範囲のすべてが日野市指定史跡平山季重居館跡となっています。","鏡 刀",139.3805876,35.64720477,TRUE
13212002700,13212,"27","ひらやまたておよびひらやまじょうあと","平山館及平山城跡","日野市 平山六丁目","[平安時代][中世]","城館","[中世]腰曲輪 虎口","",139.3827162,35.64463801,TRUE
13212003300,13212,"33","たかはたじょうあと","高幡城址","日野市 高幡","[中世]","城館","[中世]堀切り 腰曲輪 土塁","",139.4101513,35.66011184,TRUE
13212003800,13212,"38","おちかわ・いちのみやいせき","落川・一の宮遺跡","日野市 落川","[縄文時代（晩期）][弥生時代（中期）][古墳時代][奈良時代][平安時代][中世][近世]","集落","[古墳時代]住居 土坑 [奈良時代]住居 掘立柱建物 土坑 溝 [古墳時代]?〜[近世]水田 [奈良時代]〜[中世]石敷遺構 [平安時代]住居 掘立柱建物 土坑 溝 粘土採掘坑 [中世]掘立柱建物 竪穴状遺構 地下炉 土坑 溝 道路 流路 [近世]礎石建物 畑 溝 墓壙","縄文土器 打斧 石鏃 弥生土器 土師器 須恵器 管玉 子持勾玉 勾玉 金環 石製模造品 砥石 刀子 鎚 釘 鉄鏃 石製・鉄製紡錘車 鉄錘 土錘 鉄鈴 門金具 陶硯 馬具 鍔 飾金具 墨書土器 磨石 石製・青銅製帯飾 馬歯 陶磁器 カワラケ 舶載陶磁器 瓦 板碑 銭貨 木杯 木蓋 くし 木杭",139.4368986,35.65469381,TRUE
13212003900,13212,"39","におうづかいせき","仁王塚遺跡","日野市 百草","[縄文時代（早期）]［中世］","集落","","縄文土器 礫器 石鏃 磨石",139.4314397,35.65296421,TRUE
13212004000,13212,"40","","日野市No.40遺跡","日野市 百草","[中世]","経塚？","","",139.4361089,35.65129036,TRUE
13212004100,13212,"41","におうづか","仁王塚","日野市 百草","[平安時代][中世]","経塚","","陶器 経筒",139.433946,35.65109508,TRUE
13212004400,13212,"44","かがづか","加賀塚","日野市 栄町一丁目","[中世]","塚","※遺跡範囲のすべてが日野市指定史跡加賀塚(竹間加賀入道の墓)となっています。","",139.3926407,35.68204432,TRUE
13212004600,13212,"46","よつやまえいせき","四ツ谷前遺跡","日野市 栄町一丁目","[縄文時代][古墳時代][奈良時代][平安時代][中世][近世]","集落・社寺","[奈良時代][平安時代]住居 土坑 道路 [平安時代]溝 [中世][近世]井戸 土坑 溝 水田 掘込炉 配石遺構 地下式土壙 [中世]土壙 火葬址 道路","縄文土器 打斧 土師器 須恵器 灰釉陶器 陶磁器 鉄鏃 刀子 紡錘車 風字硯 丸鞆 瓦塔 板碑 鉦鼓 銭貨 人骨 牛馬骨",139.3943917,35.68237897,TRUE
13212004700,13212,"47","うばくぼいせき","姥久保遺跡","日野市 新町一丁目","[縄文時代（前期〜中期）][古墳時代][奈良時代][平安時代][中世][近世]","集落・その他（水田・墓地）","[古墳時代]住居 [平安時代]道路 水田 [中世]掘込炉 集石遺構 井戸 土坑 地下式土壙 土壙 火葬墓溝 道路 [時代不明]掘立柱建物","縄文土器 打斧 石鏃 土師器 須恵器 丸鞆 カワラケ 板碑 陶磁器 石臼 短刀 銅製笄 銭貨 人骨",139.3907818,35.68010143,TRUE
13212005000,13212,"50","さんのううえいせき","山王上遺跡","日野市 多摩平二丁目 多摩平四丁目","[縄文時代][奈良時代][平安時代][中世]","集落","[縄文時代]土壙 集石 ピット 竪穴住居址 [平安時代]掘立柱建物址 溝 竪穴住居址","縄文土器 土師器 須恵器 石鏃 打製石斧 土錘 金属製品 石製品",139.3828498,35.66444457,TRUE
13212005100,13212,"51","","日野市No.51遺跡","日野市 多摩平六丁目","[旧石器時代][縄文時代（早期〜前期・後期）][平安時代][中世]","集落","[旧石器時代]石器ブロック [縄文時代]土坑 ピット [平安時代]竪穴住居址 土坑","石器（尖頭器） 土器 石器 土師器",139.3843692,35.66875754,TRUE
13212005200,13212,"52","しょうにんづか","上人塚","日野市 日野台三丁目","[平安時代][中世]","その他（塚）","※遺跡範囲のすべてが日野市指定史跡上人塚となっています。","須恵器（古代） かわらけ（中世）",139.381142,35.67296907,TRUE
13213000500,13213,"5","","東村山市No.5遺跡","東村山市 多摩湖町一丁目","[縄文時代（中期）][古墳時代][奈良時代][中世]","包蔵地","","縄文土器　剥片　土師器　須恵器　陶器　磁器",139.448643,35.76342426,TRUE
13213000700,13213,"7","ひなたきた","日向北遺跡","東村山市 多摩湖町一丁目","[旧石器時代][縄文時代（早期〜晩期）][弥生時代（後期）][古墳時代][奈良時代][平安時代][中世]","集落","[縄文時代]住居　[古墳時代]住居","尖頭器　縄文土器　打製石斧　磨製石斧　石鏃　石錐　敲石　土錘　垂飾　石棒　石剣　紡錘車　耳栓　土偶　剥片　残核　焼獣骨　弥生土器　土師器　須恵器　陶器　磁器",139.4518359,35.76470573,TRUE
13213001700,13213,"17","なかのわり（ひなた）いせき","中の割(日向)遺跡","東村山市 多摩湖町一丁目　 廻田町三丁目　 廻田町四丁目","[旧石器時代][縄文時代（草創期〜後期）][弥生時代（後期）][古墳時代][奈良時代][平安時代][中世]","集落","［縄文時代］竪穴住居跡　敷石住居　土坑 集石土坑　配石","ナイフ形石器　尖頭器　釉石刃　剥片　残核　縄文土器　耳栓　土製円盤　ミニチュア土器　打製石斧　磨製石斧　石鏃　楔形石器　石棒　敲石　磨石兼敲石　スクレイパー　石皿　台石　石皿兼台石　剥片　残核　弥生土器　瓦　土師器　須恵器　陶器　磁器　板碑",139.4503939,35.76027619,TRUE
13213001800,13213,"18","","東村山市No.18遺跡","東村山市 諏訪町三丁目","[縄文時代（中期）][弥生時代（後期）][古墳時代][奈良時代][平安時代][中世]","包蔵地","","縄文土器　磨製石斧　石皿　剥片　弥生土器　土師器　須恵器　陶器",139.4532948,35.76733005,TRUE
13213001900,13213,"19","","東村山市No.19遺跡","東村山市 諏訪町三丁目","[縄文時代（前期〜中期）][古墳時代][奈良時代][平安時代][中世]","包蔵地","","縄文土器　剥片　土師器　須恵器　陶器",139.4556294,35.76710719,TRUE
13213002600,13213,"26","とくぞうじ（のぐち）いせき","徳蔵寺(野口)遺跡","東村山市 諏訪町一丁目","[縄文時代（早期・中期〜晩期）][弥生時代（前期〜中期）][古墳時代][奈良時代][平安時代][中世]","包蔵地","[時代不明]V字溝","縄文土器　打製石斧　石皿　残核　弥生土器　土師器　須恵器　陶器　中世土器　磁器　板碑　石製円盤　木製品",139.4687443,35.77033856,TRUE
13213002900,13213,"29","","東村山市No.29遺跡","東村山市 野口町三丁目","[縄文時代（早期〜中期）][古墳時代][奈良時代][平安時代][中世]","包蔵地","","縄文土器　打製石斧　剥片　残核　土師器　須恵器　板碑　陶器　中世土器",139.4540332,35.76269993,TRUE
13213003100,13213,"31","しょうふくじいせき","正福寺遺跡","東村山市 野口町三丁目　 野口町四丁目","[旧石器時代][縄文時代（早期〜中期）][古墳時代][奈良時代][平安時代][中世]","集落","[奈良時代]住居　[平安時代]住居","尖頭器　縄文土器　打製石斧　石鏃　剥片　石皿　敲石　磨石兼敲石　土師器　須恵器　砥石　紡錘車　刀子　鉄鏃　陶器",139.4575007,35.7645943,TRUE
13213003300,13213,"33","べんてんいけきたいせき","弁天池北遺跡","東村山市 野口町四丁目","[縄文時代（前期〜後期）][古墳時代][奈良時代][平安時代][中世]","集落","竪穴建物　土坑　埋設土器　溝状遺構","縄文土器　打製石斧　石皿　剥片　土師器　須恵器　紡錘車　刀子　小刀　角釘　瓦　紡錘車　陶器　磁器　板碑　銭貨",139.4612942,35.76365282,TRUE
13213003600,13213,"36","","東村山市No.36遺跡","東村山市 秋津町三丁目","[縄文時代（前期〜後期）][中世]","包蔵地","","縄文土器　打製石斧　残核　剥片　土師器　中世土器　陶器",139.4784377,35.77417247,TRUE
13213003700,13213,"37","","東村山市No.37遺跡","東村山市 秋津町三丁目　 久米川町一丁目","[縄文時代（早期・中期）][平安時代][中世]","包蔵地","","縄文土器　スクレイパー　楔形石器　敲石　剥片　残核　焼礫　須恵器　陶器",139.4795714,35.77116054,TRUE
13213003800,13213,"38","しもざわいせき","下沢遺跡","東村山市 秋津町三丁目　 秋津町四丁目","[旧石器時代][縄文時代（早期〜晩期）][弥生時代（後期）][古墳時代][奈良時代][平安時代][中世]","集落","［縄文時代］住居　[平安時代]住居","ナイフ形石器　縄文土器　打製石斧　磨製石斧　石鏃　石皿　砥石　剥片　焼礫　弥生土器　土師器　須恵器　瓦　刀子　鉄鏃　板碑　陶器",139.4823859,35.77665151,TRUE
13213004000,13213,"40","ささづか（あきつはらかた）いせき","笹塚（秋津原方）遺跡","東村山市 秋津町四丁目　 秋津町五丁目","[旧石器時代][縄文時代（早期〜後期）][古墳時代][奈良時代][平安時代][中世]","集落","［縄文時代］住居　炉穴　土坑　溝","ナイフ形石器　細石刃　尖頭器　剥片　縄文土器　ミニチュア土器　打製石斧　磨製石斧　石鏃　スクレイパー　石匙　石錐　楔形石器　石皿　凹石　敲石　砥石　残核　釣針状石器　石棒　浮子　土器片錘　土製円盤　土師器　須恵器　瓦　陶器　磁器",139.487982,35.77670721,TRUE
13213004500,13213,"45","","東村山市No.45遺跡","東村山市 美住町二丁目","[縄文時代（前期〜中期）][中世]","包蔵地","","縄文土器　石鏃　磨製石斧",139.4642468,35.75423613,TRUE
13213005800,13213,"58","","東村山市No.58遺跡","東村山市 諏訪町三丁目","[縄文時代（前期〜中期）][中世]","包蔵地","","縄文土器　板碑",139.4606076,35.77164778,TRUE
13213006000,13213,"60","","東村山市No.60遺跡","東村山市 廻田町三丁目","[弥生時代（後期）][古墳時代][中世]","包蔵地","","弥生土器　土師器　陶器　板碑",139.4461711,35.75815883,TRUE
13213006300,13213,"63","","東村山市No.63遺跡","東村山市 野口町三丁目","[縄文時代（中期）][古墳時代][奈良時代][平安時代][中世]","包蔵地","","縄文土器　土師器　須恵器　板碑　陶器",139.4552005,35.76384213,TRUE
13213006500,13213,"65","","東村山市No.65遺跡","東村山市 野口町三丁目　 野口町四丁目","[縄文時代（中期）][中世]","包蔵地","","縄文土器　陶器",139.459178,35.76252478,TRUE
13213006900,13213,"69","","東村山市No.69遺跡","東村山市 廻田町一丁目　 廻田町二丁目","[縄文時代（中期〜後期）][平安時代][中世]","包蔵地","","縄文土器　剥片　土師器　須恵器　陶器　磁器",139.4508771,35.75503176,TRUE
13213007000,13213,"70","","東村山市No.70遺跡","東村山市 美住町二丁目","[縄文時代（後期）][中世]","包蔵地","","縄文土器　陶器",139.4521618,35.75298234,TRUE
13213007100,13213,"71","","東村山市No.71遺跡","東村山市 廻田町一丁目","[縄文時代（中期）][弥生時代（後期）][古墳時代][平安時代][中世]","包蔵地","","縄文土器　石鏃　弥生土器　土師器　須恵器　陶器　磁器",139.453349,35.75522679,TRUE
13213007300,13213,"73","","東村山市No.73遺跡","東村山市 廻田町一丁目","[縄文時代（中期）][中世]","包蔵地","","縄文土器　剥片　陶器",139.4526967,35.75723279,TRUE
13213007400,13213,"74","","東村山市No.74遺跡","東村山市 廻田町一丁目","[縄文時代（草創期・中期・晩期）][古墳時代][平安時代][中世]","包蔵地","","縄文土器　尖頭器　石鏃　剥片　残核　土師器　須恵器　陶器　磁器",139.4555463,35.75661985,TRUE
13213007600,13213,"76","","東村山市No.76遺跡","東村山市 野口町二丁目","[奈良時代][平安時代][中世]","包蔵地","","須恵器　陶器",139.4565907,35.75785807,TRUE
13213007800,13213,"78","","東村山市No.78遺跡","東村山市 野口町二丁目","[縄文時代（中期）][奈良時代][平安時代][中世]","包蔵地","","縄文土器　須恵器　中世土器　陶器",139.456728,35.76067192,TRUE
13213008000,13213,"80","","東村山市No.80遺跡","東村山市 野口町二丁目","[縄文時代（中期〜後期）][中世]","包蔵地","","縄文土器　板碑",139.4602986,35.75905606,TRUE
13213008400,13213,"84","","東村山市No.84遺跡","東村山市 野口町一丁目","[古墳時代][平安時代][中世]","包蔵地","","土師器　須恵器　陶器",139.4648648,35.76390355,TRUE
13213008500,13213,"85","","東村山市No.85遺跡","東村山市 野口町四丁目","[中世]","包蔵地","","板碑",139.4643841,35.76666147,TRUE
13213008600,13213,"86","","東村山市No.86遺跡","東村山市 本町一丁目　 美住町二丁目","[縄文時代（中期）][中世]","包蔵地","","縄文土器　磁器",139.4654827,35.75693867,TRUE
13213008900,13213,"89","","東村山市No.89遺跡","東村山市 諏訪町一丁目　 久米川町四丁目　 久米川町五丁目","[中世]","包蔵地","","板碑　陶器",139.4697743,35.76886217,TRUE
13213009000,13213,"90","くまのじんじゃいせき","熊野神社遺跡","東村山市 久米川町五丁目","[中世]","包蔵地","","陶器　磁器　青銅製鍔口　青銅製香炉　板碑",139.4714682,35.77071841,TRUE
13213009100,13213,"91","","東村山市No.91遺跡","東村山市 久米川町五丁目","[縄文時代（中期）][中世]","包蔵地","","縄文土器　陶器　板碑",139.4735968,35.77244546,TRUE
13213009200,13213,"92","","東村山市No.92遺跡","東村山市 久米川町四丁目","[縄文時代（中期）][中世]","包蔵地","","縄文土器　陶器",139.4707601,35.76160901,TRUE
13213009500,13213,"95","","東村山市No.95遺跡","東村山市 久米川町三丁目","[縄文時代（中期）][古墳時代][奈良時代][平安時代][中世]","包蔵地","","縄文土器　石錘　石鏃　スクレイパー　土師器　陶器",139.4737341,35.76277908,TRUE
13213009700,13213,"97","","東村山市No.97遺跡","東村山市 久米川町三丁目","[縄文時代（中期）][平安時代][中世]","包蔵地","","縄文土器　須恵器　陶器",139.4735968,35.76478488,TRUE
13213010400,13213,"104","","東村山市No.104遺跡","東村山市 久米川町一丁目","[縄文時代（中期）][古墳時代][奈良時代][平安時代][中世]","包蔵地","","縄文土器　土師器　須恵器　瓦　陶器　磁器",139.4764464,35.77102483,TRUE
13213010700,13213,"107","","東村山市No.107遺跡","東村山市 久米川町一丁目　 秋津町三丁目","[縄文時代（中期）][平安時代][中世]","包蔵地","","縄文土器　楔形石器　剥片　土師器　陶器",139.4825919,35.77124768,TRUE
13213010800,13213,"108","","東村山市No.108遺跡","東村山市 秋津町二丁目　 秋津町三丁目","[旧石器時代][縄文時代（中期）][平安時代][中世]","包蔵地","","剥片　縄文土器　打製石斧　敲石　剥片　土師器　陶器",139.4839652,35.77275187,TRUE
13213011200,13213,"112","","東村山市No.112遺跡","東村山市 秋津町二丁目","[縄文時代（草創期・中期）][古墳時代][奈良時代][平安時代][中世]","包蔵地","","尖頭器　縄文土器　土師器　須恵器　陶器",139.4881194,35.77397749,TRUE
13213011400,13213,"114","","東村山市No.114遺跡","東村山市 秋津町一丁目　 秋津町五丁目","[縄文時代（中期）][中世]","包蔵地","","縄文土器　陶器",139.4936812,35.77603872,TRUE
13213011600,13213,"116","","東村山市No.116遺跡","東村山市 恩多町四丁目","[縄文時代（早期・中期）][古墳時代][奈良時代][平安時代][中世]","包蔵地","","縄文土器　剥片　土師器　須恵器　陶器",139.4802701,35.75935239,TRUE
13213011800,13213,"118","","東村山市No.118遺跡","東村山市 久米川町二丁目　 久米川町三丁目","[縄文時代（中期）][古墳時代][奈良時代][中世]","包蔵地","","縄文土器　土師器　陶器",139.4811499,35.76230548,TRUE
13213011900,13213,"119","やこうみなみいせき","野行南遺跡","東村山市 久米川町一丁目　 久米川町二丁目","[旧石器時代][縄文時代（中期）][奈良時代][平安時代][中世]","集落","[旧石器時代]ブロック　礫群","ナイフ形石器　掻器　削器　ハンマーストーン　剥片　残核　細石刃　焼礫　縄文土器　土師器　須恵器　陶器",139.4827635,35.76548133,TRUE
13213012300,13213,"123","","東村山市No.123遺跡","東村山市 秋津町二丁目","[縄文時代（中期）][平安時代][中世]","包蔵地","","縄文土器　剥片　須恵器　陶器　磁器",139.4886,35.76979916,TRUE
13213013000,13213,"130","","東村山市No.130遺跡","東村山市 栄町一丁目　 恩多町三丁目","[縄文時代（中期）][奈良時代][平安時代][中世]","包蔵地","","縄文土器　スクレイパー　剥片　残核　土師器　磁器",139.4783475,35.75372449,TRUE
13213013500,13213,"135","","東村山市No.135遺跡","東村山市 青葉町二丁目","[縄文時代（中期）][平安時代][中世]","包蔵地","","縄文土器　打製石斧　石鏃　剥片　須恵器　カワラケ",139.4875014,35.76419986,TRUE
13213013600,13213,"136","","東村山市No.136遺跡","東村山市 青葉町二丁目","[縄文時代（中期〜後期）][平安時代][中世]","包蔵地","","縄文土器　残核　須恵器　陶器",139.4886687,35.76601062,TRUE
13213013700,13213,"137","","東村山市No.137遺跡","東村山市 恩多町二丁目","[旧石器時代][縄文時代（中期）][中世]","包蔵地","","剥片　縄文土器　剥片　敲石　陶器　磁器",139.4820897,35.75110543,TRUE
13213014800,13213,"148","","東村山市No.148遺跡","東村山市 多摩湖町三丁目","[中世]","包蔵地","","板碑",139.4414311,35.76244706,TRUE
13213014900,13213,"149","しもやけべいせき","下宅部遺跡","東村山市 多摩湖町四丁目","[旧石器時代][縄文時代（草創期〜晩期）][古墳時代][奈良時代][平安時代][中世]","集落","［縄文時代］竪穴状遺構　焼土　土坑　粘土採掘坑　水場遺構　[古墳時代]住居　[平安時代]土坑　[中世]土坑","ナイフ形石器　尖頭器　縄文土器　打製石斧　磨製石斧　石鏃　石錘　スクレイパー　石皿　石錐　磨石　凹石　敲石　石棒　残核　剥片　耳栓　垂飾　土偶　土錘　土玉　腕輪状土製器　土笛　ミニチュア土器　土製円盤　粘土焼成塊　木製品　漆製品　繊維製品　獣骨　貝　昆虫　種実　葉　土師器　須恵器　紡錘車　瓦塔　瓦　木製品　刀子　横刀　鉄鍬　鉄斧　陶器　磁器　板碑",139.4509776,35.76626577,TRUE
13213015200,13213,"152","","東村山市No.152遺跡","東村山市 多摩湖町一丁目","[縄文時代（前期〜晩期）][弥生時代（前期〜中期）][古墳時代][奈良時代][平安時代][中世]","包蔵地","","縄文土器　土製円盤　石皿　剥片　残核　打製石斧　礫器　磨石　スクレイパー　台石　弥生土器　土師器　須恵器　陶器",139.449261,35.76478931,TRUE
13213015300,13213,"153","","東村山市No.153遺跡","東村山市 諏訪町三丁目","[中世]","包蔵地","","陶器",139.456316,35.7691686,TRUE
13213015900,13213,"159","","東村山市No.159遺跡","東村山市 恩多町四丁目","[縄文時代（早期・中期）][中世]","包蔵地","","縄文土器　陶器",139.4751203,35.75818226,TRUE
13213016000,13213,"160","","東村山市No.160遺跡","東村山市 久米川町三丁目","[縄文時代（中期）][中世]","包蔵地","","縄文土器　陶器",139.4758971,35.7623612,TRUE
13214000200,13214,"2","こいがくぼいせき","恋ヶ窪遺跡","国分寺市 西恋ヶ窪一丁目　 東恋ヶ窪一丁目　 東恋ヶ窪三丁目","[旧石器時代][縄文時代（早期・中期〜後期）][奈良時代][平安時代][中世]","集落","[縄文時代]住居　敷石住居　集石　土坑　屋外埋甕　[中世]溝","(縄文)縄文土器　打斧　磨斧　石槍　石鏃　掻器　彫器　石匙　石錐　ピエス・エスキーユ　スタンプ形石器　敲石　砥石　土錘　土製円板　耳飾　硬玉製大珠　器台　(中世)陶器",139.4705243,35.70254176,TRUE
13214000900,13214,"9","ひかげやまいせき","日影山遺跡","国分寺市 泉町二丁目 西恋ヶ窪一丁目","[旧石器時代][縄文時代（中期）][奈良時代][平安時代][中世]","包蔵地","[旧石器時代]石器集中部 集石 ユニット 礫群 [縄文時代]竪穴住居 [歴史時代]掘立柱建物 柵列 井戸 火葬墓 土壙墓 井戸 道路跡（鎌倉街道） 溝 土坑 集石 特殊遺構","(旧石器時代)尖頭器 ナイフ形石器 スクレイパー 剥片遺物 石核 (縄文時代)土器 打製石斧 (歴史時代)土師質土器 瓦質土器 土器（在地土器） 陶磁器 銭貨 金属製品（刀子） 砥石 板碑 銭貨 鉄製品（鉄釘） 瓦",139.4717981,35.69264697,TRUE
13214001200,13214,"12","でんしょうおうじあと","伝祥応寺跡","国分寺市 西元町四丁目","[中世]","社寺","[中世]礫石建物 土塀","須恵器 陶器（灰釉） 瓦 板碑 鉄製風鐸",139.4673256,35.69180171,TRUE
13214001300,13214,"13","","国分寺市No.13遺跡","国分寺市 西元町四丁目","[中世]","修法壇跡か塚","［中世］塚","素焼土器 陶器（灰釉） 銭貨",139.4789428,35.69559391,TRUE
13214001900,13214,"19","むさしこくぶんじあと","武蔵国分寺跡","国分寺市 東元町二丁目 東元町三丁目 東元町四丁目 西元町一丁目 西元町二丁目 西元町三丁目 西元町四丁目 泉町一丁目 泉町二丁目 泉町三丁目 西恋ヶ窪一丁目","[旧石器時代][縄文時代][奈良時代][平安時代][中世][近世]","集落","[縄文時代]住居 [奈良時代][平安時代]住居 掘立柱建物 道路 溝 [中世]門 土坑 地下式横穴","縄文土器 陶磁器 土製品 石製品 鉄製品 青銅製品 瓦 <U+587C>",139.4662512,35.6985094,TRUE
13214002200,13214,"22","こいがくぼはいじあと","恋ヶ窪廃寺跡","国分寺市 泉町三丁目","[縄文時代][平安時代][中世]","社寺","[平安時代][中世]礎石建物 掘立柱建物 土坑 溝 火葬墓 土壙墓","土師器 須恵器 陶器（灰釉） 瓦 板碑 宝筐印塔 銭貨 人骨",139.4853228,35.69644562,TRUE
13215000300,13215,"3","なかみねしたいせき","中峰下遺跡","国立市 谷保","[奈良時代][平安時代][中世][近世]","包蔵地","[奈良時代][平安時代]敷石遺構 土坑","主な出土品",139.4362997,35.68335206,TRUE
13215000500,13215,"5","かりやうえにしいせき","仮屋上西遺跡","国立市 谷保","[旧石器時代][縄文時代（中期）][平安時代][中世]","集落","[奈良時代]住居跡 溝状遺構 [平安時代]住居跡 土坑 ピット","土師器 須恵器 陶器 須恵器質陶器 刀子 紡錘車 古銭(隆平永寶) 風字硯",139.4417242,35.6828501,TRUE
13215000600,13215,"6","かりやうえいせき","仮屋上遺跡","国立市 谷保 富士見台二丁目","[縄文時代（中期）][奈良時代][平安時代][中世]","集落","[平安時代]住居跡 土坑 配石 溝状遺構 柱穴 [中世]地下式土坑","縄文土器 石鏃 土師器 須恵器 砥石 鉄製品 紡錘車 土錘 円面硯 瓦",139.4435438,35.68276644,TRUE
13215001300,13215,"13","なんようじいせき","南養寺遺跡","国立市 谷保","[縄文時代（早期〜後期）][奈良時代][平安時代][中世][近世]","集落","[縄文時代]住居 敷石住居 集石 土坑 ピット [平安時代]住居 土坑 石組遺構 [近世]土坑 井戸 溝状遺構","縄文土器 打斧 磨斧 石鏃 掻器 石匙 石錘 楔形石器 石皿 磨石 スタンプ形石器 凹石 敲石 土錘 土製円板 石棒 土偶 土師器 須恵器 刀子 羽口 瓦 鉄滓 陶磁器 板碑 銭貨",139.4324542,35.68022068,TRUE
13215001500,13215,"15","じょうやまいせき","城山遺跡","国立市 谷保","[縄文時代（早期・中期）][奈良時代][平安時代][中世][近世]","包蔵地","[中世][近世]石組粘土敷土坑 集礫遺構 土坑 ピット 道状遺構","縄文土器 打斧 石皿 土師器 須恵器 瓦 須恵器系土師質土器 陶器 磁器 かわらけ 石臼 砥石 スラグ 石製品",139.436334,35.67944785,TRUE
13215001700,13215,"17","（でん．つのとのさぶろうやかたあと）みたじょうあと","（伝．津戸三郎館跡）三田城跡","国立市 谷保","[中世]","城館","[中世]井戸 空堀 曲輪 土塁","陶器",139.4378103,35.6791132,TRUE
13215002000,13215,"20","せきいものあと","関鋳物址","国立市 谷保","[中世][近世]","その他（鋳物工房跡）","[中世]周溝 [近世]土坑 [近世]建物址 焼土址 井戸址 溝状遺構 建物址 柱穴","板碑 陶磁器類 銅製品 鉄製品 銭貨 瓦 砥石 石臼 鋳型 鋳型関連遺物 羽口 小型坩堝 スラグ 土製品 鉄滓",139.4455799,35.67939799,TRUE
13215002100,13215,"21","ばいりんいせき","梅林遺跡","国立市 谷保","[縄文時代（中期）][奈良時代][平安時代][中世][近世]","包蔵地","[中世]溝状遺構","縄文土器 石斧 土師器 須恵器 鋳型 坩堝 三又状土製品 羽口 陶磁器",139.4453291,35.67894587,TRUE
13215002200,13215,"22","しもやぼいせき","下谷保遺跡","国立市 谷保","[縄文時代（早期・中期）][古墳時代][平安時代][中世]","集落","[縄文時代]住居 竪穴状遺構 集石 土坑 [古墳時代]住居 土坑","縄文土器 打斧 局部磨製石斧 礫器 石槍 石鏃 掻器 楔形石器 石皿 磨石 スタンプ形石器 凹石 敲石 砥石 土師器 須恵器 管玉 陶磁器",139.4485839,35.6773761,TRUE
13218001800,13218,"18","","福生市№18遺跡","福生市 熊川","[中世]","包蔵地","[中世]溝状遺構","板碑",139.335625,35.72550959,TRUE
13218001900,13218,"19","","福生市№19遺跡","福生市 熊川","[中世]","その他","","銭貨4,909枚",139.3336337,35.72132872,TRUE
13219001900,13219,"19","いずみいせき","和泉遺跡","狛江市 和泉本町一丁目","[縄文時代][古墳時代][中世]","集落","[古墳時代]住居 [時代不明]竪穴状遺構 土坑 地下式土坑","縄文土器 土師器 須恵器",139.576985,35.63739759,TRUE
13219003600,13219,"36","てらまえひがしいせき","寺前東遺跡","狛江市 東和泉一丁目 東和泉二丁目 猪方一丁目","[縄文時代（早期〜前期）][弥生時代][古墳時代][奈良時代][平安時代][中世][近世]","集落","[縄文時代]住居 [平安時代]住居 [時代不明]掘立柱建物 土坑 溝状遺構","縄文土器 打斧 石鏃 石皿 磨石 弥生土器 土師器 須恵器 陶器 カワラケ 釘 銭貨",139.5796233,35.62964658,TRUE
13219004000,13219,"40","たなか・てらまえいせき","田中・寺前遺跡","狛江市 東和泉一丁目 東和泉二丁目 元和泉一丁目 元和泉二丁目","[縄文時代（中期）][古墳時代][奈良時代][平安時代][中世][近世]","集落","[縄文時代]集石土坑 [古墳時代][奈良時代]住居 [近世]井戸 [時代不明]掘立柱建物 周溝状遺構","縄文土器 打斧 土師器 須恵器 陶磁器",139.5750064,35.63116728,TRUE
13219004201,13219,"42-1","べんてんいけいせき","弁財天池遺跡","狛江市 中和泉一丁目","[旧石器時代][縄文時代（中期〜後期）][弥生時代（後期）][古墳時代][奈良時代][平安時代][中世][近世]","集落","[旧石器時代]ブロック [縄文時代]住居 集石 土坑 [弥生時代][古墳時代]方形周溝墓 [古墳時代][奈良時代]住居 [奈良時代][平安時代]掘立柱建物 [中世][近世]土坑","ナイフ形石器 尖頭器 細石刃 縄文土器 打斧 石鏃 石皿 土製円板 石棒 弥生土器 槍先形鉄製品 鉄釧 銅釧 土師器 須恵器 紡錘車 銀製穂積具",139.575899,35.63310663,TRUE
13219004401,13219,"44-1","だぐらづかこふん","駄倉塚古墳","狛江市 中和泉一丁目","[縄文時代（中期）][古墳時代][中世][近世]","包蔵地・古墳","円墳","円筒埴輪",139.5778903,35.63406932,TRUE
13219004600,13219,"46","ひがしづかこふん","東塚古墳","狛江市 中和泉一丁目","[古墳時代]［中世］","古墳","円墳 [古墳時代]周溝 葺石","円筒埴輪",139.5767058,35.63531102,TRUE
13219005000,13219,"50","きょうづかいせき","経塚遺跡","狛江市 中和泉一丁目","[縄文時代（中期）][古墳時代][奈良時代][平安時代]［中世］[近世]","集落","[縄文時代][古墳時代]住居 [奈良時代][平安時代]住居 [中世][近世]ビット群","縄文土器 石鏃 土師器 須恵器 鉄製品 陶器 カワラケ",139.574354,35.63372052,TRUE
13219005100,13219,"51","きょうづかこふん","経塚古墳","狛江市 中和泉一丁目","[古墳時代][中世]","古墳","円墳 [古墳時代]周溝 葺石 石棺","打斧 埴輪 蔵骨器 板碑 陶磁器",139.5748851,35.63350064,TRUE
13219006500,13219,"65","いりうえいせき","圦上遺跡","狛江市 中和泉三丁目 中和泉四丁目","[縄文時代（中期〜晩期）][弥生時代][古墳時代][奈良時代][中世]","集落","[縄文時代]住居 [古墳時代]住居 [奈良時代]住居 [中世]地下式土坑","縄文土器 打斧 石鏃 石匙 石錐 凹石 耳飾 土製勾玉 石剣 岩版 土偶 弥生土器 土師器 須恵器 銭貨 陶磁器",139.5672118,35.63463074,TRUE
13219006800,13219,"68","ぎょくせんじまえいせき","玉泉寺前遺跡","狛江市 東和泉四丁目","[中世][近世]","包蔵地・その他の墓・その他（溝）","[中世][近世]土","",139.5732031,35.62731646,TRUE
13220001400,13220,"14","めぐりだやついせき","廻田谷ツ遺跡","東大和市 湖畔一丁目","[縄文時代][平安時代][中世]","包蔵地","[時代不明]土坑","縄文土器　土師器　須恵器　施釉陶器　鉄製品　瓦",139.4302824,35.75859028,TRUE
13220002400,13220,"24","たまこだい10いせき","多摩湖第10遺跡","東大和市 多摩湖二丁目","[縄文時代（前期〜中期）][平安時代][中世][近世]","包蔵地","[近世]炭窯","縄文土器　瓦　板碑",139.4261282,35.76549931,TRUE
13221004700,13221,"47","","清瀬市No.47遺跡","清瀬市 中里四丁目","[中世]","城館？","[中世]方形土塁","鎧　太刀金具　弓",139.5160119,35.78551202,TRUE
13221005800,13221,"58","きよとしたじゅくいせき","清戸下宿遺跡","清瀬市 下宿二丁目　 下宿三丁目","[縄文時代（前期〜中期）][平安時代][中世]","集落","[平安時代]住居　[中世]竪穴　配石　井戸","縄文土器　石鏃　土師器　須恵器　陶器　カワラケ　擂鉢　石臼　板碑　五輪塔　銭貨(永楽通宝・聖宋元宝）",139.5397281,35.79912996,TRUE
13221006200,13221,"62","したじゅくこわしみずいせき","下宿強清水遺跡","清瀬市 旭ヶ丘六丁目　 下宿三丁目","[旧石器時代][縄文時代（早期〜中期・晩期）][中世]","集落・城館？","[旧石器時代]礫群　[縄文時代]住居　炉穴　土坑　[中世]溝","ナイフ形石器　尖頭器　石刃　掻器　彫器　錐　石核　縄文土器　石鏃　石皿",139.5468006,35.80226953,TRUE
13221006400,13221,"64","おつかさまいせき","お塚様遺跡","清瀬市 上清戸二丁目","[中世]","塚","","",139.522844,35.78180779,TRUE
13221007700,13221,"77","したじゅくうちやまいせき","下宿内山遺跡","清瀬市 下宿三丁目","[旧石器時代][縄文時代（早期〜晩期）][弥生時代][古墳時代][奈良時代][平安時代][中世][近世]","集落","[縄文時代]竪穴状遺構　集石　土坑　[弥生時代]住居　[奈良時代][平安時代]住居　ピット群　[中世]掘立柱建物　井戸　地下式土坑　[近世]竪穴状遺構　土坑　集石　農道　河道","尖頭器　剥片　縄文土器　土師器　須恵器　鉄製品　陶磁器　板碑　木製品",139.5415821,35.80458062,TRUE
13223001800,13223,"18","やしきやまいせき","屋敷山遺跡","武蔵村山市 中藤一丁目","[旧石器時代][縄文時代（草創期〜晩期）][弥生時代（後期）][古墳時代][平安時代][中世]","集落","[縄文時代]住居　竪穴状遺構　ピット","縄文土器　打斧　スタンプ形石器　弥生土器　土師器　瓦",139.3980655,35.75746344,TRUE
13224001000,13224,"10","わだ・もぐさいせき","和田・百草遺跡","多摩市 和田三丁目　 百草　 和田","[旧石器時代][縄文時代（早期〜後期）][古墳時代][奈良時代][平安時代][中世][近世]","集落・屋敷","[旧石器時代]ユニット　[縄文時代]住居　集石　炉穴　陥し穴　土坑　土壙　[古墳時代]住居　溝　方形周溝墓　[奈良時代][平安時代]住居　土坑　溝　[中世]地下式土坑　[中世][近世]建物　井戸　柵","石器　縄文土器　石器　土師器　須恵器　カワラケ　鉄器　石臼",139.4334725,35.64036886,TRUE
13224002700,13224,"27","むかいのおかいせき","向ノ岡遺跡","多摩市 連光寺一丁目","[縄文時代（早期〜後期）][奈良時代][平安時代][中世][近世]","集落・城館","[縄文時代]住居　敷石住居　集石　炉穴　石囲炉　陥し穴　土坑　[奈良時代]住居　溝　[平安時代]屋外炉","縄文土器　石器　土錘　土製円板　耳栓　土偶　土師器　須恵器　鉄製品　陶磁器",139.4595044,35.64554104,TRUE
13224003400,13224,"34","たまにゅーたうんNo.22いせき","多摩ニュータウンNo.22遺跡","多摩市 連光寺二丁目","[縄文時代（早期〜中期）][奈良時代][平安時代][中世][近世]","集落","[縄文時代]土坑　[中世]掘立柱建物　建物　住居　方形竪穴　遺構　蔵　井戸　溝","縄文土器　土師器　須恵器　陶磁器　燈明皿　鉄釘　刀子　紡錘車　鏡　飾り金具　銭貨",139.4506702,35.63667722,TRUE
13224003700,13224,"37","ふながだい（たまにゅーたうんNo.367）いせき","船ヶ台遺跡群No.2","多摩市 連光寺六丁目","[縄文時代（前期〜中期）][奈良時代][平安時代][中世?]","包蔵地","","縄文土器　土師器　須恵器",139.4645512,35.63401763,TRUE
13224003900,13224,"39","ふながだい（たまにゅーたうんNo.371）いせき","船ヶ台遺跡群No.4","多摩市 連光寺六丁目","[縄文時代（前期〜中期）][中世？]","包蔵地","","縄文土器　陶器",139.4672978,35.63337584,TRUE
13224004000,13224,"40","ふながだいいせき","船ヶ台遺跡","多摩市 連光寺六丁目","[中世]","地下式横穴","[中世]地下式土坑　4×2ｍ　8m2","人骨",139.4666111,35.63365488,TRUE
13224004800,13224,"48","たまにゅーたうんNo.509いせき","多摩ニュータウンNo.509遺跡","多摩市 馬引沢二丁目","[縄文時代（前期・後期）][奈良時代][中世][近世]","集落","[縄文時代]集石　土坑　[奈良時代]住居　土坑　[中世]建物群　竪穴　状遺構　井戸　土坑　地下式土坑","縄文土器　石器　土師器　須恵器　瓦　陶磁器",139.4540861,35.63278293,TRUE
13224005000,13224,"50","たまにゅーたうんNo.511いせき","多摩ニュータウンNo.511遺跡","多摩市 馬引沢二丁目","[旧石器時代][縄文時代（早期〜中期）][中世][近世]","集落","[旧石器時代]ユニット　[縄文時代]竪穴状遺構　土坑　[近世]建物　土坑　井戸","石器　縄文土器　石器　板碑　陶磁器　砥石　石臼　金属器",139.4571417,35.62692284,TRUE
13224005100,13224,"51","たまにゅーたうんNo.379いせき","多摩ニュータウンNo.379遺跡","多摩市 諏訪四丁目他","[旧石器時代][縄文時代（草創期〜中期）][平安時代][中世][近世]","集落","[縄文時代]住居　集石　土坑　[平安時代]土坑　[中世][近世]土坑　溝","ナイフ形石器　剥片　縄文土器　石斧　丸鑿　形石斧　石槍　有茎尖頭器　土師器　須恵器　陶磁器",139.4582404,35.62642053,TRUE
13224006000,13224,"60","たまにゅーたうんNo.462いせき","多摩ニュータウンNo.462遺跡","多摩市 唐木田一丁目","[縄文時代（前期）][平安時代][中世]","集落","[中世]建物　井戸","縄文土器　石器　土師器　須恵器　陶器（灰釉）　舶載磁器　銭貨",139.4031938,35.6151978,TRUE
13224006100,13224,"61","たまにゅーたうんNo.92いせき","多摩ニュータウンNo.92遺跡","多摩市 唐木田一丁目","[縄文時代（前期〜中期）][古墳時代][奈良時代][平安時代][中世][近世]","包蔵地","[縄文時代]集石　土坑　[古墳時代]土坑　[平安時代]土坑　[近世]土坑　溝","縄文土器　打斧　磨斧　礫器　石皿　磨石　凹石　土製品　土師器　須恵器　陶磁器　砥石　銭貨",139.4018549,35.6154769,TRUE
13224006200,13224,"62","たまにゅーたうんNo.91いせき","多摩ニュータウンNo.91遺跡","多摩市 唐木田一丁目","[旧石器時代][縄文時代（早期〜中期・晩期）][弥生時代（前期〜中期）][古墳時代][奈良時代][平安時代][中世][近世]","集落","[縄文時代]住居　集石　焼土　土坑　[古墳時代]土坑　[平安時代]住居　焼土　ピット　土坑　[中世]建物　ピット　集石　井戸　窯状遺構　[近世]建物　ピット　土坑　井戸　炭窯　段切状遺構　溝","ナイフ形石器　剥片　縄文土器　打斧　磨斧　礫器　石鏃　有孔磨製石鏃　掻器　石皿　磨石　凹石　土錘　耳飾　土師器　須恵器　陶器（灰釉・緑釉）　鉄製品　炭化種子　陶磁器　土師質土器　須恵質土器　舶載磁器　鉄鏃　銭貨　陶磁器　土器　石臼　釘　銭貨",139.4038805,35.61597929,TRUE
13224007000,13224,"70","たまにゅーたうんNo.87いせき","多摩ニュータウンNo.87遺跡","多摩市 唐木田一丁目　 唐木田二丁目","[縄文時代（前期〜中期）][奈良時代][平安時代][中世]","包蔵地","","縄文土器　土師器　須恵器　陶器　燈明皿",139.4114859,35.61376986,TRUE
13224007100,13224,"71","たまにゅーたうんNo.63いせき","多摩ニュータウンNo.63遺跡","多摩市 鶴牧一丁目","[縄文時代（早期〜中期）][平安時代][中世][近世]","包蔵地","","縄文土器　土師器　須恵器　鉄製品　紡錘車　陶磁器",139.4187426,35.62607249,TRUE
13224007600,13224,"76","たまにゅーたうんNo.454いせき","多摩ニュータウンNo.454遺跡","多摩市 愛宕四丁目","[旧石器時代][縄文時代（早期〜中期）][奈良時代][平安時代][中世][近世]","集落","[縄文時代]集石土坑　焼土　土坑　ピット　[平安時代]住居　[近世]土坑　集石　溝　道路","尖頭器　細石刃　縄文土器　石器　土師器　須恵器　陶器（灰釉）　瓦",139.4264974,35.6286193,TRUE
13224007900,13224,"79","たまにゅーたうんNo.271いせき","多摩ニュータウンNo.271遺跡","多摩市 落合一丁目","[旧石器時代][縄文時代（早期〜中期）][奈良時代][平安時代][中世][近世]","集落","[縄文時代]集石　土坑　[平安時代]住居　集石　土坑　[中世][近世]掘立柱　建物群　井戸　土坑　地下式土坑　削平面　溝","ナイフ形石器　石核　縄文土器　石器　土師器　須恵器　陶器（灰釉）　陶磁器　瓦　石製品　木製品　銭貨",139.4280123,35.62840765,TRUE
13224008000,13224,"80","たまにゅーたうんNo.452いせき","多摩ニュータウンNo.452遺跡","多摩市 落合一丁目","[旧石器時代][縄文時代（早期〜中期）][弥生時代][古墳時代][奈良時代][平安時代][中世][近世]","集落","[縄文時代]集石　土坑　[奈良時代]住居　[奈良時代][平安時代]住居　集石　土坑　溝　[平安時代]住居　集石　土坑　[中世]建物　焼土　井戸　土坑　地下式土坑　溝　[中世][近世]ピット　柱穴列　杭列　[近世]建物　土坑　焼土　井戸　溝　柵列　石組　木橋","ナイフ形石器　細石刃　石核　縄文土器　石器　弥生土器　匂玉　土師器　須恵器　陶器（灰釉）　砥石　鉄製品　紡錘車　土錘　陶硯　瓦　陶磁器　舶載陶磁器　石製品　鉄製品　銅製品　煙管　木製品　木桶　銭貨",139.4289393,35.62914489,TRUE
13224008100,13224,"81","たまにゅーたうんNo.451いせき","多摩ニュータウンNo.451遺跡","多摩市 落合一丁目","[縄文時代（早期〜中期）][奈良時代][平安時代][中世][近世]","集落","[縄文時代]集石　土坑　[平安時代]住居　柱穴群　[中世]地下式土坑　[近世]建物　柱穴群　井戸　炭窯","縄文土器　石器　土師器　須恵器　瓦　陶磁器　土師質土器　舶載陶磁器　板碑",139.4301753,35.62992624,TRUE
13224008200,13224,"82","たまにゅーたうんNo.278いせき","多摩ニュータウンNo.278遺跡","多摩市 鶴牧二丁目","[縄文時代][中世][近世]","集落","[縄文時代]土坑　[中世]地下式横穴　土坑　墓　ピット群　枝切り　焼土　溝　[近世]建物跡　井戸　土坑　段切り　堂址","礫器　打石斧　スクレイパー　石皿　ﾊｸ片　土器　石器　陶磁器　石臼　木器　常滑　青銅　鉄　古銭　炭化穀類",139.4163725,35.62007966,TRUE
13224008700,13224,"87","たまにゅーたうんNo.457いせき","多摩ニュータウンNo.457遺跡","多摩市 鶴牧一丁目","[旧石器時代][縄文時代（早期〜中期）][奈良時代][平安時代][中世][近世]","集落","[縄文時代]住居　竪穴状遺構　集石　炉穴　焼土　土坑　[平安時代]住居　土坑　[中世][近世]掘立柱　建物　ピット群　井戸　土坑　地下式土坑　墓壙　段切り　溝　道路","ナイフ形石器　掻器　剥片　縄文土器　石斧　石鏃　石匙　石皿　磨石　弥生土器　須恵器　陶磁器　瓦器　舶載陶磁器　擂鉢　砥石　刀子　石臼　板碑　銭貨　人骨　馬歯　炭化材　種子",139.418777,35.62317016,TRUE
13224008800,13224,"88","たまにゅーたうんNo.267いせき","多摩ニュータウンNo.267遺跡","多摩市 鶴牧一丁目","[中世][近世]","包蔵地","[中世]地下式土坑","",139.4182963,35.62263991,TRUE
13224009600,13224,"96","たまにゅーたうんNo.57いせき","多摩ニュータウンNo.57遺跡","多摩市 落合一丁目","[旧石器時代][縄文時代（前期〜後期）][中世][近世]","集落","[旧石器時代]ユニット　礫群　[縄文時代]住居　集石　土坑　[近世]墓","ナイフ形石器　石核　剥片　焼礫　縄文土器　石器　土師器　須恵器　銭貨（宋銭・寛永通宝）　胞衣容器　埋葬人骨",139.429214,35.62610314,TRUE
13224010500,13224,"105","たまにゅーたうんNo.77いせき","多摩ニュータウンNo.77遺跡","多摩市 落合五丁目","[縄文時代（中期）][奈良時代][平安時代][中世][近世]","包蔵地","","縄文土器　土師器　陶磁器",139.4256777,35.61456524,TRUE
13224010700,13224,"107","たまにゅーたうんNo.450いせき","多摩ニュータウンNo.450遺跡","多摩市 愛宕三丁目","[旧石器時代][縄文時代（早期〜後期）][弥生時代（中期）][奈良時代][平安時代][中世][近世]","集落","[縄文時代]敷石住居　集石　土坑　[奈良時代]住居　[平安時代]住居　集石　土坑　埋甕　[中世]竪穴状遺構　柱穴群　地下式土坑　段切状遺構　[中世][近世]建物　ピット　土坑　集石　井戸　溝　[近世]段切状遺構","ナイフ形石器　尖頭器　掻器　削器　剥片　縄文土器　石器　弥生土器　土師器　須恵器　陶器（灰釉・緑釉）　土製品　砥石　鉄製品　瓦　炭化物　陶磁器　土師質土器　舶載陶磁器　砥石　石臼　石鍋　釘　板碑置台　板碑　土製品　銭貨",139.4338199,35.63222081,TRUE
13224010800,13224,"108","たまにゅーたうんNo.273いせき","多摩ニュータウンNo.273遺跡","多摩市 愛宕三丁目","[中世][近世]","包蔵地","","瓦塔",139.4340602,35.63322536,TRUE
13224011200,13224,"112","たまにゅーたうんNo.258いせき","多摩ニュータウンNo.258遺跡","多摩市 愛宕二丁目","[中世][近世]","塚","","板碑",139.4382144,35.63333698,TRUE
13224011500,13224,"115","たまにゅーたうんNo.33いせき","多摩ニュータウンNo.33遺跡","多摩市 愛宕二丁目","[中世][近世]","横穴墓群","","",139.4419223,35.63515071,TRUE
13224011700,13224,"117","たまにゅーたうんNo.284いせき","多摩ニュータウンNo.284遺跡","多摩市 乞田","[中世][近世]","塚","","",139.443124,35.63478797,TRUE
13224011900,13224,"119","たまにゅーたうんNo.27いせき","多摩ニュータウンNo.27遺跡","多摩市 永山一丁目","[旧石器時代][縄文時代（早期〜中期）][奈良時代][平安時代][中世][近世]","集落","[旧石器時代]ユニット　[縄文時代]住居　集石　炉穴　土坑　[平安時代]住居　溝　[中世]地下式土坑　[中世][近世]掘立柱建物　建物　土坑　井戸　溝　道路　墓","ナイフ形石器　石核　剥片　縄文土器　石器　土師器　須恵器　陶器（灰釉）　陶磁器　板碑",139.4452628,35.63200161,TRUE
13224012100,13224,"121","たまにゅーたうんNo.467いせき","多摩ニュータウンNo.467遺跡","多摩市 豊ヶ丘一丁目","[旧石器時代][縄文時代][奈良時代][平安時代][中世][近世]","集落","[縄文時代]土坑　[平安時代]住居　[中世]地下式土坑","ナイフ形石器　礫器　削器　剥片　土師器　陶磁器　土製品",139.4374999,35.62987332,TRUE
13224012300,13224,"123","たまにゅーたうんNo.40いせき","多摩ニュータウンNo.40遺跡","多摩市 豊ヶ丘一丁目","[縄文時代][奈良時代][平安時代][中世]","包蔵地","","縄文土器　土師器　須恵器　燈明皿",139.4344272,35.62773854,TRUE
13224013400,13224,"134","たまにゅーたうんNo.264いせき","多摩ニュータウンNo.264遺跡","多摩市 永山二丁目","[縄文時代（前期）][奈良時代][平安時代][中世]","集落","[縄文時代]集石　土坑　[平安時代]住居","縄文土器　打斧　磨斧　石錘　磨石　土師器　須恵器　舶載陶磁器　陶器（三彩・緑釉）　鉄製品　円板状土製品　瓦　瓦塔",139.4467734,35.62728562,TRUE
13224014200,13224,"142","たまにゅーたうんNo.466いせき","多摩ニュータウンNo.466遺跡","多摩市 豊ヶ丘二丁目","[旧石器時代][縄文時代（早期〜中期）][中世][近世]","集落","[縄文時代]住居　集石　土坑　[中世][近世]竪穴状遺構　土坑　段切り　溝","剥片石器　縄文土器　打斧　石鏃　石皿　剥片　陶器　カワラケ",139.4362339,35.6267409,TRUE
13224014500,13224,"145","たまにゅーたうんNo.503いせき","多摩ニュータウンNo.503遺跡","多摩市 永山一丁目　 永山三丁目","[旧石器時代][縄文時代（前期〜中期）][奈良時代][平安時代][中世][近世]","集落","[旧石器時代]遺物集中地点　[縄文時代]土坑　集石　[奈良時代][平安時代]土坑　[平安時代]住居　[中世][近世]ピット　土坑　地下室　井戸　段切状遺構","剥片　炭化物　縄文土器　石斧　石槍　石皿　土師器　須恵器　瓦器　陶器（灰釉）　石臼　鉄製品",139.4434088,35.63007618,TRUE
13224014800,13224,"148","たまにゅーたうんNo.259いせき","多摩ニュータウンNo.259遺跡","多摩市 永山二丁目","[縄文時代（前期〜中期）][中世]","包蔵地","[縄文時代]集石　土坑","縄文土器　打斧　磨斧　滑石製けつ状耳飾　陶器",139.4433401,35.62742515,TRUE
13224015400,13224,"154","たまにゅーたうんNo.121いせき","多摩ニュータウンNo.121遺跡","多摩市 唐木田一丁目","[縄文時代（早期〜前期）][奈良時代][平安時代][中世][近世]","包蔵地","","縄文土器　土製けつ状耳飾　瓦",139.3953661,35.610425,TRUE
13224017500,13224,"175","わだにしいせき","和田西遺跡","多摩市 和田","[縄文時代（早期〜後期）][奈良時代][平安時代][中世][近世]","集落","[縄文時代]貯蔵穴　陥し穴　ピット　[奈良時代][平安時代]住居","縄文土器　石器　土師器　須恵器",139.4288827,35.63754857,TRUE
13224017800,13224,"178","たまにゅーたうんNo.519いせき","多摩ニュータウンNo.519遺跡","多摩市 馬引沢一丁目","[旧石器時代][縄文時代（早期〜中期）][中世][近世]","包蔵地","[縄文時代]集石　土坑　[中世]土坑　地下式土坑　溝","尖頭器　縄文土器　石器　陶器　カワラケ　銭貨",139.4511851,35.6365098,TRUE
13224018200,13224,"182","せきどじょう（てんしゅだい）あと","関戸城（天守台）跡","多摩市 桜ケ丘一丁目","[中世]","城館跡","[中世]堀切　土塁","",139.4466533,35.64493602,TRUE
13224018400,13224,"184","てらかたおおやしき","寺方大屋敷","多摩市 東寺方六号","[中世]","城館跡","","",139.4410571,35.64203438,TRUE
13224018600,13224,"186","たまにゅーたうんNo.740いせき","多摩ニュータウンNo.740遺跡","多摩市 唐木田一丁目","[旧石器時代][縄文時代（早期〜晩期）][奈良時代][平安時代][中世][近世]","集落","[旧石器時代]石器集中　[縄文時代]住居　竪穴状遺構　集石　土坑　炉穴　焼土　土坑　土器埋設土　坑","ナイフ形石器　尖頭器　細石刃　細石核　彫器　剥片　縄文土器　石器　焼礫　礫　土師器　陶磁器",139.4092363,35.61402556,TRUE
13224018800,13224,"188","たまにゅーたうんNo.741いせき","多摩ニュータウンNo.741遺跡","多摩市 中沢二丁目","[縄文時代（前期〜中期）][奈良時代][平安時代][中世][近世]","包蔵地","[縄文時代]土坑　[平安時代]集石　[近世]炭窯","縄文土器　石器　土師器　須恵器　磁器（舶載青磁）",139.4112913,35.61622818,TRUE
13224018900,13224,"189","たまにゅーたうんNo.751いせき","多摩ニュータウンNo.751遺跡","多摩市 鶴牧二丁目","[縄文時代（早期〜前期）][奈良時代][平安時代][中世]","集落","[縄文時代]集石　土坑　[中世]建物　炉　地下式土坑　柵列","縄文土器　石器　土師器　陶磁器　刀子　銭貨",139.4159948,35.61946566,TRUE
13224019100,13224,"191","たまにゅーたうんNo.459いせき","多摩ニュータウンNo.459遺跡","多摩市 中沢二丁目","[中世]","塚?","","板碑",139.4150335,35.62074946,TRUE
13224019300,13224,"193","たまにゅーたうんNo.504いせき","多摩ニュータウンNo.504遺跡","多摩市 永山三丁目","[中世]","墓地","","板碑",139.4436663,35.6294204,TRUE
13224019400,13224,"194","たまにゅーたうんNo.502いせき","多摩ニュータウンNo.502遺跡","多摩市 永山一丁目","[中世]","墓地","","板碑",139.445633,35.631485,TRUE
13224019500,13224,"195","たまにゅーたうんNo.501いせき","多摩ニュータウンNo.501遺跡","多摩市 諏訪一丁目","[中世]","墓地","","板碑",139.4480093,35.63311778,TRUE
13224019600,13224,"196","たまにゅーたうんNo.23いせき","多摩ニュータウンNo.23遺跡","多摩市 諏訪一丁目","[中世][近世]","墓地","","五輪塔",139.4502409,35.63487571,TRUE
13224019700,13224,"197","たまにゅーたうんNo.499いせき","多摩ニュータウンNo.499遺跡","多摩市 馬引沢一丁目","[中世]","墓地","","板碑",139.4507731,35.63517046,TRUE
13224019900,13224,"199","ふながだい（たまにゅーたうんNo.369）いせき","船ヶ台(多摩ニュータウンNo.369）遺跡","多摩市 連光寺六丁目","[中世]","墓地","","板碑",139.4656498,35.63362698,TRUE
13224021000,13224,"210","ひがしてらかたいせき","東寺方遺跡","多摩市 東寺方","[旧石器時代][縄文時代（早期〜晩期）][古墳時代][奈良時代][平安時代][中世][近世]","集落","[旧石器時代]ユニット　[縄文時代]土坑　[古墳時代]住居　[奈良時代]住居　[奈良時代][平安時代]柱穴群　土坑　[平安時代]掘立柱建物　[近世]炭窯","ナイフ形石器　石刃　角錐状石器　彫器　敲石　石核　剥片　縄文土器　土師器　須恵器　磁器　鉄器　瓦　銭貨",139.4359073,35.64326201,TRUE
13224021600,13224,"216","たましNo.216いせき","多摩市No.216遺跡","多摩市 東寺方","[中世?][近世]","包蔵地","","土師質土器",139.4400271,35.64351311,TRUE
13224022100,13224,"221","おちかわ・いちのみやいせき","落川・一の宮遺跡","多摩市 一ノ宮一丁目　 一ノ宮二丁目　 一ノ宮三丁目　 東寺方一丁目","[縄文時代][古墳時代][奈良時代][平安時代][中世][近世]","集落","[奈良時代]住居　掘立柱建物　[奈良時代][平安時代]住居ピット群　溝　[近世]ピット群　溝　墓壙","縄文土器　土師器　須恵器　陶磁器　カワラケ　鉄製品　砥石　石臼　瓦",139.4412288,35.65205018,TRUE
13224022200,13224,"222","たましNo.222いせき","多摩市No.222遺跡","多摩市 関戸","[中世?][近世]","包蔵地","","土師質土器",139.4514598,35.64524292,TRUE
13224024100,13224,"241","","多摩市No.241遺跡","多摩市 落川","[中世?]","包蔵地","","陶器",139.438582,35.642007,TRUE
13224024900,13224,"249","れんこうじかそうぼ","連光寺火葬墓","多摩市 連光寺二丁目","[中世]","墓地","","蔵骨器",139.4523181,35.63985808,TRUE
13224026100,13224,"261","たまにゅーたうんNo.739いせき","多摩ニュータウンNo.739遺跡","多摩市 唐木田二丁目","[縄文時代（早期〜中期）][古墳時代][奈良時代][平安時代][中世][近世]","包蔵地","※町田市No.158遺跡と一連の多摩ニュータウン遺跡　[縄文時代]土坑　[古墳時代]土坑　[中世]ピット　[近世]土坑　墓","縄文土器　石器　土師器　須恵器　陶磁器　土師質土器　舶載陶磁器　砥石　鉄製品　煙管",139.4083351,35.61171243,TRUE
13224026200,13224,"262","たまにゅーたうんNo.742いせき","多摩ニュータウンNo.742遺跡","多摩市 鶴牧二丁目","[縄文時代（早期〜中期）][奈良時代][平安時代][中世][近世]","包蔵地","[縄文時代]焼土　[中世]土坑　段切り　板碑集中遺構　[近世]炭窯　溝","縄文土器　石器　瓦　陶磁器　石臼　板碑　五輪塔　銭貨　漆器",139.4132826,35.61882376,TRUE
13224026900,13224,"269","たまにゅーたうんNo.750いせき","多摩ニュータウンNo.750遺跡","多摩市 鶴牧二丁目","[縄文時代（早期〜後期）][奈良時代][平安時代][中世][近世]","包蔵地","[縄文時代]土坑　[中世]溝状遺構　[近世]集石　焼土　炭窯　列石","縄文土器　石器　土師器　陶磁器　銭貨",139.4170591,35.61943775,TRUE
13224027600,13224,"276","たまにゅーたうんNo.758いせき","多摩ニュータウンNo.758遺跡","多摩市 鶴牧六丁目","[縄文時代（前期）][奈良時代][平安時代][中世][近世]","包蔵地","","縄文土器　土師器　土師質土器　陶磁器",139.4136995,35.61592347,TRUE
13224027700,13224,"277","たまにゅーたうんNo.759いせき","多摩ニュータウンNo.759遺跡","多摩市 鶴牧六丁目","[縄文時代（早期〜中期）][中世][近世]","包蔵地","[縄文時代]集石　焼土　土坑　[近世]炭窯","縄文土器　石鏃　陶器",139.4148668,35.61494661,TRUE
13224028500,13224,"285","たまにゅーたうんいせきNo.767いせき","多摩ニュータウンNo.767遺跡","多摩市 落合二丁目","[縄文時代（前期）][奈良時代][平安時代][中世][近世]","包蔵地","","縄文土器　土師器　陶磁器",139.427669,35.61615612,TRUE
13224028700,13224,"287","たまにゅーたうんいせきNo.769いせき","多摩ニュータウンNo.769遺跡","多摩市 豊ヶ丘一丁目","[旧石器時代][縄文時代（早期〜後期）][奈良時代][平安時代][中世][近世]","集落","[旧石器時代]ユニット　[縄文時代]住居　集石　炉穴　土坑　[奈良時代][平安時代]住居　焼土　土坑　溝　[中世]掘立柱建物　井戸　地下式土坑　[近世]炭窯　道路状遺構　[時代不明]溝","ナイフ形石器　礫　剥片　炭化物　縄文土器　石器　土師器　須恵器　陶器（緑釉・灰釉）　鎌　刀子　鉗　陶磁器　石臼　板碑　銭貨",139.4311871,35.62646184,TRUE
13224028800,13224,"288","たまにゅーたうんいせきNo.770いせき","多摩ニュータウンNo.770遺跡","多摩市 豊ヶ丘一丁目　 豊ヶ丘二丁目","[縄文時代（早期〜前期）][奈良時代][平安時代][中世][近世]","包蔵地","","縄文土器　土師器",139.4327556,35.62594208,TRUE
13224029100,13224,"291","たまにゅーたうんいせきNo.773いせき","多摩ニュータウンNo.773遺跡","多摩市 豊ヶ丘一丁目","[縄文時代（前期〜中期）][奈良時代][平安時代][中世][近世]","包蔵地","","縄文土器　土師器　須恵器　鉄滓　陶磁器",139.4324917,35.62847107,TRUE
13224029200,13224,"292","たまにゅーたうんいせきNo.774いせき","多摩ニュータウンNo.774遺跡","多摩市 豊ヶ丘一丁目","[旧石器時代][縄文時代（前期）][奈良時代][平安時代][中世][近世]","集落","[旧石器時代]ユニット　[縄文時代]土坑　[奈良時代]住居　[近世]建物　[時代不明]溝状遺構　道路状遺構","ナイフ形石器　尖頭器　掻器　削器　剥片　縄文土器　石器　土師器　須恵器　瓦　陶磁器　金属製品　銭貨",139.434483,35.6281362,TRUE
13224029300,13224,"293","たまにゅーたうんいせきNo.775いせき","多摩ニュータウンNo.775遺跡","多摩市 豊ヶ丘一丁目","[縄文時代][奈良時代][平安時代][中世][近世]","集落","[縄文時代]土坑　[奈良時代]住居　[中世]土坑","土師器　須恵器　陶磁器",139.4339336,35.62738274,TRUE
13224029400,13224,"294","たまにゅーたうんいせきNo.776いせき","多摩ニュータウンNo.776遺跡","多摩市 豊ヶ丘一丁目","[中世][近世]","塚","","",139.4361094,35.62789203,TRUE
13224030500,13224,"305","たまにゅーたうんNo.787いせき","多摩ニュータウンNo.787遺跡","多摩市 南野一丁目","[縄文時代（前期〜中期）][中世][近世]","包蔵地","","縄文土器　磨石　土師器　陶磁器",139.4425848,35.60970285,TRUE
13224030600,13224,"306","たまにゅーたうんNo.788いせき","多摩ニュータウンNo.788遺跡","多摩市 永山七丁目","[縄文時代（前期）][奈良時代][平安時代][中世][近世]","包蔵地","","縄文土器　土師器　陶磁器",139.4437178,35.6095912,TRUE
13224030700,13224,"307","たまにゅーたうんNo.789いせき","多摩ニュータウンNo.789遺跡","多摩市 諏訪六丁目","[旧石器時代][縄文時代（早期〜中期）][弥生時代][古墳時代][平安時代][中世][近世]","集落","[縄文時代]住居　集石　炉穴　焼土　土坑　[古墳時代]土坑　[平安時代]土坑　[近世]炭窯　溝　道路状遺構","剥片　縄文土器　石器　有孔磨製石鏃　土師器　須恵器　土器　鉄鏃　陶磁器　砥石　銭貨",139.4554342,35.61886957,TRUE
13224031500,13224,"315","たまにゅーたうんNo.853いせき","多摩ニュータウンNo.853遺跡","多摩市 中沢二丁目","[縄文時代（早期〜中期）][奈良時代][平安時代][中世][近世]","包蔵地","[縄文時代]集石　土坑　[平安時代][中世]土坑　井戸　溝　[近世]室　井戸　溝","縄文土器　石器　土師器　須恵器　陶磁器　舶載陶磁器　石臼",139.4139005,35.61837721,TRUE
13224031800,13224,"318","たまにゅーたうんNo.856いせき","多摩ニュータウンNo.856遺跡","多摩市 落合二丁目","[縄文時代（早期〜前期）][奈良時代][平安時代][中世][近世]","包蔵地","[近世]敷石　段切状遺構","縄文土器　土師器　板碑　宝篋印塔　陶磁器　銭貨",139.4278407,35.62129139,TRUE
13224031900,13224,"319","たまにゅーたうんNo.857いせき","多摩ニュータウンNo.857遺跡","多摩市 落合二丁目","[縄文時代（早期〜前期）][奈良時代][平安時代][中世][近世]","包蔵地","[近世]溝","縄文土器　土師器　須恵器　瓦　板碑　陶磁器　銭貨",139.4290423,35.62176582,TRUE
13224032000,13224,"320","たまにゅーたうんNo.858いせき","多摩ニュータウンNo.858遺跡","多摩市 落合二丁目","[縄文時代（早期〜中期）][平安時代][中世][近世]","包蔵地","[縄文時代]集石　[中世]集石　段切り","縄文土器　石器　土師器　須恵器　陶磁器　銭貨",139.4300379,35.62293795,TRUE
13224032100,13224,"321","たまにゅーたうんNo.859いせき","多摩ニュータウンNo.859遺跡","多摩市 乞田","[縄文時代（前期）][奈良時代][平安時代][中世][近世]","包蔵地","","縄文土器　土師器　陶磁器",139.440343,35.63252775,TRUE
13224032200,13224,"322","たまにゅーたうんNo.860いせき","多摩ニュータウンNo.860遺跡","多摩市 馬引沢二丁目","[旧石器時代][縄文時代（前期〜中期）][弥生時代][古墳時代][奈良時代][中世][近世]","集落","[旧石器時代]ユニット　[縄文時代]土坑　[奈良時代]住居　土坑　[中世][近世]掘立柱建物　井戸　溝","尖頭器　石錐状石器　石核　剥片　縄文土器　弥生土器　土師器　須恵器　瓦　陶磁器",139.4530218,35.63378747,TRUE
13224032300,13224,"323","たまにゅーたうんNo.861いせき","多摩ニュータウンNo.861遺跡","多摩市 馬引沢二丁目","[縄文時代（早期〜中期）][平安時代][中世][近世]","包蔵地","[縄文時代]集石　土坑　[近世]炭窯","縄文土器　石器　土師器　須恵器　陶磁器",139.4555624,35.6286251,TRUE
13224032500,13224,"325","うちこしやまいせき","打越山遺跡","多摩市 連光寺二丁目","[奈良時代][平安時代][中世][近世]","包蔵地","[奈良時代][平安時代][中世][近世]道路","縄文土器　土師器　瓦　陶磁器　銭貨　煙管",139.4555453,35.6401929,TRUE
13225000200,13225,"2","けいおうていとさがみはらせんNo.2いせき","京王帝都相模原線No.2遺跡","稲城市 坂浜","[旧石器時代][縄文時代（中期）][中世]","集落","[縄文時代]住居　炉　土坑　[中世]建物　ピット群　地下式土坑","ナイフ形石器　縄文土器　石器　陶器　鉄鏃　刀子",139.4788815,35.61935881,TRUE
13225000500,13225,"5","","稲城市No.5遺跡","稲城市 坂浜","[旧石器時代][縄文時代（中期）]［奈良時代］［平安時代］[中世]","包蔵地","","",139.4855763,35.62424271,TRUE
13225000900,13225,"9","たまにゅーたうんNo.11いせき","多摩ニュータウンNo.11遺跡","稲城市 坂浜","[縄文時代（早期〜後期）][古墳時代][中世][近世]","包蔵地","[縄文時代]土坑　[古墳時代]土坑　[中世]竪穴状遺構　[近世]土坑　室　溝　道","縄文土器　打斧　磨斧　礫器　有舌尖頭器　石鏃　掻器　磨器　凹石　敲石　須恵器　陶磁器　舶載陶磁器　板碑　砥石　鎌　釘　刀子　銭貨",139.4748488,35.62269467,TRUE
13225001000,13225,"10","たまにゅーたうんNo.473いせき","多摩ニュータウンNo.473遺跡","稲城市 坂浜","[縄文時代（早期〜後期）][奈良時代][中世][近世]","集落","[縄文時代]住居　建物　竪穴状遺構　集石　炉穴　焼土　土坑　墓壙　埋甕　[中世][近世]室　炭窯　溝　道路","縄文土器　石器　土製円板　?状耳飾　垂飾　石棒　石製模造品　土偶　炭化材　土師器　須恵器",139.4741777,35.62371711,TRUE
13225001300,13225,"13","たまにゅーたうんNo.470いせき","多摩ニュータウンNo.470遺跡","稲城市 坂浜","[縄文時代（早期〜中期）][古墳時代][奈良時代][平安時代][中世][近世]","集落","[縄文時代]住居　集石　土坑　[古墳時代]土坑　[平安時代][中世]土坑　溝　[近世]土坑　炭窯　溝","縄文土器　打斧　礫器　石皿　磨石　土師器　炭化物　陶磁器　砥石　鉄蹄　構築材",139.4713238,35.62401753,TRUE
13225001400,13225,"14","たまにゅーたうんNo.471いせき","多摩ニュータウンNo.471遺跡","稲城市 坂浜","[旧石器時代][縄文時代（早期〜中期）][弥生時代][古墳時代][奈良時代][平安時代][中世][近世]","集落","[旧石器時代]遺物集中地点　[縄文時代]住居　建物　竪穴状遺構　集石　炉穴　焼土　土坑　墓壙　埋甕　[古墳時代]ピット　土坑　[奈良時代][平安時代]焼土　土坑　炭窯　[平安時代][中世]竪穴状遺構　土坑　溝状遺構　[中世]土坑　炭窯　溝　道路状遺構","ナイフ形石器　尖頭器　はく片　礫　縄文土器　石器　土製円板　?状耳飾　垂飾　石棒　土偶　炭化材　弥生土器　有孔磨製石鏃　炭化物　土師器　須恵器　陶磁器　舶載陶磁器　砥石　煙管",139.4732807,35.62301286,TRUE
13225001700,13225,"17","たまにゅーたうんNo.14いせき","多摩ニュータウンNo.14遺跡","稲城市 坂浜","[縄文時代（早期〜後期）][奈良時代][平安時代][中世]","包蔵地","[縄文時代]集石　土坑　[近世]土坑　炭窯　溝","縄文土器　石器　土師器　須恵器　陶磁器",139.4662499,35.62499428,TRUE
13225001800,13225,"18","たまにゅーたうんNo.383いせき","多摩ニュータウンNo.383遺跡","稲城市 坂浜","[縄文時代（早期〜後期）][古墳時代][奈良時代][平安時代][中世][近世]","包蔵地","[縄文時代]集石　焼土　土坑　埋甕　[古墳時代]土坑　[古墳時代]〜[平安時代]竪穴状遺構　焼土　[平安時代]〜[中世]土坑　[近世]ピット　土坑　井戸　段切状遺構　溝","縄文土器　打斧　磨斧　礫器　有舌尖頭器　石鏃　石匙　磨石　土師器　須恵器　陶器　陶磁器　鋤　鎌　銭貨　炭化材",139.4672112,35.62750586,TRUE
13225001900,13225,"19","たまにゅーたうんNo.382いせき","多摩ニュータウンNo.382遺跡","稲城市 坂浜","[縄文時代（早期〜中期）][弥生時代（中期）][奈良時代][平安時代][中世][近世]","包蔵地","[縄文時代]集石　焼土　土坑　石鏃製作址　[奈良時代]〜[近世]焼土　ピット　土坑　段切状遺構　溝","縄文土器　打斧　磨斧　礫器　有舌尖頭器　石鏃　削器　石皿　磨石　凹石　敲石　土製円板　土棒　土偶　弥生土器　土師器　須恵器　陶器　陶磁器",139.4663186,35.62750586,TRUE
13225002100,13225,"21","たまにゅーたうんNo.469いせき","多摩ニュータウンNo.469遺跡","稲城市 坂浜","[縄文時代（早期〜中期）][古墳時代][奈良時代][平安時代][中世][近世]","集落","","縄文土器",139.4707238,35.62430247,TRUE
13225002200,13225,"22","たまにゅーたうんNo.480いせき","多摩ニュータウンNo.480遺跡","稲城市 坂浜","[旧石器時代][縄文時代（前期〜中期）][奈良時代][中世][近世]","集落","[縄文時代]住居　集石　土坑　[近世]溝","ナイフ形石器　縄文土器　石器　土製円板　土製品　瓦器　陶磁器",139.4715134,35.62623324,TRUE
13225002300,13225,"23","たまにゅーたうんNo.380いせき","多摩ニュータウンNo.380遺跡","稲城市 坂浜","[旧石器時代][縄文時代（早期〜中期）][古墳時代][平安時代][中世][近世]","集落","[縄文時代]住居　集石　焼土　土坑　[古墳時代]土坑　[近世]炭窯","尖頭器　縄文土器　打斧　礫器　有舌尖頭器　石鏃　掻器　石錐　石皿　磨石　炭化材　土師器　須恵器　陶器（灰釉）　陶磁器　石板",139.4666202,35.62904067,TRUE
13225002400,13225,"24","たまにゅーたうんNo.381いせき","多摩ニュータウンNo.381遺跡","稲城市 坂浜","[縄文時代（前期〜中期）][平安時代][中世][近世]","集落","[縄文時代]住居　[平安時代]住居　土坑　[中世][近世]建物　炉　焼土　土坑","縄文土器　打斧　礫器　石鏃　石皿　磨石　石製垂飾　土師器　須恵器　陶磁器　瓦器",139.4669366,35.62837094,TRUE
13225002500,13225,"25","たまにゅーたうんNo.384いせき","多摩ニュータウンNo.384遺跡","稲城市 坂浜","[旧石器時代][縄文時代（早期〜後期）][古墳時代][奈良時代][平安時代][中世][近世]","包蔵地","[縄文時代]集石　焼土　土坑　埋甕　[平安時代]焼土　土坑　溝　[近世]土坑　畝　段切状遺構　溝　道路","ナイフ形石器　縄文土器　打斧　磨斧　礫器　石鏃　石皿　磨石　スタンプ形石器　凹石　敲石　土師器　須恵器　陶器（灰釉）　舶載陶磁器　陶磁器　土師質土器　瓦質土器　砥石　煙管",139.4684129,35.6268082,TRUE
13225002600,13225,"26","たまにゅーたうんNo.385いせき","多摩ニュータウンNo.385遺跡","稲城市 坂浜","[旧石器時代][奈良時代][平安時代][中世][近世]","包蔵地","","細石核?　須恵器?　瓦器?",139.4690652,35.6268082,TRUE
13225002900,13225,"29","たまにゅーたうんNo.481いせき","多摩ニュータウンNo.481遺跡","稲城市 坂浜","[縄文時代（早期〜中期）][古墳時代][奈良時代][平安時代][中世][近世]","包蔵地","[縄文時代]集石　焼土　土坑　[古墳時代]土坑　[奈良時代][平安時代][中世]焼土　ピット　土坑　[近世]段切状遺構　溝状遺構","縄文土器　打斧　磨斧　礫器　石鏃　陶磁器　砥石",139.4709534,35.62719889,TRUE
13225003200,13225,"32","たまにゅーたうんNo.475いせき","多摩ニュータウンNo.475遺跡","稲城市 坂浜","[縄文時代（早期〜中期）][奈良時代][平安時代][中世][近世]","包蔵地","[奈良時代][平安時代]竪穴状遺構　焼土　土坑　[近世]室　炭窯","縄文土器　打斧　磨斧　礫器　石槍　石匙　石皿　磨石　砥石　石核　石板　土師器　土師質土器　陶磁器　銭貨",139.4745556,35.62427061,TRUE
13225003300,13225,"33","たまにゅーたうんNo.476いせき","多摩ニュータウンNo.476遺跡","稲城市 坂浜","[縄文時代（早期〜中期）][平安時代][中世][近世]","集落","[縄文時代]住居　土坑　[近世]土坑　山砂採掘坑","縄文土器　打斧　磨斧　礫器　石鏃　石匙　石皿　磨石　土師器　土師質土器　陶磁器",139.474281,35.62496829,TRUE
13225003400,13225,"34","たまにゅーたうんNo.9いせき","多摩ニュータウンNo.9遺跡","稲城市 若葉台一丁目","[縄文時代][中世][近世]","包蔵地","[縄文時代]陥し穴土坑　住居跡　竪穴状遺構　埋甕　土坑　集石　焼土跡　[古墳時代]住居跡　土坑　[中世]竪穴状遺構　土坑　溝　[中世][近世]陥し穴土坑　[近世]土坑　道路遺構　溝　杭列　ピット","角錐状石器　ナイフ形石器　彫器　掻器　尖頭器　細石刀　細石刀石核　土製品　石製品　石器　縄文土器　打斧　石皿　鉄釘　磁器　土師質須恵器　須恵器（甕）　土師器",139.4763706,35.62605473,TRUE
13225003500,13225,"35","たまにゅーたうんNo.10いせき","多摩ニュータウンNo.10遺跡","稲城市 坂浜","[縄文時代（早期〜中期）][古墳時代][奈良時代][平安時代][中世][近世]","包蔵地","[縄文時代]炉穴　焼土　土坑　[古墳時代]土坑　[奈良時代][平安時代]焼土　土坑　[近世]土坑　室　畝　山砂採掘坑　段切状遺構　溝","縄文土器　打斧　磨斧　礫器　石槍　石鏃　掻器　石皿　磨石　凹石　土師器　須恵器　陶磁器　舶載陶磁器　銭貨",139.4760273,35.62446404,TRUE
13225004200,13225,"42","たまにゅーたうんNo.5いせき","多摩ニュータウンNo.5遺跡","稲城市 長峰二丁目　 長峰三丁目","[旧石器時代][縄文時代（早期〜後期）][弥生時代（中期）][古墳時代][奈良時代][平安時代][中世][近世]","集落","[縄文時代]住居　集石　土坑　[古墳時代]土坑　[平安時代]住居　焼土　ピット　柱穴群　土坑　溝　工房　[近世]建物　貯蔵穴　土坑　井戸　段切状遺構　墓","尖頭器　剥片　縄文土器　打斧　磨斧　礫器　有舌尖頭器　石鏃　掻器　石匙　石皿　抉入磨石　加工礫　?状耳飾　盤状　弥生土器　土師器　須恵器　陶器　斧　釘　刀子　鉄鏃　紡錘車　土錘　羽口　蔵骨器　鉄滓　人骨　自然遺物　陶磁器　舶載磁器　板碑　砥石　釘　弾丸　銅煙管　毛抜き　ガラス玉　銭貨　人骨",139.4808336,35.63176739,TRUE
13225004400,13225,"44","たまにゅーたうんNo.366いせき","多摩ニュータウンNo.366遺跡","稲城市 長峰三丁目","[旧石器時代][縄文時代（早期〜後期）][平安時代][中世][近世]","集落","[縄文時代]集石　集石土坑　陥し穴　[平安時代]住居　竪穴状遺構　土坑　溝　[中世]〜[近世]土坑　井戸　炭窯　溝","尖頭器　細石刃核　縄文土器　打斧　磨斧　礫器　有舌尖頭器　石鏃　掻器　石匙　石皿　凹石　石核　?状耳飾　土偶　土師器　須恵器　陶器（灰釉・緑釉）　舶載陶磁器　砥石　鉄製品　炭化材　板碑　鉛玉　銭貨",139.4811769,35.63263242,TRUE
13225004700,13225,"47","たまにゅーたうんNo.360いせき","多摩ニュータウンNo.360遺跡","稲城市 大丸","[縄文時代（前期）][奈良時代][平安時代][中世]","集落","[縄文時代]土坑　[奈良時代]住居　土坑　[中世]柱穴群","縄文土器　石器　土師器　須恵器　陶器（灰釉）",139.4897256,35.64651755,TRUE
13225005200,13225,"52","たまにゅーたうんNo.3いせき（たてだいいせき）","多摩ニュータウンNo.3遺跡（稲城市竪台遺跡）","稲城市 百村","[縄文時代（前期〜中期）][奈良時代][平安時代][中世][近世]","集落","[縄文時代]住居跡　竪穴状遺構　集石　陥し穴　土坑　ピット群　[古墳時代]住居　溝　[奈良時代][平安時代]住居跡　掘立柱建物址　土坑　溝　製鉄遺構　[中世]土坑　地下式土坑　[近世]土壙　井戸　溝","尖頭器　縄文土器　打斧　磨斧　石鏃　石匙　石錘　石皿　磨石　凹石　敲石　台石　石核　土錘　土製円板　?状耳飾　土偶　炭化材　石器　土師器　須恵器　土製支脚　刀子　鉄鏃　鉄製品　石製紡錘車　羽口　か帯巡方　陶磁器　舶載陶磁器　板碑",139.4888721,35.63472927,TRUE
13225007600,13225,"76","じゅうさんづか（ひらおいせきNo.16）","十三塚（平尾遺跡No.16）","稲城市 平尾","[中世]","塚","13基","",139.4900768,35.60454557,TRUE
13225007700,13225,"77","にゅうじょうづか（ひらおいせきNo.17）","入定塚（平尾遺跡No.17）","稲城市 平尾","[中世]","塚","","鉄釘　板碑　銭貨",139.4893387,35.60506197,TRUE
13225007800,13225,"78","ひらおいせきNo.18","平尾遺跡No.18","稲城市 平尾","[中世]","包蔵地","","陶器",139.489888,35.60843948,TRUE
13225008400,13225,"84","","稲城市No.84遺跡","稲城市 坂浜","[中世]","経塚","","銅鏡　鉄刀　数珠玉　銭貨　籾米",139.4822117,35.62996346,TRUE
13225008500,13225,"85","たまにゅーたうんNo.513いせき（おおまるじょうあと）","多摩ニュータウンNo.513遺跡（大丸城跡）","稲城市 大丸","[奈良時代][中世]","窯跡・城館","[縄文時代]集石 土坑 土坑 [古墳時代]横穴墓2基 [奈良時代]住居 窯 [中世]城郭関連遺構（物見主郭・方形区画・空濠・溝・建物・門?） 炭窯 集石土 坑 土坑 地下式土坑 墓 板碑群 [近世]柱穴群 溝","縄文土器 石器 土師器 須恵器 軒平瓦（三重弧文） 軒丸瓦（単弁系八弁蓮華文・剣菱形蓮華文） 平瓦 丸瓦 ? 鉄斧 土鈴 ミニチュア土器 陶磁器 舶載青磁 刀子 石臼 金属製品 板碑 五輪塔 宝篋印塔 経筒 経紙 銭貨 環状鉄製品",139.489863,35.6471692,TRUE
13225008800,13225,"88","おざわじょうあと","小沢城跡","稲城市 矢野口","[中世]","城館","","",139.5227301,35.63218596,TRUE
13225009000,13225,"90","","稲城市No.90遺跡","稲城市 矢野口","[中世]","城館","","",139.5142157,35.63254871,TRUE
13225009100,13225,"91","ながぬまじょうあと","長沼城跡","稲城市 東長沼","[中世]","城館","","",139.5000021,35.63709697,TRUE
13225009400,13225,"94","たまにゅーたうんNo.477いせき","多摩ニュータウンNo.477遺跡","稲城市 坂浜","[中世]","墓地","","板碑",139.4763886,35.62530711,TRUE
13225009500,13225,"95","たまにゅーたうんNo.478いせき","多摩ニュータウンNo.478遺跡","稲城市 坂浜","[中世]","墓地","","板碑　五輪塔　宝篋印塔",139.4812981,35.62539083,TRUE
13225010800,13225,"108","たまにゅーたうんNo.361いせき","多摩ニュータウンNo.361遺跡","稲城市 大丸","[中世]","墓地","","板碑",139.4899316,35.64605322,TRUE
13225012100,13225,"121","たまにゅーたうんNo.874いせき","多摩ニュータウンNo.874遺跡","稲城市 坂浜","[縄文時代][奈良時代][平安時代][中世]","包蔵地","[縄文時代]土坑　[中世]竪穴状遺構　板碑群","縄文土器　石器　土師器　須恵器　鉄鏃　陶磁器　板碑　五輪塔",139.4831387,35.62876353,TRUE
13225012700,13225,"127","たまにゅーたうんNo.880いせき","多摩ニュータウンNo.880遺跡","稲城市 向陽台三丁目　 向陽台五丁目","[旧石器時代][縄文時代（早期〜中期）][弥生時代（前期〜中期）][古墳時代][奈良時代][平安時代][中世][近世]","集落","[縄文時代]集石　土坑　[古墳時代]土坑　[奈良時代][平安時代]住居　焼土　土坑　溝　[近世]土坑　集石　溝","尖頭器　縄文土器　石器　弥生土器　土師器　須恵器　土師質土器　陶器（灰釉）　置き竈　刀子　釘　鉄鏃　土製品　鉄滓　煙管　銭貨",139.4856744,35.63648311,TRUE
13225014800,13225,"148","","稲城市No.148遺跡","稲城市 坂浜","[縄文時代][中世]","包蔵地","","",139.4840133,35.61939782,TRUE
13227000700,13227,"7","かじいせき","鍛冶遺跡","羽村市 五ノ神一丁目","[中世][近世]","鍛冶工房跡","[近世]炉","鞴 鉄製品 鋳型 鉄滓 泥人形 銭貨",139.3179658,35.75912053,TRUE
13228000600,13228,"6","とくらじょうあと","戸倉城跡","あきる野市 戸倉","[中世]","城館","[中世]井戸　空堀　東西曲輪　土塁　枡形","",139.1972621,35.72591656,TRUE
13228001700,13228,"17","こづくえだいらいせき","小机平遺跡","あきる野市 三内","[縄文時代（中期）][中世]","包蔵地","","縄文土器　剥片　陶器",139.2260583,35.73927291,TRUE
13228002500,13228,"25","だいひがんじいせき","大悲願寺遺跡","あきる野市 横沢","[中世]","城館・社寺","[中世]段切状遺構","土師質土器　磁器（青磁）",139.2415078,35.73250096,TRUE
13228002800,13228,"28","あじろじょうあと","網代城跡","あきる野市 網代","[中世]","城館","","",139.2427781,35.72046051,TRUE
13228003000,13228,"30","あじろべんてんどうけついせき","網代弁天洞穴遺跡","あきる野市 網代","[縄文時代][弥生時代][平安時代][中世][近世]","洞穴（祭祀）","","縄文土器　打斧　磨斧　礫器　石鏃　凹石　管玉　弥生土器　有孔円板　須恵器　鉄刀子　経石　石像　銭貨",139.246692,35.720572,TRUE
13228003100,13228,"31","しょうがんじいせき","松岩寺遺跡","あきる野市 北伊奈","[弥生時代][中世]","城館","","須恵器",139.2521165,35.73534358,TRUE
13228003300,13228,"33","ひきやがやといせき","引谷ヶ谷戸遺跡","あきる野市 網代","[縄文時代（早期〜中期）][奈良時代][平安時代][中世]","包蔵地・集落","[縄文時代]住居跡　土坑　集石　陥穴状土坑　埋甕　焼土群　[奈良時代][平安時代][中世]陥穴状土坑","縄文土器　石器　石製品　土製品　土師器　須恵器　陶磁器",139.2512925,35.72065562,TRUE
13228003400,13228,"34","みずくさきいせき","水草木遺跡","あきる野市 伊奈","[縄文時代（早期〜後期）][古墳時代][奈良時代][平安時代][中世][近世]","集落　その他（狩猟場）","[縄文時代]土坑　陥穴状土坑　[古墳時代]住居跡　掘立柱建物跡　[古墳時代]〜[中世]円形土坑　方形土坑　[古墳時代]〜[近世]土坑　[近世]溝状遺構　道路跡　農業関連遺構","縄文土器　尖頭器　打斧　石鏃　削器　石皿　土師器　石器　須恵器　貿易陶器　陶磁器(常滑・青磁)",139.2577813,35.73277965,TRUE
13228004100,13228,"41","ままうえいせき","儘上遺跡","あきる野市 高尾","[縄文時代][中世][近世]","包蔵地・社寺","","縄文土器　陶磁器",139.2376282,35.72299696,TRUE
13228006800,13228,"68","いしがみいせき","石神遺跡","あきる野市 原小宮","[縄文時代（前期〜後期）][古墳時代][奈良時代][平安時代][中世][近世]","集落・墳墓","[縄文時代]集石土坑　石器埋納遺構　[古墳時代]住居跡　円形周溝墓　方形周溝墓　[奈良時代][平安時代]住居跡　[中世]井戸　盛土　[近世]墓壙","縄文土器　石器　土師器　須恵器　陶磁器",139.2994743,35.73449207,TRUE
13228007900,13228,"79","おおつかこふん","大塚古墳","あきる野市 雨間","[古墳時代？]［中世］","古墳？・その他","[中世]修法壇　跡？","",139.2929855,35.72783119,TRUE
13228008600,13228,"86","あめまなかごう（おやしきやま）いせき","雨間中郷(御屋敷山）遺跡","あきる野市 雨間","[縄文時代]［中世］","包蔵地","［時代不明］土坑　段状遺構　溝","縄文土器　石器　陶磁器　石臼　板碑　銭貨",139.2980324,35.72080741,TRUE
13228008900,13228,"89","まえだこうちいせき","前田耕地遺跡","あきる野市 二宮　 野辺　 小川","[旧石器時代][縄文時代（草創期〜後期）][弥生時代][古墳時代][平安時代][中世][近世]","集落","[縄文時代]住居跡　集石土坑　炉　土坑　石器製作址　配石","尖頭器　細石刃核　掻器　削器　縄文土器　打斧　磨斧　礫器　石鏃　石匙　石皿　磨石　台石　有溝砥石　剥片　土錘　土偶　弥生土器　土師器　須恵器　陶器（灰釉)　鎌　刀子　陶磁器　瓦　杭　焼礫",139.3154045,35.72418002,TRUE
13228009100,13228,"91","にのみや・にのみやもりこしいせき","二宮・二宮森腰遺跡","あきる野市 二宮　 平沢","[旧石器時代][縄文時代（草創期〜後期）][弥生時代][古墳時代][奈良時代][平安時代][中世][近世]","集落・経塚・社寺・城館","[縄文時代]住居跡　敷石住居　炉　土坑　柱穴群　埋甕　[平安時代]経塚　[中世]地下式土坑","細石刃核　縄文土器　打斧　磨斧　礫器　石鏃　石匙　石錐　石箆　石皿　磨石　スタンプ形石器　凹石　剥片石器　弥生土器　土師器　須恵器　鉄釘　鉄製品　鍔　柄頭鞘尻　瓦　陶磁器　金銅仏　銭貨",139.3128296,35.72886241,TRUE
13228009200,13228,"92","","あきる野市No.92遺跡","あきる野市 小川","[中世]","城館","[中世]堀","陶器　経石",139.3159538,35.71969246,TRUE
13228009400,13228,"94","ほうりんじやかたあと","法林寺館跡","あきる野市 小川","[中世]","城館","[中世]堀?　土塁","陶磁器",139.3203484,35.7194416,TRUE
13228009500,13228,"95","にのみやじょうあと・あきるのしNo.96いせき","二宮城跡・あきる野市No.96遺跡","あきる野市 二宮","[縄文時代（中期）][平安時代][中世]","集落・城館","[縄文時代]住居　土坑　[平安時代]住居　[中世]掘立柱建物　段状遺構柵列","縄文土器　打斧　石鏃　磨石　須恵器　陶磁器　茶臼?　板碑　銭貨",139.3215157,35.72144849,TRUE
13228009800,13228,"98","にじょうじょうし","二城城址","あきる野市 上代継","[中世]","城館","[中世]曲輪","",139.2786381,35.71512952,TRUE
13228010200,13228,"102","ふちがみのいしづみいど","渕上の石積井戸","あきる野市 渕上","[中世][近世]","その他（井戸）","※遺跡範囲のすべてが市指定史跡渕上の石積井戸となっています。","陶磁器",139.2733338,35.72261371,TRUE
13228010600,13228,"106","","あきる野市No.106遺跡","あきる野市 引田","[古墳時代][中世][近世]","古墳","","土師器　板碑　宝篋印塔　銭貨　火葬骨",139.2697633,35.71956855,TRUE
13228010700,13228,"107","","あきる野市No.107遺跡","あきる野市 横沢　 富田ノ入　 釜ノ沢　 釜ノ久保　 荒田ノ入　 宮田　 下ノ川","[中世][近世]","その他（生産（切石）関連）","[中世][近世]採掘坑　テラス状遺構　ズリ","",139.2377656,35.73879917,TRUE
13228010800,13228,"108","しんみちどおりいせき","新道通遺跡","あきる野市 瀬戸岡","[縄文時代（早期〜後期）][古墳時代][中世][近世]","集落","[古墳時代]住居跡　遺物集中地点　ピット　[奈良時代][平安時代]土坑　[奈良時代]〜[近世]石敷き遺構　集石　土坑　ピット　[中世][近世]屋敷跡","縄文土器　石器　土師器　須恵器　鉄器　土製品　石製品　陶磁器　銭貨　金属　ガラス製品",139.2935531,35.73898662,TRUE
13228010900,13228,"109","すなぬまいせき","砂沼遺跡","あきる野市 伊奈","[縄文時代（後期）][平安時代][中世][近世]","包蔵地・その他（水田跡）","[縄文時代]土坑　[中世][近世]水田","縄文土器　土師器　白磁　蹄鉄　煙管　田下駄　杵",139.2509492,35.73319769,TRUE
13229001100,13229,"11","しもやぎさわいせき","下柳沢遺跡","西東京市 東伏見二丁目 東伏見三丁目","[旧石器時代][縄文時代(草創期〜後期)][中世][近世]","集落・その他の墓","[旧石器時代]ブロック 礫群 [縄文時代]住居 土坑 ピット [中]井戸 地下式土坑 [近世]土坑 井戸 溝 水車 畑 水田","縄文土器 石器 剥片 焼礫 陶磁器 土師質土器 瓦質土器 茶臼 板碑 銭貨",139.5647496,35.72671726,TRUE
13303001100,13303,"11","","瑞穂町No.11遺跡","瑞穂町 石畑","[中世][近世]","","","陶器",139.3606657,35.76982462,TRUE
13303001300,13303,"13","たきたいせき","滝田遺跡","瑞穂町 殿ヶ谷","[中世][近世]","","","土師質土器",139.3635964,35.77244973,TRUE
13303001600,13303,"16","","瑞穂町No.16遺跡","瑞穂町 殿ヶ谷","[中世][近世]","","","",139.3652652,35.76712181,TRUE
13303001800,13303,"18","","瑞穂町No.18遺跡","瑞穂町 駒形富士山","[中世][近世]","地下式横穴","","",139.3627437,35.79052622,TRUE
13303002000,13303,"20","むらやまやかたあと","村山館跡","瑞穂町 殿ヶ谷","[中世]","城館","[中世]空堀 土塁","",139.3616055,35.7677568,TRUE
13305001000,13305,"10","ひがしはらいせき","東原遺跡","日の出町 北伊奈松岩寺前　油田","[縄文時代（早期〜後期）][古墳時代][奈良時代][平安時代][中世][近世]","集落　その他の墓","","土師器　中世陶器　板碑　陶磁器",139.2589104,35.73529421,TRUE
13305001300,13305,"13","さぢかみやしき（おやしき）あと","幸神屋敷(御屋敷）跡","日の出町 大久野","[中世]","城館","","",139.2252434,35.74301685,TRUE
13305001400,13305,"14","あらいやしきあと","新井屋敷跡","日の出町 大久野","[中世]","城館","[中世]土塁","",139.2293976,35.74454945,TRUE
13305001700,13305,"17","みよしのいせきぐんせいぼうちくいせき","三吉野遺跡群清坊地区遺跡","日の出町 平井","[旧石器時代][縄文時代（前期）][古墳時代][奈良時代][平安時代][中世][近世]","集落・社寺・窯","[旧石器時代]礫群　[縄文時代]集石土坑　[弥生時代][古墳時代]住居　土坑　[奈良時代][平安時代]住居　掘立柱建物　土師器焼成坑　[中世][近世]閻魔堂？　溝　土坑　地下室","縄文土器　弥生土器　土師器　陶磁器　鉄器　銭貨　板碑　焼礫　人骨",139.2759392,35.73964155,TRUE
13305001800,13305,"18","みよしのいせきぐんはけうえ・しももはらちく","三吉野遺跡群欠上・下モ原地区","日の出町 平井","[縄文時代（中期）][弥生時代（後期）][古墳時代][奈良時代][平安時代][中世]","集落","[弥生時代][古墳時代]住居　円形土坑　[中世]?　掘立柱建物　土坑","石斧　敲打器　土師器　刀子　砥石　土製紡錘車　管玉　臼玉",139.2825654,35.73827606,TRUE
13305002100,13305,"21","みよしのいせきぐんしゅくどおりちくいせき","三吉野遺跡群宿通地区遺跡","日の出町 平井","[平安時代][中世][近世]","集落","[平安時代]住居　[奈良時代][平安時代]〜[近世]土坑","土師器　陶磁器",139.2686608,35.74053328,TRUE
13305002500,13305,"25","こうみょうじいせき","光明寺遺跡","日の出町 大字大久野字細尾","[中世][近世]","社寺","土坑　掘立建物　焼土跡","中世陶器　近世陶磁器　銭",139.2134674,35.75878723,TRUE
13305002600,13305,"26","おざきはらいせき","尾崎原遺跡","日の出町 大字大久野字萱窪","[縄文][中世][近世]","集落","竪穴状遺構","縄文土器",139.2392724,35.74669154,TRUE
13307001900,13307,"19","ひのはらじょう（ほんじゅくじょう）あと","檜原城（本宿城）跡","檜原村 本宿","[中世]","城館","[中]物見櫓　堀切　曲輪","",139.1449211,35.72574485,TRUE
13307003200,13307,"32","せんげんだいいせき","浅間台遺跡","檜原村 樋里","[縄文時代（早期〜中期）][中世]","包蔵地","","縄文土器　経石",139.1059035,35.72042181,TRUE
13308001201,13308,"12-1","ありづか","あり塚（第1・2号）","奥多摩町 原","[中世]","塚","","",NA,NA,TRUE
13308002400,13308,"24","しろまるにしのだいらいせき","白丸西の平遺跡","奥多摩町 白丸","[縄文時代（早期〜後期）][平安時代][中世]","集落","[縄文時代]住居　敷石住居　[平安時代]住居　[中世]住居　円形土坑","縄文土器　打斧　磨斧　尖頭器　石鏃　石匙　滑石製垂玉　須恵器",139.1120508,35.81115575,TRUE
