"JASID","LGC","Site_no","SiteName_furigana","SiteName_original","Address","Chronology","SiteType","ArchaeologicalFeatures","MajorArtefacts","Lon","Lat","P","J","Y","K","N","H","M","E","U","色"
13101002200,13101,"22","とうきょうこくりつきんだいびじゅつかんいせき","東京国立近代美術館遺跡","千代田区 北の丸公園","[旧石器時代][縄文時代（早期〜後期）][弥生時代][古墳時代][中世][近世]","集落・城館","[旧石器時代]礫群　[縄文時代][弥生時代][古墳時代]住居　[中世]井戸　土坑群　地下式土坑　溝状遺構　堀　[近世]井戸　石組遺構","縄文土器　弥生土器　土製勾玉　土師器　須恵器　砥石　土錘　石製カ帯　石製模造品　陶磁器　カワラケ　瓦　鉄鏃　板碑　ガラス製品　焼塩壺　銭貨",139.754735,35.69037522,TRUE,TRUE,TRUE,TRUE,FALSE,FALSE,TRUE,TRUE,FALSE,"red"
13103000700,13103,"7","いまいしろやま","今井城山遺跡","港区 赤坂五丁目","[中世]","城館","","",139.7357195,35.67250843,FALSE,FALSE,FALSE,FALSE,FALSE,FALSE,TRUE,FALSE,FALSE,"red"
13103001500,13103,"15","にしくぼしろやまいせき","西久保城山遺跡","港区 虎ノ門四丁目","[中世]","城館","","",139.7441082,35.66585452,FALSE,FALSE,FALSE,FALSE,FALSE,FALSE,TRUE,FALSE,FALSE,"red"
13103001700,13103,"17","おおたどうかんしろあと","太田道灌城跡","港区 虎ノ門五丁目","[中世]","城館","","",139.7431469,35.66328836,FALSE,FALSE,FALSE,FALSE,FALSE,FALSE,TRUE,FALSE,FALSE,"red"
13103006700,13103,"67","きゅうしろがねごりょうちいせき","旧白金御料地遺跡","港区 白金台五丁目","[縄文時代（早〜後）][中世][近世]","包蔵地　城館　屋敷","[中世]土塁[近世]土坑　溝　ピット　配石","[縄文時代]土器[近世]陶磁器　土器　金属製品",139.7184964,35.63854299,FALSE,TRUE,FALSE,FALSE,FALSE,FALSE,TRUE,TRUE,FALSE,"red"
13104001600,13104,"16","つくどじょうあと","筑土城跡","新宿区 筑土八幡町","[中世][近世]","その他の墓・城館・社寺・その他（町屋）","[近世]大型土坑 地下室 土坑 柱穴 植栽痕","磁器 陶器 せっ器 土器 瓦 土製品 金属製品",139.7404739,35.7038249,FALSE,FALSE,FALSE,FALSE,FALSE,FALSE,TRUE,TRUE,FALSE,"red"
13104001800,13104,"18","うしごめじょうあといせき","牛込城跡","新宿区 袋町 北町 中町 若宮町","[縄文時代][弥生時代（後期）][古墳時代][中世][近世]","集落・城館・屋敷・その他の墓","[弥生時代]住居跡 [近世]地下室 土坑 井戸 甕埋納遺構 小穴 大型土坑 墓 植栽痕 溝状遺構 礎石","磁器 陶器 せっ器 土器 瓦 土製品 金属製品 石製品 貝類 骨角製品 ガラス製品",139.7380147,35.70067335,FALSE,TRUE,TRUE,TRUE,FALSE,FALSE,TRUE,TRUE,FALSE,"red"
13104002800,13104,"28","おおたどうかんべっかんごてんやまいせき","太田道灌別館御殿山遺跡","新宿区 筑土八幡町","[中世][近世]","城館・社寺","[近世]馬埋葬遺構　甕棺墓","動物遺存体　人骨　甕棺　蔵骨器　泥人形",139.7394096,35.70404793,FALSE,FALSE,FALSE,FALSE,FALSE,FALSE,TRUE,TRUE,FALSE,"red"
13109000700,13109,"7","しろがねやかたあと","白金館址","品川区 上大崎二丁目","[中世]","城館","","",139.7185611,35.63848077,FALSE,FALSE,FALSE,FALSE,FALSE,FALSE,TRUE,FALSE,FALSE,"red"
13109001700,13109,"17","えばらやかたあと","荏原館跡","品川区 旗の台三丁目","[中世]","城館","[中世]土塁","",139.7080605,35.60455922,FALSE,FALSE,FALSE,FALSE,FALSE,FALSE,TRUE,FALSE,FALSE,"red"
13109002100,13109,"21","かねこやまいせき","金子山遺跡","品川区 西大井四丁目","[中世]","城館","","",139.7196823,35.59370406,FALSE,FALSE,FALSE,FALSE,FALSE,FALSE,TRUE,FALSE,FALSE,"red"
13110004500,13110,"45","ひもんやとのやまいせき","碑文谷殿山遺跡","目黒区 碑文谷五丁目","[中世]","城館","","",139.682451,35.62276607,FALSE,FALSE,FALSE,FALSE,FALSE,FALSE,TRUE,FALSE,FALSE,"red"
13110004600,13110,"46","でんめぐろしやかたあといせき","伝目黒氏館跡遺跡","目黒区 中目黒一丁目","[中世]","城館","","",139.7028444,35.64531228,FALSE,FALSE,FALSE,FALSE,FALSE,FALSE,TRUE,FALSE,FALSE,"red"
13111007000,13111,"70","くまのじんじゃまえかいづか・あらいじゅくじょうあと","熊野神社前貝塚・新井宿城跡","大田区 山王三丁目","[奈良時代][平安時代][中世]","貝塚・城館","","土師器　須恵器　獣骨",139.721874,35.58434285,FALSE,FALSE,FALSE,FALSE,TRUE,TRUE,TRUE,FALSE,FALSE,"red"
13111012800,13111,"128","まごめじょうあと","馬込城跡","大田区 南馬込五丁目","[中世]","城館","","",139.7095363,35.58952412,FALSE,FALSE,FALSE,FALSE,FALSE,FALSE,TRUE,FALSE,FALSE,"red"
13111013000,13111,"130","なめかたしやかたあと","行方氏館跡","大田区 蒲田二丁目　 蒲田三丁目","[中世]","城館","","",139.7239992,35.56503206,FALSE,FALSE,FALSE,FALSE,FALSE,FALSE,TRUE,FALSE,FALSE,"red"
13111013100,13111,"131","はちまんづかなめかたしやかたあと","八幡塚行方氏館跡","大田区 東六郷三丁目","[中世]","城館","","",139.7129699,35.54410093,FALSE,FALSE,FALSE,FALSE,FALSE,FALSE,TRUE,FALSE,FALSE,"red"
13112008500,13112,"85","たもんやまいせき・みしゅくじょうあと","多聞山遺跡・三宿城跡","世田谷区 三宿二丁目","[縄文時代（早期〜後期）][古墳時代][中世][近世]","集落 城館","[縄文時代]炉 土坑 [古墳時代]住居 [中世]溝","縄文土器 石器 土師器 炭化物",139.6755,35.65216,FALSE,TRUE,FALSE,TRUE,FALSE,FALSE,TRUE,TRUE,FALSE,"red"
13112008800,13112,"88","せたがやじょうせき","世田谷城跡","世田谷区 豪徳寺二丁目 梅丘二丁目","[中世]","城館","※遺跡範囲のすべてが、東京都指定旧跡世田谷城跡となっています。","陶器 板碑",139.6476,35.64749,FALSE,FALSE,FALSE,FALSE,FALSE,FALSE,TRUE,FALSE,FALSE,"red"
13112010500,13112,"105","せたいせき・せたじょうせき","瀬田遺跡・瀬田城跡","世田谷区 瀬田一丁目 瀬田二丁目","[旧石器時代][縄文時代（早期〜後期）][弥生時代（後期）][古墳時代][奈良時代][平安時代][中世][近世]","集落・城館","[旧石器時代]ブロック 礫群 [縄文時代]住居 土坑 ピット [弥生時代〜古墳時代]住居 [奈良〜平安時代]住居 [近世]ピット 土坑 井戸 溝 配石","石器 縄文土器 石器 礫 けつ状耳飾 弥生土器 土師器 須恵器 陶器 灰釉陶器 土製品 陶磁器",139.6318,35.61599,TRUE,TRUE,TRUE,TRUE,TRUE,TRUE,TRUE,TRUE,FALSE,"red"
13112016700,13112,"167","おくさわじょうあと","奥沢城跡","世田谷区 奥沢七丁目","[中世]","城館","※遺跡範囲のすべてが、世田谷区指定史跡奥沢城跡となっています。 [中世]空堀 土塁","縄文土器? 陶磁器",139.6609159,35.60826729,FALSE,FALSE,FALSE,FALSE,FALSE,FALSE,TRUE,FALSE,FALSE,"red"
13112022700,13112,"227","おおひらとりであと","大平砦跡","世田谷区 奥沢一丁目 奥沢三丁目","[中世]","城館","","",139.677948,35.601883,FALSE,FALSE,FALSE,FALSE,FALSE,FALSE,TRUE,FALSE,FALSE,"red"
13112022800,13112,"228","ふかさわじょうあと","深沢城跡","世田谷区 中町二丁目 等々力三丁目 等々力八丁目","[中世]","城館","","",139.6476802,35.61371197,FALSE,FALSE,FALSE,FALSE,FALSE,FALSE,TRUE,FALSE,FALSE,"red"
13112027800,13112,"278","からすやまじょう（とりで）せき・からすやまみなみはらいせき","烏山城(砦)跡・烏山南原遺跡","世田谷区 南烏山一丁目 南烏山二丁目","[旧石器時代][縄文時代（中期）][中世][近世]","集落・城館","[旧石器時代]ブロック 礫群 [近世]溝状遺構 [時期不明]溝","石器 焼礫 縄文土器 陶磁器",139.6085982,35.6676234,TRUE,TRUE,FALSE,FALSE,FALSE,FALSE,TRUE,TRUE,FALSE,"red"
13113006600,13113,"66","しぶやじょう","渋谷城","渋谷区 渋谷三丁目","[中世]","城館","[中世]空堀　土塁","",139.7065244,35.65755713,FALSE,FALSE,FALSE,FALSE,FALSE,FALSE,TRUE,FALSE,FALSE,"red"
13114009600,13114,"96","なかのちょうじゃやしき","中野長者屋敷","中野区 本町二丁目","[中世]","城館","","",139.6817144,35.69361796,FALSE,FALSE,FALSE,FALSE,FALSE,FALSE,TRUE,FALSE,FALSE,"red"
13117001500,13117,"15","いねつけじょうあと","稲付城跡","北区 赤羽西一丁目","[古墳時代][奈良時代][中世]","集落・城館","[中世]空堀　[古墳時代][奈良時代]住居址　[中世]竪穴状遺構　溝","土師器　須恵器　陶器",139.7193629,35.77558484,FALSE,FALSE,FALSE,TRUE,TRUE,FALSE,TRUE,FALSE,FALSE,"red"
13117002700,13117,"27","にしがはらいせきぐん","西ヶ原遺跡群","北区 西ヶ原一丁目　 西ヶ原二丁目　 西ヶ原三丁目　 上中里一丁目　 王子一丁目","[旧石器時代][縄文時代][弥生時代][古墳時代][奈良時代][平安時代][中世][近世]","集落・貝塚・その他の墓・城館","[縄文時代]住居址　土坑　ピット群　土壙墓　墓壙　貝塚　[弥生時代]住居址　土坑　溝址　方形周溝墓　環濠　[弥生時代][古墳時代]方形周溝墓　[古墳時代]住居址　土坑　溝址　古墳　[奈良時代][平安時代]住居址　掘立柱建物址　ピット　土坑　溝　正倉大溝　溝址　[中世][近世]溝址　土坑　[近世]建物　ピット土坑　地下式土坑　井戸　溝　区画溝　道路　土壙墓群　柵列　集石　特殊埋葬遺構","掻器　彫器　縄文土器　打斧　磨斧　石鏃　抉入石器　石器　ヤス状鹿角製品　耳飾　土板　埋葬人骨　動物遺存体　石皿　磨石　凹石　敲石　石核　大珠　骨角器　弥生土器　石皿　磨石　敲石　滑石製玉　土師器　須恵器　支脚　砥石　紡錘車　土錘　羽口　土玉　鉄製品　陶磁器類　土製品　鉄製品　銭貨　鳥獣魚骨　貝　剥片石器",139.7428408,35.74611874,TRUE,TRUE,TRUE,TRUE,TRUE,TRUE,TRUE,TRUE,FALSE,"red"
13117003700,13117,"37","としまきよみつやかたあと","豊島清光館跡","北区 豊島七丁目","[中世]","城館","","",139.74256,35.76658299,FALSE,FALSE,FALSE,FALSE,FALSE,FALSE,TRUE,FALSE,FALSE,"red"
13117003800,13117,"38","たきのがわじょうあと","滝野川城跡","北区 滝野川三丁目","[中世]","城館","","",139.7305841,35.75213726,FALSE,FALSE,FALSE,FALSE,FALSE,FALSE,TRUE,FALSE,FALSE,"red"
13118000600,13118,"6","いしはまじょう","石浜城","荒川区 南千住三丁目","[中世]","城館","","",139.8075732,35.73077263,FALSE,FALSE,FALSE,FALSE,FALSE,FALSE,TRUE,FALSE,FALSE,"red"
13119002800,13119,"28","あかつかじょうし","赤塚城址","板橋区 赤塚四丁目　 赤塚五丁目","[縄文時代（早期〜晩期）][弥生時代（後期）][古墳時代][中世]","包蔵地・城館","[古墳時代]木道　[中世]堀　曲輪","縄文土器　石器　加工木材土師器",139.6433122,35.78259462,FALSE,TRUE,TRUE,TRUE,FALSE,FALSE,TRUE,FALSE,FALSE,"red"
13119005200,13119,"52","とくまるいしかわ／とくまるみつわいせき","徳丸石川／徳丸三ツ和遺跡","板橋区 徳丸五丁目","[縄文時代（早期〜晩期）][弥生時代（後期）][古墳時代][中世][近世]","包蔵地・集落・城館","[縄文時代]土坑　[弥生時代]住居　円形周溝墓　特殊遺構　[古墳時代]住居　[中世]堀","角錐状石器　縄文土器　石器　耳飾　弥生土器　土師器　陶磁器",139.6565108,35.77864163,FALSE,TRUE,TRUE,TRUE,FALSE,FALSE,TRUE,TRUE,FALSE,"red"
13119010100,13119,"101","しむらしろやまいせき・しむらじょうし","志村城山遺跡・志村城址","板橋区 志村二丁目","[旧石器時代][縄文時代（早期〜後期）][弥生時代（中期〜後期）][古墳時代][奈良時代][平安時代][中世][近世]","包蔵地・集落・城館","[弥生時代]環濠　[古墳時代]方形周溝墓　[奈良時代][平安時代]住居　掘立柱建物　柵列　[中世]土壙　溝　堀","縄文土器　打斧　磨斧　石鏃　掻器　磨石　弥生土器　土師器　須恵器　支脚　羽口　鉄針　陶磁器",139.6877743,35.7758087,TRUE,TRUE,TRUE,TRUE,TRUE,TRUE,TRUE,TRUE,FALSE,"red"
13120004500,13120,"45","しろやまいせき・あたごやまるい","城山遺跡・愛宕山塁","練馬区 上石神井三丁目","[旧石器時代][縄文時代（早期〜晩期）][弥生時代][中世]","集落・城館","[旧石器時代]礫群　[縄文時代]住居　石器集中部　礫群　炉穴　集石土坑　濠状遺構　住居址　[中世]堀","石器　縄文土器　弥生土器　ナイフ形石器　尖頭器　細石刃　細石刃核　石鏃　扶入磨石　鉄製品",139.5927615,35.732401,TRUE,TRUE,TRUE,FALSE,FALSE,FALSE,TRUE,FALSE,FALSE,"red"
13120005000,13120,"50","しゃくじいだいいせき・しゃくじいじょうあと","石神井台遺跡・石神井城跡","練馬区 石神井台一丁目","[旧石器時代][縄文時代（早期〜後期）][古墳時代][奈良時代][平安時代][中世]","集落・城館","[旧石器時代]礫群　[中世]ピット　地下式土坑　溝状遺構　[時代不明]住居　柱穴群　溝状遺構","石器　縄文土器　弥生土器　土師器　須恵器　陶磁器　木製品　素焼土器　瓦器　鉄器　石臼",139.5958224,35.73608288,TRUE,TRUE,FALSE,TRUE,TRUE,TRUE,TRUE,FALSE,FALSE,"red"
13120013000,13120,"130","ねりまじょうあと","練馬城跡","練馬区 向山三丁目","[旧石器時代][縄文時代（早期〜中期）][弥生時代][古墳時代][奈良時代][平安時代][中世]","集落・城館","[旧石器時代]石器ブロック　[縄文時代]炉穴　集石　土坑　[古墳時代]住居[中世]堀切り","縄文土器　石器　土師器　須恵器",139.6458275,35.74255871,TRUE,TRUE,TRUE,TRUE,TRUE,TRUE,TRUE,FALSE,FALSE,"red"
13121002500,13121,"25","なかそねじょうし","中曽根城址","足立区 本木二丁目","[中世]","城館","","",139.7855706,35.76612391,FALSE,FALSE,FALSE,FALSE,FALSE,FALSE,TRUE,FALSE,FALSE,"red"
13122000800,13122,"8","ごてんやま・かさいじょうし","御殿山・葛西城址","葛飾区 青戸六丁目　 青戸七丁目　 青戸八丁目","[弥生時代][奈良時代][平安時代][中世][近世]","集落・城館","[古墳時代]住居　ピット　土坑　溝　[中世]掘立柱建物　土坑　ピット　井戸　溝　堀　[近世]水田","弥生土器　土師器　須恵器　土錘　砥石　陶磁器　カワラケ　瓦器　茶臼　瓦　板碑　鉄製品　鉄塊　漆椀　下駄　くし　銭貨　炭化物",139.855644,35.75541297,FALSE,FALSE,TRUE,FALSE,TRUE,TRUE,TRUE,TRUE,FALSE,"red"
13122001400,13122,"14","でんかさいきよしげやかたあと","伝葛西清重館址","葛飾区 四ツ木一丁目","[中世]","城館","","",139.8341544,35.73452287,FALSE,FALSE,FALSE,FALSE,FALSE,FALSE,TRUE,FALSE,FALSE,"red"
13123001200,13123,"12","ながしまやしきあと","長島屋敷跡","江戸川区 東葛西三丁目","[中世]","城館","","",139.8821059,35.66823881,FALSE,FALSE,FALSE,FALSE,FALSE,FALSE,TRUE,FALSE,FALSE,"red"
13201004200,13201,"42","はちおうじじょうあと","八王子城跡","八王子市 元八王子町三丁目　 下恩方町","[縄文時代（中期）][中世][近世]","城館","[中世]掘立柱建物　土間状遺構　腰曲輪　[近世]建物　方形竪穴　土坑　庭園　井戸　溝　石段　踊場　堀　造成面　土塁　石垣","縄文土器　石皿　陶磁器（国産・舶載）　カワラケ　鉄砲玉　釘　鉄片　鏡　砥石　石臼　羽口　坩堝　刀装具　レースガラス　毛抜き　鋲　銭貨　土弾　鉄滓　漆椀　木炭",139.253375,35.65333468,FALSE,TRUE,FALSE,FALSE,FALSE,FALSE,TRUE,TRUE,FALSE,"red"
13201005300,13201,"53","たかつきじょうあと・はちおうじしNo.54いせき","高月城跡・八王子市No.54遺跡","八王子市 高月町","[縄文時代（前期〜後期）][中世]","包蔵地・城館","[中世]空堀　土塁　曲輪","縄文土器　陶器　鉄砲鉛弾　釘",139.3189058,35.7127551,FALSE,TRUE,FALSE,FALSE,FALSE,FALSE,TRUE,FALSE,FALSE,"red"
13201005500,13201,"55","たきやまじょうあと","滝山城跡","八王子市 高月町　 加住町一丁目　 丹木町一丁目　 丹木町二丁目　 丹木町三丁目","[中世]","城館","[中世]本丸　千畳敷　二の丸　三の丸　掘立柱建物　土間状遺構　敷石遺構　堀　曲輪　整地面","陶磁器　カワラケ　鉄砲玉　釘　羽口　土玉　鉄滓",139.3300638,35.69914337,FALSE,FALSE,FALSE,FALSE,FALSE,FALSE,TRUE,FALSE,FALSE,"red"
13201009600,13201,"96","たんぎさかいいせき","丹木境遺跡","八王子市 丹木町二丁目","[旧石器時代][縄文時代（早期〜後期）][古墳時代][平安時代][中世][近世]","集落・城館","[縄文時代]竪穴状遺構　炉穴　陥穴　集石　土坑　[中世]腰曲和錠遺構　掘状遺構　館址状遺構　溝","縄文土器",139.323392,35.69210337,TRUE,TRUE,FALSE,TRUE,FALSE,TRUE,TRUE,TRUE,FALSE,"red"
13201013700,13201,"137","はつさわじょう（くぬぎだじょう・こうじょうじょう）あと","初沢城（椚田城・高乗城）跡","八王子市 初沢町","[中世]","城館","[中世]本丸　堀切　曲輪　櫓台　土塁","",139.2795516,35.63572276,FALSE,FALSE,FALSE,FALSE,FALSE,FALSE,TRUE,FALSE,FALSE,"red"
13201016500,13201,"165","かたくらじょうあと","片倉城跡","八王子市 片倉町","[中世]","城館","[中世]堀切曲輪　櫓台　土塁","",139.3369739,35.63915663,FALSE,FALSE,FALSE,FALSE,FALSE,FALSE,TRUE,FALSE,FALSE,"red"
13201036600,13201,"366","たまにゅーたうんNo.125・126（まつきやしきあと）いせき","多摩ニュータウンNo.125・126（松木屋敷跡）遺跡","八王子市 松木","[旧石器時代][縄文時代（草創期・前期〜晩期）][古墳時代][奈良時代][平安時代][中世][近世]","集落・城館・その他の墓","[旧石器時代]]遺物集中地点　礫群　[縄文時代]住居　集石土坑　[古墳時代]住居　井戸　[奈良時代][平安時代]住居　建物　焼土　土坑　溝　[中世][近世]建物　竪穴状遺構　ピット群　土坑　地下式土坑　地下室　墓壙　溝","ナイフ形石器　尖頭器　掻器　彫器　磨石　石核　打面再生剥片　剥片　縄文土器　打斧　礫器　尖頭器　有舌尖頭器　石鏃　掻器　石皿　磨石　凹石　石核　円板　けつ状耳飾　陶磁器　土師質土器　瓦質土器　舶載陶磁器　石製品　板碑　宝篋印塔　宝篋印塔",139.3935576,35.62377666,TRUE,TRUE,FALSE,TRUE,TRUE,TRUE,TRUE,TRUE,FALSE,"red"
13201038200,13201,"382","たまにゅーたうんNo.287・290・405いせき","多摩ニュータウンNo.287・290・405遺跡","八王子市 松木","［旧石器時代］[縄文時代（草創期〜後期）][弥生時代（中期）][奈良時代][平安時代][中世][近世]","集落・城館","［旧石器時代］遺物集中地点　礫群　［縄文時代］集石　集石土坑　陥し穴　土坑　[奈良時代]?[平安時代]住居　土坑　[中世]?[近世]建物　竪穴状遺構　ピット　土坑　土蔵状遺構　焼土　池　井戸　炭窯　段切状遺構　基壇状遺構　溝　道路　墓壙　集石墓　石組　配石","ナイフ形石器　尖頭器　削器　彫器　剥片　炭化物　縄文土器　打斧　磨斧　礫器　石鏃　石匙　石皿　磨石　敲石　台石　骨角器　弥生土器　土師器　須恵器　鉄製品　紡錘車　土鈴　飾金具　瓦　陶磁器　カワラケ　舶載陶磁器　陶鈴　石製品　土錘　漆器桶　木製品　碁石　銭貨　煙管　板碑　宝篋印塔　宝塔　写経石　人歯",139.3892553,35.62578506,TRUE,TRUE,TRUE,FALSE,TRUE,TRUE,TRUE,TRUE,FALSE,"red"
13201038900,13201,"389","たまにゅーたうんNo.107いせき","多摩ニュータウンNo.107遺跡","八王子市 松木","[旧石器時代][縄文時代（早期〜後期）][古墳時代][奈良時代][平安時代][中世][近世]","集落・城館","[縄文時代]住居　集石　土坑　[古墳時代]土坑　溝　[平安時代]?[中世]住居　ピット　土坑　溝　[中世]建物　墓　段切状遺構　[近世]土坑　集石　水路（水車）　炭窯　溝　濠状遺構（道）","縄文土器　打斧　礫器　石鏃　石皿　磨石　スタンプ形石器　敲石　土錘　耳飾　垂飾　土偶　土師器　須恵器　鉄製品　炭化種子　陶磁器　土師質土器　舶載陶磁器　火鉢　金属製品　砥石　瓦　板碑　石臼　杭板",139.3882042,35.62683922,TRUE,TRUE,FALSE,TRUE,TRUE,TRUE,TRUE,TRUE,FALSE,"red"
13201042500,13201,"425","たまにゅーたうんNo.391いせき","多摩ニュータウンNo.391遺跡","八王子市 別所","[縄文時代（前期〜中期）][弥生時代（中期）][奈良時代][平安時代][中世][近世]","城館","[奈良時代][平安時代]製鉄関連遺構　[平安時代]溝　[近世]建物　土坑　炭窯","縄文土器　打斧　磨斧　磨石　弥生土器　土師器　須恵器　陶磁器　土師質土器　瓦質土器　鉄製品　石製品　銅製品　銭貨",139.3969421,35.62165023,FALSE,TRUE,TRUE,FALSE,TRUE,TRUE,TRUE,TRUE,FALSE,"red"
13201046500,13201,"465","ちからいしじょうあと","力石城跡","八王子市 上恩方町","[中世]","城館","[中世]石畳　土塁","",139.2194089,35.671717,FALSE,FALSE,FALSE,FALSE,FALSE,FALSE,TRUE,FALSE,FALSE,"red"
13201048500,13201,"485","かじわらやかた","梶原館","八王子市 元八王子町三丁目","[中世]","城館","","",139.2768262,35.6567738,FALSE,FALSE,FALSE,FALSE,FALSE,FALSE,TRUE,FALSE,FALSE,"red"
13201048600,13201,"486","おだのじょうあと","小田野城跡","八王子市 西寺方町　 下恩方町","[中世]","城館","[中世]土橋　堀　腰曲輪　桝形状遺構","陶磁器　舶載磁器",139.263156,35.66913783,FALSE,FALSE,FALSE,FALSE,FALSE,FALSE,TRUE,FALSE,FALSE,"red"
13201048700,13201,"487","じょうふくじじょうあと","浄福寺城跡","八王子市 下恩方町","[中世]","城館","[中世]空堀　曲輪　土塁","",139.2478793,35.67029754,FALSE,FALSE,FALSE,FALSE,FALSE,FALSE,TRUE,FALSE,FALSE,"red"
13201048900,13201,"489","ととりるい（ととりとりで）","十々里塁(廿里砦）","八王子市 廿里町","[弥生時代（中期）][中世][近世]","包蔵地・城館","[中世]空堀","弥生土器　陶磁器",139.2772514,35.64565566,FALSE,FALSE,TRUE,FALSE,FALSE,FALSE,TRUE,TRUE,FALSE,"red"
13201049200,13201,"492","ゆいしやかた","由井氏館","八王子市 弍分方町","[中世]","城館","","",139.275471,35.68009388,FALSE,FALSE,FALSE,FALSE,FALSE,FALSE,TRUE,FALSE,FALSE,"red"
13201049400,13201,"494","とぶきじょうあと","戸吹城跡","八王子市 戸吹町","[中世]","城館","","",139.2819901,35.71336141,FALSE,FALSE,FALSE,FALSE,FALSE,FALSE,TRUE,FALSE,FALSE,"red"
13201049500,13201,"495","なかやまかげゆやかたあと","中山勘解由屋敷跡","八王子市 滝山町二丁目","[中世]","城館","","陶磁器",139.3391527,35.69188925,FALSE,FALSE,FALSE,FALSE,FALSE,FALSE,TRUE,FALSE,FALSE,"red"
13201049600,13201,"496","こうじょうじしろやまいせき","高乗寺城山遺跡","八王子市 初沢町　 高尾町","[中世]","城館","[中世]堀　曲輪","",139.2735092,35.63466244,FALSE,FALSE,FALSE,FALSE,FALSE,FALSE,TRUE,FALSE,FALSE,"red"
13201050000,13201,"500","ながぬまやかた","長沼館","八王子市 長沼町","[中世]","城館","[中世]堀　曲輪","",139.3662368,35.63877196,FALSE,FALSE,FALSE,FALSE,FALSE,FALSE,TRUE,FALSE,FALSE,"red"
13201050200,13201,"502","ゆぎしやかたあと","由木氏館跡","八王子市 下柚木","[中世]","城館","","",139.3820764,35.63195482,FALSE,FALSE,FALSE,FALSE,FALSE,FALSE,TRUE,FALSE,FALSE,"red"
13201050700,13201,"507","やえんとうげるい","野猿峠塁","八王子市 高嶺町","[中世]","城館","","",139.3625289,35.63338668,FALSE,FALSE,FALSE,FALSE,FALSE,FALSE,TRUE,FALSE,FALSE,"red"
13201052100,13201,"521","ひらやまじょうあと","平山城跡","八王子市 堀之内","[中世]","城館","[中世]腰曲輪　虎口　土塁","",139.3817438,35.64092476,FALSE,FALSE,FALSE,FALSE,FALSE,FALSE,TRUE,FALSE,FALSE,"red"
13201070805,13201,"08-5","おちこしいせきぐんおちこしえふちく","落越遺跡群落越F地区","八王子市 城山手一丁目","[平安時代][中世][近世]","集落・城館","[平安時代]住居　[中世]居館　[近世]炭焼窯","土師器　陶器　土師質土器　渡来銭",139.2863271,35.65597989,FALSE,FALSE,FALSE,FALSE,FALSE,TRUE,TRUE,TRUE,FALSE,"red"
13201085000,13201,"850","たまにゅーたうんNo.692いせき","多摩ニュータウンNo.692遺跡","八王子市 別所","[縄文時代（早期〜後期）][弥生時代][古墳時代][奈良時代][平安時代][中世][近世]","集落・城館・墓地","[古墳時代]住居　[平安時代]住居　[平安時代][中世]建物　集石　井戸　土坑　地下式土坑　鍛冶工房　墓壙　段切状遺構　溝　柵列　[近世]建物　土坑　室　井戸　山砂採掘坑　炭窯　溝","縄文土器　石器　弥生土器　土師器　須恵器　陶磁器　舶載陶磁器　釘　刀子　火打ち金具　包丁　鋏　鉄製品　鞴羽口　銅製品　和鏡　銭貨　鉄滓　土師質土器　硯　砥石　石臼　石鍋　瓦　木製品　人骨　馬歯骨",139.3946735,35.61740721,FALSE,TRUE,TRUE,TRUE,TRUE,TRUE,TRUE,TRUE,FALSE,"red"
13201102400,13201,"1024","こんぴらさんいせき","金比羅山遺跡","八王子市 高尾町　 初沢町","[中世][近世]","城館","[時代不明]竪堀?　曲輪?","",139.277078,35.64015076,FALSE,FALSE,FALSE,FALSE,FALSE,FALSE,TRUE,TRUE,FALSE,"red"
13202001700,13202,"17","たちかわしやかたあと","立川氏館跡","立川市 柴崎町四丁目","[中世][近世]","包蔵地・城館","[中世][近世]土塁 堀 礎石建物 掘立柱建物 地下式横穴 井戸 溝 土坑","陶磁器 板碑 古銭 経石 瓦",139.4023111,35.69080339,FALSE,FALSE,FALSE,FALSE,FALSE,FALSE,TRUE,TRUE,FALSE,"red"
13205003500,13205,"35","からかいじょうあと","辛垣城跡","青梅市 二俣尾辛垣山","[中世]","城館","[中世]石垣　空堀　土塁","陶磁器（古瀬戸・青磁）　鉄砲弾",139.2205749,35.81180022,FALSE,FALSE,FALSE,FALSE,FALSE,FALSE,TRUE,FALSE,FALSE,"red"
13205003600,13205,"36","こやしき","古屋敷","青梅市 二俣尾四丁目","[中世]","城館","","",139.215631,35.80559132,FALSE,FALSE,FALSE,FALSE,FALSE,FALSE,TRUE,FALSE,FALSE,"red"
13205003900,13205,"39","ますがたやまじょうあと","枡形山城跡","青梅市 二俣尾","[中世]","城館","","",139.2233215,35.80600897,FALSE,FALSE,FALSE,FALSE,FALSE,FALSE,TRUE,FALSE,FALSE,"red"
13205005600,13205,"56","すぎだいらさくあと","杉平柵跡","青梅市 梅郷一丁目","[中世]","城館・柵跡","","",139.2209182,35.78317398,FALSE,FALSE,FALSE,FALSE,FALSE,FALSE,TRUE,FALSE,FALSE,"red"
13205006500,13205,"65","たてのさくあと","楯の柵跡","青梅市 日向和田一丁目","[中世]","城館","[中世]空堀　土橋","",139.2433372,35.78899474,FALSE,FALSE,FALSE,FALSE,FALSE,FALSE,TRUE,FALSE,FALSE,"red"
13205006700,13205,"67","ものみやぐらあと","物見櫓跡","青梅市 裏宿町","[中世]","城館","※遺跡範囲のすべてが青梅市指定史跡物見櫓（矢倉台）となっています。","",139.2356468,35.79253156,FALSE,FALSE,FALSE,FALSE,FALSE,FALSE,TRUE,FALSE,FALSE,"red"
13205009300,13205,"93","みたやかたあと","三田館跡","青梅市 長淵一丁目","[中世]","城館","","",139.2801721,35.77606903,FALSE,FALSE,FALSE,FALSE,FALSE,FALSE,TRUE,FALSE,FALSE,"red"
13205010100,13205,"101","かつぬまじょうあと","勝沼城跡","青梅市 東青梅六丁目","[中世]","城館","","",139.2736147,35.79592648,FALSE,FALSE,FALSE,FALSE,FALSE,FALSE,TRUE,FALSE,FALSE,"red"
13205013800,13205,"138","ふじはしじょうあと","藤橋城跡","青梅市 藤橋二丁目","[中世]","城館","※遺跡範囲のすべてが青梅市指定史跡藤橋城跡となっています。","",139.3002222,35.80397388,FALSE,FALSE,FALSE,FALSE,FALSE,FALSE,TRUE,FALSE,FALSE,"red"
13205014400,13205,"144","しろのこし（けー-39）いせき","城の腰(K-39)遺跡","青梅市 今井","[旧石器時代][縄文時代（早期〜後期）][奈良時代][平安時代][中世]","集落・城館","[旧石器時代]ユニット　礫群　[縄文時代]土坑　[中世]堅穴状遺構　地下式土坑","ナイフ形石器　石核　剥片　縄文土器　石斧　石鏃　土師器　須恵器　陶器　板碑",139.3126848,35.81029428,TRUE,TRUE,FALSE,FALSE,TRUE,TRUE,TRUE,FALSE,FALSE,"red"
13205014600,13205,"146","いまいじょうあと","今井城跡","青梅市 今井一丁目","[中世]","城館","※遺跡範囲のすべてが青梅市指定史跡今井城跡となっています。","陶磁器(青磁・古瀬戸)　香炉　カワラケ　鉄器　刀子　蔵骨器　板碑　宝篋印塔　六器　銭貨",139.3144701,35.81029428,FALSE,FALSE,FALSE,FALSE,FALSE,FALSE,TRUE,FALSE,FALSE,"red"
13205014900,13205,"149","いまいほりのうちいせき","今井堀ノ内遺跡","青梅市 今井二丁目","[中世]","城館","","",139.3121698,35.80650767,FALSE,FALSE,FALSE,FALSE,FALSE,FALSE,TRUE,FALSE,FALSE,"red"
13207005100,13207,"51","ちょうじゃやしき","長者屋敷","昭島市 松原町四丁目 松原町五丁目","[中世]","城館","","陶器 板碑 銭貨",139.3427838,35.72112314,FALSE,FALSE,FALSE,FALSE,FALSE,FALSE,TRUE,FALSE,FALSE,"red"
13208002300,13208,"23","じんだいじしろやまいせき","深大寺城山遺跡","調布市 深大寺元町二丁目","[縄文時代（早期〜中期）][弥生時代][古墳時代][奈良時代][平安時代][中世]","包蔵地・集落・城館","[縄文時代]炉穴　陥し穴　[弥生時代]〜[平安時代]住居　[中世]掘立柱建物　地下式坑　堀　土塁","縄文土器　石器　弥生土器　土師器　須恵器　鉄製品　カワラケ　銭貨　陶磁器　舶載陶磁器　鉄製品　銭貨",139.5504021,35.66519745,FALSE,TRUE,TRUE,TRUE,TRUE,TRUE,TRUE,FALSE,FALSE,"red"
13208002901,13208,"29-1","ませぐちいせき","ませぐち遺跡","調布市 佐須町二丁目","[縄文時代（草創期〜早期・中期〜後期）][奈良時代][中世]","集落・城館・その他","[縄文時代]炉穴 [奈良時代][平安時代]住居 掘立柱建物 [近世]溝","縄文土器 石槍 土製品 土師器 須恵器 鉄製品 陶磁器 瓦",139.553741,35.66039332,FALSE,TRUE,FALSE,FALSE,TRUE,FALSE,TRUE,FALSE,FALSE,"red"
13208004000,13208,"40","しもいしはらいせき","下石原遺跡","調布市 下石原三丁目","[縄文時代（早期・中期〜後期）][古墳時代][奈良時代][平安時代][中世][近世]","城館","[縄文時代]住居 敷石住居 集石 炉穴 陥し穴 土壙墓 配石 [古墳時代]方形周溝墓 溝 [奈良時代][平安時代]住居 掘立柱建物 ピット 溝 井戸 火葬墓 [中世][近世]掘立柱建物 井戸 地下式土坑 溝 [近世]土坑","縄文土器 打斧 土師器 須恵器 墨書土器 陶器 支脚 砥石 台石 刀子 鉄鏃 鉄製紡錘車 土錘 銅製品 馬具 銭貨 石臼 板碑 蔵骨器 人骨 獣骨",139.53389,35.65073,FALSE,TRUE,FALSE,TRUE,TRUE,TRUE,TRUE,TRUE,FALSE,"red"
13208006000,13208,"60","こまえにゅうどうやかたあと","狛江入道館跡","調布市 佐須町五丁目","[中世]","城館","","",139.5595709,35.66211018,FALSE,FALSE,FALSE,FALSE,FALSE,FALSE,TRUE,FALSE,FALSE,"red"
13209021500,13209,"215","","町田市No.215遺跡","町田市 山崎町　 図師町　 忠生二丁目","[縄文時代（早期・中期〜後期）][弥生時代（後期）][古墳時代][奈良時代][平安時代][中世]","包蔵地・城館","","縄文土器　弥生土器　土師器　須恵器",139.4283485,35.57963268,FALSE,TRUE,TRUE,TRUE,TRUE,TRUE,TRUE,FALSE,FALSE,"red"
13209045400,13209,"454","さわやまじょうあと","沢山城跡","町田市 三輪町　 三輪緑山四丁目","[中世]","城館","[中世]井戸　空堀　腰曲輪　土塁","陶器　焼米",139.491262,35.57869462,FALSE,FALSE,FALSE,FALSE,FALSE,FALSE,TRUE,FALSE,FALSE,"red"
13209055300,13209,"553","すがわらじんじゃけいだい・いでのさわるいいせき","菅原神社境内・井出ノ沢塁遺跡","町田市 本町田　 旭町三丁目","[平安時代][中世]","包蔵地・城館","","土師器　須恵器",139.4477415,35.55936116,FALSE,FALSE,FALSE,FALSE,FALSE,TRUE,TRUE,FALSE,FALSE,"red"
13209072200,13209,"722","なるせじょうあと","成瀬城跡","町田市 南成瀬三丁目　 成瀬七丁目","[縄文時代（早期・中期）][奈良時代][平安時代][中世]","集落･城館","[縄文時代]住居　炉跡　[中世]配石　建物跡？　柱穴　道路状遺構　空堀　土坑　地下式坑","縄文土器　石器　陶器　かわらけ　鉄製品　古銭",139.4724188,35.5409274,FALSE,TRUE,FALSE,FALSE,TRUE,TRUE,TRUE,FALSE,FALSE,"red"
13209072300,13209,"723","おのじじょうあと","小野路城跡","町田市 小野路町　 下小山田町　 図師町","[中世]","城館","","",139.4276181,35.59687863,FALSE,FALSE,FALSE,FALSE,FALSE,FALSE,TRUE,FALSE,FALSE,"red"
13209072400,13209,"724","おやまだじょうあと","小山田城跡","町田市 下小山田町","[中世]","城館","","",139.4117222,35.59992149,FALSE,FALSE,FALSE,FALSE,FALSE,FALSE,TRUE,FALSE,FALSE,"red"
13209072600,13209,"726","とののじょうあと","殿ノ城跡","町田市 本町田","[中世]","城館","","",139.4479132,35.56142793,FALSE,FALSE,FALSE,FALSE,FALSE,FALSE,TRUE,FALSE,FALSE,"red"
13209072900,13209,"729","あいはらしやかたあと（とのまる）","相原氏館跡(殿丸）","町田市 相原町","[中世]","城館","","",139.339801,35.61967521,FALSE,FALSE,FALSE,FALSE,FALSE,FALSE,TRUE,FALSE,FALSE,"red"
13209073600,13209,"736","おやまだいせきぐんNo.1いせき","小山田遺跡群No.1遺跡","町田市 小山田桜台二丁目　 上小山田町","[中世]","城館","[中世]掘立柱建物　大形竪穴状遺構　地下式横穴","土師質土器　陶器　天目茶碗　古銭",139.4004942,35.59286198,FALSE,FALSE,FALSE,FALSE,FALSE,FALSE,TRUE,FALSE,FALSE,"red"
13209089500,13209,"895","たまにゅーたうんNo.930いせき","多摩ニュータウンNo.930遺跡","町田市 小山ヶ丘二丁目","[縄文時代（前期〜中期）][弥生時代][奈良時代][平安時代][中世][近世]","包蔵地・城館","[弥生時代]埋甕　[奈良時代][平安時代]溝　[中世]堀　郭　[近世]炭窯","縄文土器　石器　弥生土器　陶磁器",139.3728678,35.60281031,FALSE,TRUE,TRUE,FALSE,TRUE,TRUE,TRUE,TRUE,FALSE,"red"
13212001500,13212,"15","たむらしやかたあと","田村氏館跡","日野市 下田","[中世]","城館","","",139.4150309,35.67084244,FALSE,FALSE,FALSE,FALSE,FALSE,FALSE,TRUE,FALSE,FALSE,"red"
13212002600,13212,"26","ひらやましやかた","平山氏館","日野市 平山五丁目","[平安時代][中世]","城館","※遺跡範囲のすべてが日野市指定史跡平山季重居館跡となっています。","鏡 刀",139.3805876,35.64720477,FALSE,FALSE,FALSE,FALSE,FALSE,TRUE,TRUE,FALSE,FALSE,"red"
13212002700,13212,"27","ひらやまたておよびひらやまじょうあと","平山館及平山城跡","日野市 平山六丁目","[平安時代][中世]","城館","[中世]腰曲輪 虎口","",139.3827162,35.64463801,FALSE,FALSE,FALSE,FALSE,FALSE,TRUE,TRUE,FALSE,FALSE,"red"
13212003300,13212,"33","たかはたじょうあと","高幡城址","日野市 高幡","[中世]","城館","[中世]堀切り 腰曲輪 土塁","",139.4101513,35.66011184,FALSE,FALSE,FALSE,FALSE,FALSE,FALSE,TRUE,FALSE,FALSE,"red"
13215001700,13215,"17","（でん．つのとのさぶろうやかたあと）みたじょうあと","（伝．津戸三郎館跡）三田城跡","国立市 谷保","[中世]","城館","[中世]井戸 空堀 曲輪 土塁","陶器",139.4378103,35.6791132,FALSE,FALSE,FALSE,FALSE,FALSE,FALSE,TRUE,FALSE,FALSE,"red"
13221004700,13221,"47","","清瀬市No.47遺跡","清瀬市 中里四丁目","[中世]","城館？","[中世]方形土塁","鎧　太刀金具　弓",139.5160119,35.78551202,FALSE,FALSE,FALSE,FALSE,FALSE,FALSE,TRUE,FALSE,FALSE,"red"
13221006200,13221,"62","したじゅくこわしみずいせき","下宿強清水遺跡","清瀬市 旭ヶ丘六丁目　 下宿三丁目","[旧石器時代][縄文時代（早期〜中期・晩期）][中世]","集落・城館？","[旧石器時代]礫群　[縄文時代]住居　炉穴　土坑　[中世]溝","ナイフ形石器　尖頭器　石刃　掻器　彫器　錐　石核　縄文土器　石鏃　石皿",139.5468006,35.80226953,TRUE,TRUE,FALSE,FALSE,FALSE,FALSE,TRUE,FALSE,FALSE,"red"
13224002700,13224,"27","むかいのおかいせき","向ノ岡遺跡","多摩市 連光寺一丁目","[縄文時代（早期〜後期）][奈良時代][平安時代][中世][近世]","集落・城館","[縄文時代]住居　敷石住居　集石　炉穴　石囲炉　陥し穴　土坑　[奈良時代]住居　溝　[平安時代]屋外炉","縄文土器　石器　土錘　土製円板　耳栓　土偶　土師器　須恵器　鉄製品　陶磁器",139.4595044,35.64554104,FALSE,TRUE,FALSE,FALSE,TRUE,TRUE,TRUE,TRUE,FALSE,"red"
13224018200,13224,"182","せきどじょう（てんしゅだい）あと","関戸城（天守台）跡","多摩市 桜ケ丘一丁目","[中世]","城館跡","[中世]堀切　土塁","",139.4466533,35.64493602,FALSE,FALSE,FALSE,FALSE,FALSE,FALSE,TRUE,FALSE,FALSE,"red"
13224018400,13224,"184","てらかたおおやしき","寺方大屋敷","多摩市 東寺方六号","[中世]","城館跡","","",139.4410571,35.64203438,FALSE,FALSE,FALSE,FALSE,FALSE,FALSE,TRUE,FALSE,FALSE,"red"
13225008500,13225,"85","たまにゅーたうんNo.513いせき（おおまるじょうあと）","多摩ニュータウンNo.513遺跡（大丸城跡）","稲城市 大丸","[奈良時代][中世]","窯跡・城館","[縄文時代]集石 土坑 土坑 [古墳時代]横穴墓2基 [奈良時代]住居 窯 [中世]城郭関連遺構（物見主郭・方形区画・空濠・溝・建物・門?） 炭窯 集石土 坑 土坑 地下式土坑 墓 板碑群 [近世]柱穴群 溝","縄文土器 石器 土師器 須恵器 軒平瓦（三重弧文） 軒丸瓦（単弁系八弁蓮華文・剣菱形蓮華文） 平瓦 丸瓦 ? 鉄斧 土鈴 ミニチュア土器 陶磁器 舶載青磁 刀子 石臼 金属製品 板碑 五輪塔 宝篋印塔 経筒 経紙 銭貨 環状鉄製品",139.489863,35.6471692,FALSE,FALSE,FALSE,FALSE,TRUE,FALSE,TRUE,FALSE,FALSE,"red"
13225008800,13225,"88","おざわじょうあと","小沢城跡","稲城市 矢野口","[中世]","城館","","",139.5227301,35.63218596,FALSE,FALSE,FALSE,FALSE,FALSE,FALSE,TRUE,FALSE,FALSE,"red"
13225009000,13225,"90","","稲城市No.90遺跡","稲城市 矢野口","[中世]","城館","","",139.5142157,35.63254871,FALSE,FALSE,FALSE,FALSE,FALSE,FALSE,TRUE,FALSE,FALSE,"red"
13225009100,13225,"91","ながぬまじょうあと","長沼城跡","稲城市 東長沼","[中世]","城館","","",139.5000021,35.63709697,FALSE,FALSE,FALSE,FALSE,FALSE,FALSE,TRUE,FALSE,FALSE,"red"
13228000600,13228,"6","とくらじょうあと","戸倉城跡","あきる野市 戸倉","[中世]","城館","[中世]井戸　空堀　東西曲輪　土塁　枡形","",139.1972621,35.72591656,FALSE,FALSE,FALSE,FALSE,FALSE,FALSE,TRUE,FALSE,FALSE,"red"
13228002500,13228,"25","だいひがんじいせき","大悲願寺遺跡","あきる野市 横沢","[中世]","城館・社寺","[中世]段切状遺構","土師質土器　磁器（青磁）",139.2415078,35.73250096,FALSE,FALSE,FALSE,FALSE,FALSE,FALSE,TRUE,FALSE,FALSE,"red"
13228002800,13228,"28","あじろじょうあと","網代城跡","あきる野市 網代","[中世]","城館","","",139.2427781,35.72046051,FALSE,FALSE,FALSE,FALSE,FALSE,FALSE,TRUE,FALSE,FALSE,"red"
13228003100,13228,"31","しょうがんじいせき","松岩寺遺跡","あきる野市 北伊奈","[弥生時代][中世]","城館","","須恵器",139.2521165,35.73534358,FALSE,FALSE,TRUE,FALSE,FALSE,FALSE,TRUE,FALSE,FALSE,"red"
13228009100,13228,"91","にのみや・にのみやもりこしいせき","二宮・二宮森腰遺跡","あきる野市 二宮　 平沢","[旧石器時代][縄文時代（草創期〜後期）][弥生時代][古墳時代][奈良時代][平安時代][中世][近世]","集落・経塚・社寺・城館","[縄文時代]住居跡　敷石住居　炉　土坑　柱穴群　埋甕　[平安時代]経塚　[中世]地下式土坑","細石刃核　縄文土器　打斧　磨斧　礫器　石鏃　石匙　石錐　石箆　石皿　磨石　スタンプ形石器　凹石　剥片石器　弥生土器　土師器　須恵器　鉄釘　鉄製品　鍔　柄頭鞘尻　瓦　陶磁器　金銅仏　銭貨",139.3128296,35.72886241,TRUE,TRUE,TRUE,TRUE,TRUE,TRUE,TRUE,TRUE,FALSE,"red"
13228009200,13228,"92","","あきる野市No.92遺跡","あきる野市 小川","[中世]","城館","[中世]堀","陶器　経石",139.3159538,35.71969246,FALSE,FALSE,FALSE,FALSE,FALSE,FALSE,TRUE,FALSE,FALSE,"red"
13228009400,13228,"94","ほうりんじやかたあと","法林寺館跡","あきる野市 小川","[中世]","城館","[中世]堀?　土塁","陶磁器",139.3203484,35.7194416,FALSE,FALSE,FALSE,FALSE,FALSE,FALSE,TRUE,FALSE,FALSE,"red"
13228009500,13228,"95","にのみやじょうあと・あきるのしNo.96いせき","二宮城跡・あきる野市No.96遺跡","あきる野市 二宮","[縄文時代（中期）][平安時代][中世]","集落・城館","[縄文時代]住居　土坑　[平安時代]住居　[中世]掘立柱建物　段状遺構柵列","縄文土器　打斧　石鏃　磨石　須恵器　陶磁器　茶臼?　板碑　銭貨",139.3215157,35.72144849,FALSE,TRUE,FALSE,FALSE,FALSE,TRUE,TRUE,FALSE,FALSE,"red"
13228009800,13228,"98","にじょうじょうし","二城城址","あきる野市 上代継","[中世]","城館","[中世]曲輪","",139.2786381,35.71512952,FALSE,FALSE,FALSE,FALSE,FALSE,FALSE,TRUE,FALSE,FALSE,"red"
13303002000,13303,"20","むらやまやかたあと","村山館跡","瑞穂町 殿ヶ谷","[中世]","城館","[中世]空堀 土塁","",139.3616055,35.7677568,FALSE,FALSE,FALSE,FALSE,FALSE,FALSE,TRUE,FALSE,FALSE,"red"
13305001300,13305,"13","さぢかみやしき（おやしき）あと","幸神屋敷(御屋敷）跡","日の出町 大久野","[中世]","城館","","",139.2252434,35.74301685,FALSE,FALSE,FALSE,FALSE,FALSE,FALSE,TRUE,FALSE,FALSE,"red"
13305001400,13305,"14","あらいやしきあと","新井屋敷跡","日の出町 大久野","[中世]","城館","[中世]土塁","",139.2293976,35.74454945,FALSE,FALSE,FALSE,FALSE,FALSE,FALSE,TRUE,FALSE,FALSE,"red"
13307001900,13307,"19","ひのはらじょう（ほんじゅくじょう）あと","檜原城（本宿城）跡","檜原村 本宿","[中世]","城館","[中]物見櫓　堀切　曲輪","",139.1449211,35.72574485,FALSE,FALSE,FALSE,FALSE,FALSE,FALSE,TRUE,FALSE,FALSE,"red"
