"JASID","LGC","Site_no","SiteName_furigana","SiteName_original","Address","Chronology","SiteType","ArchaeologicalFeatures","MajorArtefacts","Lon","Lat","P","J","Y","K","N","H","M","E","U","色"
13101000200,13101,"2","きゅうほんまるにしかいづか","旧本丸西貝塚","千代田区 千代田","[縄文時代（前期〜晩期）]","貝塚","","縄文土器　打斧　石鏃　有溝土錘　骨角器",139.7550845,35.6866013,FALSE,TRUE,FALSE,FALSE,FALSE,FALSE,FALSE,FALSE,FALSE,"blue"
13101000800,13101,"8","うしがふちかいづか","牛ヶ淵貝塚","千代田区 九段南一丁目","[縄文時代（中期）][弥生時代][古墳時代][奈良時代][平安時代]","貝塚","","縄文土器　弥生土器　土師器",139.7510672,35.69479204,FALSE,TRUE,TRUE,TRUE,TRUE,TRUE,FALSE,FALSE,FALSE,"blue"
13101000900,13101,"9","くだんざかうえかいづか","九段坂上貝塚","千代田区 九段北一丁目","[縄文時代（中期）][弥生時代][平安時代]","貝塚","[弥生時代]V字溝　住居","縄文土器　弥生土器　土師器　須恵器",139.7491794,35.69628581,FALSE,TRUE,TRUE,FALSE,FALSE,TRUE,FALSE,FALSE,FALSE,"blue"
13101001000,13101,"10","ながたちょうにちょうめいせき","永田町二丁目遺跡","千代田区 永田町二丁目","[縄文時代（後期）][弥生時代（中期）][近世]","包蔵地・集落・貝塚・屋敷","[弥生時代]住居跡　土坑　環壕　溝　[近世]土坑　井戸　溝　建物址","石器　弥生土器　陶磁器類　金属　木製品　瓦",139.7438231,35.67281761,FALSE,TRUE,TRUE,FALSE,FALSE,FALSE,FALSE,TRUE,FALSE,"blue"
13101001200,13101,"12","","千代田区No.12遺跡","千代田区 神田神保町一丁目","[縄文時代][近世]","貝塚　その他（上水道）","竹樋","縄文土器　陶磁器",139.7591696,35.69663226,FALSE,TRUE,FALSE,FALSE,FALSE,FALSE,FALSE,TRUE,FALSE,"blue"
13101005600,13101,"56","さんばんちょういせき","三番町遺跡","千代田区 三番町","[縄文時代（前期・後期）][弥生時代（後期）][近世][近代]","集落・貝塚・屋敷","[縄文時代]貝塚　ピット　住居址　[弥生時代]ピット　住居址　[近世]土坑　溝　地下室　井戸　建物跡","縄文土器　石器（縄文）　耳飾り　弥生土器　石器（弥生）　陶磁器　瓦（近世）　石製品　金属製品（近世）",139.7464141,35.69089728,FALSE,TRUE,TRUE,FALSE,FALSE,FALSE,FALSE,TRUE,FALSE,"blue"
13103000100,13103,"1","あおやまぼちないかいづか","青山墓地内貝塚","港区 南青山二丁目","[縄文時代（早期・中期〜後期）]","包蔵地・貝塚","","縄文土器　打斧　磨石",139.7195241,35.66801712,FALSE,TRUE,FALSE,FALSE,FALSE,FALSE,FALSE,FALSE,FALSE,"blue"
13103000200,13103,"2","","港区No.2遺跡","港区 南青山二丁目","[縄文時代][弥生時代]","包蔵地・貝塚","","縄文土器　石鏃　弥生土器",139.7220303,35.66494895,FALSE,TRUE,TRUE,FALSE,FALSE,FALSE,FALSE,FALSE,FALSE,"blue"
13103000300,13103,"3","","港区No.3遺跡","港区 南青山四丁目","[縄文時代]","貝塚","","",139.7170178,35.66430742,FALSE,TRUE,FALSE,FALSE,FALSE,FALSE,FALSE,FALSE,FALSE,"blue"
13103001800,13103,"18","にしくぼはちまんかいづか","西久保八幡貝塚","港区 虎ノ門五丁目","[縄文時代（後期）]","貝塚","","縄文土器　打斧　砥石　骨角器　獣・魚骨　陶磁器",139.7427521,35.66141948,FALSE,TRUE,FALSE,FALSE,FALSE,FALSE,FALSE,FALSE,FALSE,"blue"
13103002300,13103,"23","まるやまかいづか","丸山貝塚","港区 芝公園四丁目","[縄文時代（後期）]","貝塚","","縄文土器　磨斧　石匙　石錘",139.7485145,35.65458354,FALSE,TRUE,FALSE,FALSE,FALSE,FALSE,FALSE,FALSE,FALSE,"blue"
13103002900,13103,"29","こうようかんないかいづかいせき","紅葉館内貝塚遺跡","港区 芝公園四丁目","[縄文時代][弥生時代][古墳時代]","集落・貝塚","住居跡","縄文土器　磨斧　石鏃",139.7454246,35.65865633,FALSE,TRUE,TRUE,TRUE,FALSE,FALSE,FALSE,FALSE,FALSE,"blue"
13103003000,13103,"30","","港区No.30遺跡","港区 麻布台一丁目","[縄文時代（後期）]","貝塚","","縄文土器",139.7426917,35.65816862,FALSE,TRUE,FALSE,FALSE,FALSE,FALSE,FALSE,FALSE,FALSE,"blue"
13103004100,13103,"41","","港区No.41遺跡","港区 元麻布三丁目","[縄文時代]","貝塚","","石斧",139.7280751,35.65772341,FALSE,TRUE,FALSE,FALSE,FALSE,FALSE,FALSE,FALSE,FALSE,"blue"
13103004300,13103,"43","","港区No.43遺跡","港区 元麻布二丁目","[縄文時代（後期）]","包蔵地・貝塚","","縄文土器　打斧　石鏃",139.7270451,35.65443168,FALSE,TRUE,FALSE,FALSE,FALSE,FALSE,FALSE,FALSE,FALSE,"blue"
13103004600,13103,"46","","港区No.46遺跡","港区 元麻布一丁目","[縄文時代（中期）]","貝塚","","磨斧",139.7326756,35.65346924,FALSE,TRUE,FALSE,FALSE,FALSE,FALSE,FALSE,FALSE,FALSE,"blue"
13103005100,13103,"51","ほんむらちょうかいづかいせき","本村町貝塚","港区 南麻布三丁目","[縄文時代（前期）]","貝塚","","縄文土器　魚骨",139.7295685,35.64860108,FALSE,TRUE,FALSE,FALSE,FALSE,FALSE,FALSE,FALSE,FALSE,"blue"
13103006000,13103,"60","いさらごかいづかいせき","伊皿子貝塚遺跡","港区 三田四丁目","[縄文時代（後期）][弥生時代][古墳時代][平安時代][近世]","集落・貝塚・社寺","[縄文時代]住居　土坑　[弥生時代]方形周溝墓　[古墳時代]住居　[平安時代]住居 [近世]礎石　溝状遺構　石垣","縄文土器　弥生土器　土師器　土製品　石製品　貝製品　牛骨　魚骨　陶磁器",139.739954,35.64150056,FALSE,TRUE,TRUE,TRUE,FALSE,TRUE,FALSE,TRUE,FALSE,"blue"
13103007000,13103,"70","きゅうかいぐんぼちかいづか","旧海軍基地貝塚","港区 白金台一丁目","[縄文時代（中期）]","貝塚","","縄文土器　打斧",139.730617,35.63866054,FALSE,TRUE,FALSE,FALSE,FALSE,FALSE,FALSE,FALSE,FALSE,"blue"
13104002000,13104,"20","わかばいっちょうめいせき","若葉一丁目遺跡","新宿区 若葉一丁目","[縄文時代][近世]","貝塚・屋敷","[近世]地下室　大型土坑　土坑　小穴","磁器　陶器　せっ器　土器　瓦　土製品　金属製品　ガラス製品　石製品",139.7274147,35.68253764,FALSE,TRUE,FALSE,FALSE,FALSE,FALSE,FALSE,TRUE,FALSE,"blue"
13105000300,13105,"3","おおつかさんちょうめいせき","大塚三丁目遺跡","文京区 大塚三丁目","[縄文時代][古墳時代][中世][近世]","包蔵地・貝塚?・屋敷・その他（村）","[縄文時代]土坑　[中世]溝　[近世]地下室　井戸　土坑　柱穴列　礎石列など","（縄文）土器・石器　（古墳）土師器・須恵器　（中世）せっ器・土製品・板碑　（近世）陶磁器・せっ器・土器・土製品・瓦・金属製品・石製品など",139.7373743,35.7204176,FALSE,TRUE,FALSE,TRUE,FALSE,FALSE,TRUE,TRUE,FALSE,"blue"
13105000800,13105,"8","","文京区No.8遺跡","文京区 小日向四丁目","[縄文時代]","貝塚","","",139.7390566,35.71556745,FALSE,TRUE,FALSE,FALSE,FALSE,FALSE,FALSE,FALSE,FALSE,"blue"
13105001100,13105,"11","でんづういんうらかいづか","伝通院裏貝塚","文京区 小石川三丁目","[縄文時代][弥生時代][古墳時代][近世]","包蔵地・集落・貝塚?・社寺・屋敷","[弥生時代]?[古墳時代]堅穴住居跡　土坑　ピット　[近世]地下室　土坑　井戸　溝　焼土集中部　小穴","（縄文〜古代）土器　（古墳）土師器　（近世）陶磁器・せっ器・土器・土製品・瓦・木製品",139.7466784,35.71247324,FALSE,TRUE,TRUE,TRUE,FALSE,FALSE,FALSE,TRUE,FALSE,"blue"
13105001200,13105,"12","ひさかたちょういせき","久堅町遺跡","文京区 小石川四丁目","[縄文時代][近世]","貝塚・屋敷","[近世]土坑　地下式土坑　井戸","縄文土器　打斧　陶磁器　瓦　金属器",139.7437945,35.71328165,FALSE,TRUE,FALSE,FALSE,FALSE,FALSE,FALSE,TRUE,FALSE,"blue"
13105001400,13105,"14","どうざかいせき","動坂遺跡","文京区 本駒込三丁目　本駒込四丁目","[旧石器時代][縄文時代（中期〜晩期）][弥生時代][近世]","包蔵地・集落・貝塚・屋敷","[縄文時代]貝塚　堅穴住居跡　集石跡　土坑　溝　[近世]地下室　溝　柱穴","（縄文）土器・石器（打製石器・磨製石器・石鏃・石皿・）　（弥生）土器　（近世）陶磁器・土器・瓦・金属製品・土製品・石製品など",139.7560854,35.72972681,TRUE,TRUE,TRUE,FALSE,FALSE,FALSE,FALSE,TRUE,FALSE,"blue"
13105002100,13105,"21","こいしかわしょくぶつえんないかいづか・はらまちいせき","小石川植物園内貝塚・原町遺跡","文京区 白山三丁目　白山四丁目","[旧石器時代][縄文時代（中期〜晩期）][近世]","包蔵地・集落・貝塚・屋敷跡","[縄文時代]竪穴住居跡　土坑　集石　ピット　[近世]土坑　地下室　ピット　地下坑　井戸　溝　塀跡　かわらけ廃棄遺構","(旧石器)石器　(縄文)土器　石器（打斧　磨斧　石槍　石鏃　石匙　石皿　凹石　石棒　石剣）　土偶　(近世)陶磁器　土器　土製品　瓦　金属製品　石製品　銭貨　動物遺体　自然遺物",139.7455797,35.7204176,TRUE,TRUE,FALSE,FALSE,FALSE,FALSE,FALSE,TRUE,FALSE,"blue"
13105002200,13105,"22","はらまちいせき","原町遺跡","文京区 白山四丁目","[縄文時代][近世]","貝塚・屋敷","[近世]土坑　植栽痕　ピット","縄文式土器　（近世）陶磁器・せっ器・土器",139.7455454,35.72312128,FALSE,TRUE,FALSE,FALSE,FALSE,FALSE,FALSE,TRUE,FALSE,"blue"
13105002500,13105,"25","せんだぎかいづか","千駄木貝塚","文京区 千駄木一丁目","[旧石器時代][縄文時代][弥生時代（後期）][近世]","集落・貝塚・その他の墓・屋敷","[縄文時代]炉　土坑　住居　集石　炉　廃屋跡　[弥生時代]住居","（縄文）土器・石器・石製品・人骨　（弥生）土器　（近）陶磁器",139.758987,35.722748,TRUE,TRUE,TRUE,FALSE,FALSE,FALSE,FALSE,TRUE,FALSE,"blue"
13105002800,13105,"28","やよいちょういせきぐん","弥生町遺跡群","文京区 弥生二丁目　根津一丁目","[縄文時代][弥生時代][近世]","貝塚","","",139.7641535,35.71590195,FALSE,TRUE,TRUE,FALSE,FALSE,FALSE,FALSE,TRUE,FALSE,"blue"
13105002801,13105,"28-1","やよいちょうかいづか","弥生町貝塚","文京区 弥生二丁目","[縄文時代][弥生時代]","貝塚","","縄文土器　打斧　磨斧　石鏃　土製耳飾　石棒　弥生土器",139.7618189,35.7184943,FALSE,TRUE,TRUE,FALSE,FALSE,FALSE,FALSE,FALSE,FALSE,"blue"
13105002802,13105,"28-2","やよいちょうあさのていかいづか","弥生町浅野邸貝塚","文京区 根津一丁目","[縄文時代（後期〜晩期）]","貝塚","","縄文土器　石斧　石鏃　耳飾　独鈷石　土版",139.7631579,35.71749082,FALSE,TRUE,FALSE,FALSE,FALSE,FALSE,FALSE,FALSE,FALSE,"blue"
13105002803,13105,"28-3","やよいにちょうめいせき","弥生二丁目遺跡","文京区 弥生二丁目","[縄文時代（早期〜晩期）][弥生時代][近世]","貝塚","※一部、国指定史跡弥生二丁目遺跡となっています。 [弥生時代]溝","縄文土器　弥生土器　燈明皿　砥石　灼骨",139.7645655,35.7167382,FALSE,TRUE,TRUE,FALSE,FALSE,FALSE,FALSE,TRUE,FALSE,"blue"
13105003800,13105,"38","おちゃのみずかいづか","お茶の水貝塚","文京区 湯島一丁目","[縄文時代（前期〜晩期）]","貝塚","","縄文土器　石斧　磨石?　石棒?　人骨　獣骨",139.7646685,35.70143345,FALSE,TRUE,FALSE,FALSE,FALSE,FALSE,FALSE,FALSE,FALSE,"blue"
13105004000,13105,"40","ゆしま（きりどおしきた）かいづか","湯島（切通し北）貝塚","文京区 湯島四丁目","[縄文時代（前期〜晩期）]","貝塚","","",139.7675524,35.70932315,FALSE,TRUE,FALSE,FALSE,FALSE,FALSE,FALSE,FALSE,FALSE,"blue"
13105004700,13105,"47","ほんごうだいいせきぐん","本郷台遺跡群","文京区 本郷五丁目　本郷七丁目　弥生二丁目","[旧石器時代][縄文時代][弥生時代][古墳時代][平安時代][近世]","包蔵地・集落・貝塚・その他の墓・社寺・屋敷・その他（町屋）","[旧石器時代]石器ブロック　礫群　[縄文時代]遺物集中部　陥穴　[古墳時代]住居跡　[平安時代]住居跡　井戸　[近（近世）]地下式坑　建物跡　組石遺構　土坑　溝　庭園址　井戸　道路状遺構など","（旧石器）ナイフ形石器・石核・剥片・石屑　砕片　（縄文）土器・石器　（弥生）土器　（古墳）土師器・土製品・須恵器　（奈良）土師器・須恵器　（平安）土師器・須恵器・灰釉陶器・緑釉陶器・土錘　（近世）陶磁器・土器・瓦・土製品・石製品・金属製品・古銭・骨角製品・動物遺存体・せっ器・瓦器・ガラス製品・木製品",139.7634819,35.71205684,TRUE,TRUE,TRUE,TRUE,FALSE,TRUE,FALSE,TRUE,FALSE,"blue"
13106000100,13106,"1","りょうげんじかいづか","領玄寺貝塚","台東区 谷中四丁目","[縄文時代（中期〜後期）][近世]","包蔵地・貝塚","","縄文土器　石斧　石鏃　石錐　砥石　陶磁器",139.7664873,35.72277819,FALSE,TRUE,FALSE,FALSE,FALSE,FALSE,FALSE,TRUE,FALSE,"blue"
13106000200,13106,"2","てんのうじかいづか","天王寺貝塚","台東区 谷中七丁目","[縄文時代（後期）][古墳時代]","包蔵地・貝塚","","縄文土器　土師器",139.7723925,35.72591381,FALSE,TRUE,FALSE,TRUE,FALSE,FALSE,FALSE,FALSE,FALSE,"blue"
13106000405,13106,"04-5","うえのしのぶがおかいせきぐん","上野忍岡遺跡群","台東区 上野桜木一丁目","[旧石器時代][縄文時代][古墳時代][奈良時代][平安時代][中世][近世]","包蔵地・集落・貝塚・社寺","[旧石器時代]〜[中世]礫群　陥穴　ピット群　土杭　貝塚　[近世]地下式土杭　井戸　溝　瓦留　墓杭","縄文〜古代土器　近世陶磁器瓦・石造物　旧石器〜中世礫・縄文土器・土師器・須恵器・陶器・土器　近世陶磁器・土器類・人骨",139.7701043,35.72060734,TRUE,TRUE,FALSE,TRUE,TRUE,TRUE,TRUE,TRUE,FALSE,"blue"
13106000600,13106,"6","しんざかかいづか","新坂貝塚","台東区 上野桜木一丁目　上野公園","[縄文時代（後期）][弥生時代（後期）]","貝塚","","縄文土器　磨斧　貝輪　弥生土器",139.7788419,35.719799,FALSE,TRUE,TRUE,FALSE,FALSE,FALSE,FALSE,FALSE,FALSE,"blue"
13106001000,13106,"10","ゆしま（きりどおしきた）かいづか","湯島（切通し北）貝塚","台東区 池之端一丁目","[縄文時代（前期〜晩期）]","貝塚","","縄文土器　石鏃　唐製石斧　石皿　石剣　耳飾　土版　骨針　貝輪　人骨　獣骨　打製石斧　縄文（前・後・?）土器　骨首器（ヘアピン）　貝",139.7675451,35.70926132,FALSE,TRUE,FALSE,FALSE,FALSE,FALSE,FALSE,FALSE,FALSE,"blue"
13109000100,13109,"1","かみおおさきかいづか","上大崎貝塚","品川区 上大崎一丁目","[縄文時代]","貝塚","","縄文土器　石器",139.72184,35.6351312,FALSE,TRUE,FALSE,FALSE,FALSE,FALSE,FALSE,FALSE,FALSE,"blue"
13109000400,13109,"4","いけだやまきたいせき","池田山北遺跡","品川区 東五反田五丁目","[縄文時代（早期〜中期）][弥生時代（後期）]","包蔵地・貝塚・集落","[縄文時代（早期〜前期）]住居址　炉跡　貝層　[縄文時代]住居跡　炉跡　土坑　[縄文時代（前期）]〜[弥生時代（後期）]竪穴式住居　土坑　[弥生時代]住居跡　炉跡　土坑　溝　[古墳時代]住居跡　土坑","縄文土器　打斧　磨斧　石皿　けつ状耳飾　弥生土器　磁器　燈明皿　擂鉢　動物遺体　打製石斧　耳飾　土器　土師器　石製耳飾",139.7229069,35.63109445,FALSE,TRUE,TRUE,FALSE,FALSE,FALSE,FALSE,FALSE,FALSE,"blue"
13109001000,13109,"10","いるきばしいせき","居木橋遺跡","品川区 大崎二丁目","[縄文時代（早期〜後期）][弥生時代][中世]","集落跡・貝塚","[縄文時代]住居　土坑　ピット　[中世]溝","縄文土器　打斧　磨斧　石皿　耳飾　石棒　骨角製釣針　鯨骨製棒状骨角器　獣魚骨　弥生土器　抉入石斧　陶磁器　動物遺体",139.7245685,35.61720399,FALSE,TRUE,TRUE,FALSE,FALSE,FALSE,TRUE,FALSE,FALSE,"blue"
13109001200,13109,"12","（おおい）ごんげんだいかいづか","(大井)権現台貝塚","品川区 広町二丁目","[縄文時代（後期〜晩期）]","貝塚","","縄文土器　打斧　磨斧　硬玉大珠　石棒　土偶　土版　骨角器　獣骨",139.7343964,35.60833955,FALSE,TRUE,FALSE,FALSE,FALSE,FALSE,FALSE,FALSE,FALSE,"blue"
13109001400,13109,"14","さいこうじかいづか","西光寺貝塚","品川区 大井四丁目","[縄文時代（中期〜後期）][古墳時代]","貝塚・包蔵地","","縄文土器　打斧　須恵器",139.7328131,35.60031371,FALSE,TRUE,FALSE,TRUE,FALSE,FALSE,FALSE,FALSE,FALSE,"blue"
13109001600,13109,"16","おおもりかいづか","大森貝塚","品川区 大井六丁目","[縄文時代（中期〜晩期）]","包蔵地・集落・貝塚","[縄文時代]住居　溝","縄文土器　石斧　石鏃　石皿　磨石　滑車形耳飾　石棒　土偶　土版　骨角器　貝製品　人骨",139.7303114,35.59305438,FALSE,TRUE,FALSE,FALSE,FALSE,FALSE,FALSE,FALSE,FALSE,"blue"
13110000800,13110,"8","ひがしやまかいづかいせき","東山貝塚遺跡","目黒区 東山二丁目　東山三丁目","[旧石器時代][縄文時代（早期〜晩期）][弥生時代（後期）][古墳時代][平安時代][中世][近世][近代]","集落　貝塚　その他（軍施設）","[旧石器時代]礫群　石器ブロック　[縄文時代]竪穴住居跡　土坑　土壙　土器埋設遺構　落し穴　木杭列　植物遺存体集中　小穴　柱穴群　[弥生時代]竪穴住居跡　溝　土坑　[古墳時代]土坑　[中世]溝　[近世]溝　土坑　［近代］地下式遺構　煉瓦構造物　溝","縄文土器　土偶　土製円盤　土器片錘　打製石斧　磨製石斧　弥生土器　古墳時代土器　陶磁器　細石刃　尖頭器　剥片　角錐状石器　削器　石鏃　敲石　石皿　垂飾　掻器　凹石　磨石　砥石　スタンプ形石器　石剣　石錐　石棒　土版　土製勾玉　耳栓　土錘　土玉　弭形角製品　ヤス状刺突具　骨針　浮子 （平安時代）　瓦　（近代）陶磁器　ガラス製品　鉄製品",139.6866739,35.64782322,TRUE,TRUE,TRUE,TRUE,FALSE,TRUE,TRUE,TRUE,FALSE,"blue"
13111000100,13111,"1","かめづかふきん・まるこたまがわえんきたかいづか","亀塚付近・丸子多摩川園北貝塚","大田区 田園調布一丁目","[縄文時代（前期・後期）]","包蔵地・貝塚","","縄文土器",139.6674392,35.58883561,FALSE,TRUE,FALSE,FALSE,FALSE,FALSE,FALSE,FALSE,FALSE,"blue"
13111004500,13111,"45","でんえんちょうふほんちょうかいづか","田園調布本町貝塚","大田区 田園調布本町","[縄文時代（前期）]","貝塚","","縄文土器",139.6761517,35.58467801,FALSE,TRUE,FALSE,FALSE,FALSE,FALSE,FALSE,FALSE,FALSE,"blue"
13111004800,13111,"48","しもぬまべかいづか","下沼部貝塚","大田区 田園調布本町","[縄文時代（早期〜晩期）][弥生時代][近世]","集落・貝塚","[縄文時代]住居　集石　炉　炉穴　焼土　[弥生時代]住居　[近世]墓壙","縄文土器　打斧　磨斧　礫器　石槍　石鏃　掻器　石箆　石錘　石皿　磨石　凹石　敲石　石核　剥片　梵字形石器　耳飾　石棒　石剣　岩版　土版　昆虫形土製品　筒形土製品　獣骨　弥生土器　須恵器　埴輪　銭貨　人骨",139.6724802,35.58533812,FALSE,TRUE,TRUE,FALSE,FALSE,FALSE,FALSE,TRUE,FALSE,"blue"
13111005700,13111,"57","ゆきがやかいづか","雪ヶ谷貝塚","大田区 南雪谷二丁目　 南雪谷三丁目　 南雪谷四丁目　 南雪谷五丁目","[旧石器時代][縄文時代（早期〜前期）][弥生時代（後期）][古墳時代][平安時代]","集落・貝塚・その他の墓","","縄文土器　縄文石器　石鏃　石槍　弥生土器",139.6844687,35.58976951,TRUE,TRUE,TRUE,TRUE,FALSE,TRUE,FALSE,FALSE,FALSE,"blue"
13111006000,13111,"60","まごめかいづか","馬込貝塚","大田区 中馬込一丁目　 上池台五丁目","[縄文時代（前期〜晩期）]","集落・貝塚","[縄文時代]住居　土坑　土壙　犬埋葬土坑","縄文土器　打斧　磨斧　異形石器　土錘　けつ状耳飾　玉類　骨角製品牙鏃　弓筈　人骨　獣・魚骨",139.7035017,35.59549274,FALSE,TRUE,FALSE,FALSE,FALSE,FALSE,FALSE,FALSE,FALSE,"blue"
13111006200,13111,"62","てんまんぐうふきんかいづか","天満宮付近貝塚","大田区 南馬込二丁目","[縄文時代（前期）]","貝塚","","縄文土器",139.7166881,35.58939185,FALSE,TRUE,FALSE,FALSE,FALSE,FALSE,FALSE,FALSE,FALSE,"blue"
13111006300,13111,"63","まごめいっちょうめかいづか","馬込一丁目貝塚","大田区 南馬込四丁目","[縄文時代（前期）]","貝塚","","縄文土器",139.7140918,35.58647772,FALSE,TRUE,FALSE,FALSE,FALSE,FALSE,FALSE,FALSE,FALSE,"blue"
13111006500,13111,"65","ちょうおんじかいづか","長遠寺貝塚","大田区 南馬込五丁目　 西馬込一丁目","[縄文時代（前期）][弥生時代]","包蔵地・貝塚","","縄文土器　打斧　弥生土器",139.7096019,35.59124845,FALSE,TRUE,TRUE,FALSE,FALSE,FALSE,FALSE,FALSE,FALSE,"blue"
13111006900,13111,"69","おおもりかいづか","大森貝塚","大田区 山王一丁目","[縄文時代（中期〜晩期）]","貝塚","","縄文土器　打斧　石鏃　石皿　磨石　耳飾　石棒　土偶　土版　土製品　骨角器　牙鏃　人骨　獣骨",139.7303283,35.59301536,FALSE,TRUE,FALSE,FALSE,FALSE,FALSE,FALSE,FALSE,FALSE,"blue"
13111007400,13111,"74","きりさとまちかいづか","桐里町貝塚","大田区 池上一丁目","[縄文時代（前期）][弥生時代]","貝塚","","縄文土器　弥生土器",139.7069823,35.57945652,FALSE,TRUE,TRUE,FALSE,FALSE,FALSE,FALSE,FALSE,FALSE,"blue"
13111007600,13111,"76","しょうせんかいづか","庄仙貝塚","大田区 久が原一丁目　 北嶺町","[縄文時代（前期〜中期）]","貝塚・集落","[縄文時代]住居","縄文土器　打斧　磨斧　石鏃　磨石　凹石　石棒　独鈷石　獣骨",139.6882712,35.586053,FALSE,TRUE,FALSE,FALSE,FALSE,FALSE,FALSE,FALSE,FALSE,"blue"
13111007800,13111,"78","くがはらかいづか・くがはらちょう1026ばんちかいづか","久ヶ原貝塚・久ヶ原町1026番地貝塚","大田区 久が原三丁目　 久が原四丁目","[縄文時代（前期〜中期）]","貝塚","","縄文土器",139.6912324,35.58052107,FALSE,TRUE,FALSE,FALSE,FALSE,FALSE,FALSE,FALSE,FALSE,"blue"
13111008500,13111,"85","ちどりくぼかいづか","千鳥久保貝塚","大田区 久が原四丁目　 南久が原一丁目","[縄文時代（中期〜後期）]","集落・貝塚","[縄文時代]住居","縄文土器　打斧　凹石　鹿角棒　人骨",139.6891725,35.57711795,FALSE,TRUE,FALSE,FALSE,FALSE,FALSE,FALSE,FALSE,FALSE,"blue"
13111008700,13111,"87","ぞうみょういんうらかいづか","増明院裏貝塚","大田区 鵜の木一丁目","[縄文時代（前期・後期）]","貝塚","","縄文土器　石器　耳飾",139.6829192,35.57566033,FALSE,TRUE,FALSE,FALSE,FALSE,FALSE,FALSE,FALSE,FALSE,"blue"
13111011600,13111,"116","つかごしかいづか","塚越貝塚","大田区 西馬込二丁目","[縄文時代（前期）]","貝塚","","縄文土器",139.7026565,35.58375587,FALSE,TRUE,FALSE,FALSE,FALSE,FALSE,FALSE,FALSE,FALSE,"blue"
13111013700,13111,"137","かみぬまべかいづか","上沼部貝塚","大田区 田園調布四丁目　 田園調布五丁目","[縄文時代（前期・後期〜晩期）]","貝塚","","縄文土器",139.6602175,35.59661086,FALSE,TRUE,FALSE,FALSE,FALSE,FALSE,FALSE,FALSE,FALSE,"blue"
13112012500,13112,"125","ろくしょひがしいせき","六所東遺跡","世田谷区 野毛一丁目 野毛二丁目 野毛三丁目 上野毛一丁目","[縄文時代（前期〜中期）]","集落・貝塚","[縄文時代]住居","縄文土器 石器 魚骨",139.6408,35.60633,FALSE,TRUE,FALSE,FALSE,FALSE,FALSE,FALSE,FALSE,FALSE,"blue"
13112025000,13112,"250","いなりまるきたいせき","稲荷丸北遺跡","世田谷区 上野毛三丁目","[縄文時代（早期〜晩期）][古墳時代]","集落・貝塚","[縄文時代]住居 土坑 ピット [古墳時代]住居 掘立柱建物 土坑 [近世]ピット 溝?","石器 縄文土器 土錘 土製円板 けつ状耳飾 弥生土器 土師器 須恵器 装身具 陶磁器",139.6356912,35.61181815,FALSE,TRUE,FALSE,TRUE,FALSE,FALSE,FALSE,FALSE,FALSE,"blue"
13113002000,13113,"20","めいじじんぐうきたいけえーかいづか","明治神宮北池A貝塚","渋谷区 代々木神園町","[縄文時代（後期〜晩期]","貝塚","","縄文土器　独鈷石",139.6992573,35.68015498,FALSE,TRUE,FALSE,FALSE,FALSE,FALSE,FALSE,FALSE,FALSE,"blue"
13113005800,13113,"58","とよさわかいづか","豊沢貝塚","渋谷区 恵比寿二丁目","[縄文時代（早期〜晩期）][弥生時代（後期）][古墳時代][平安時代]","集落・貝塚","[縄文時代]住居　土坑　埋甕　陥穴　墓壙　掘立柱建物　[平安時代]掘立柱建物","縄文土器　打製石斧　磨製石斧　石鏃　石皿　磨石　石剣　土偶　砥石　土師器　弥生土器　須恵器　縄文人骨",139.720998,35.64621084,FALSE,TRUE,TRUE,TRUE,FALSE,TRUE,FALSE,FALSE,FALSE,"blue"
13113007300,13113,"73","","渋谷区No.73遺跡","渋谷区 東四丁目","[縄文時代（後期）]","貝塚?","","縄文土器",139.7118116,35.65719449,FALSE,TRUE,FALSE,FALSE,FALSE,FALSE,FALSE,FALSE,FALSE,"blue"
13113007900,13113,"79","はねざわかいづか","羽沢貝塚","渋谷区 広尾三丁目　広尾四丁目","[縄文時代（後期）]","貝塚","","縄文土器　打斧　敲石",139.7175648,35.6556961,FALSE,TRUE,FALSE,FALSE,FALSE,FALSE,FALSE,FALSE,FALSE,"blue"
13116000100,13116,"1","ひかわじんじゃうらかいづか","氷川神社裏貝塚","豊島区 池袋本町二丁目　 池袋本町三丁目","[縄文時代（前期〜晩期）][弥生時代][平安時代][中世][近世]","包蔵地・貝塚","[縄文]貝塚、包含層、土坑　[中〜近世]溝状遺構　[近世]土坑　生垣　溝　道　掘立柱建物　作物貯蔵孔　動物埋葬墓　畝状遺構","縄文土器　石斧　石鏃　玉類　土偶　弥生土器　土師器　須恵器　陶磁器　土器　土製品　石製品　金属製品　渡来銭　硝子製品　動物遺体",139.7105424,35.74290873,FALSE,TRUE,TRUE,FALSE,FALSE,TRUE,TRUE,TRUE,FALSE,"blue"
13116000200,13116,"2","いけぶくろひがしかいづか","池袋東貝塚","豊島区 池袋本町三丁目　 池袋本町四丁目","[縄文時代（前期）][古墳時代][奈良時代][平安時代][中世]","包蔵地・貝塚","竪穴住居址　ピット　溝状遺構　畠畝　礎石　道","縄文土器　弥生土器　石斧　石皿　凹石　敲石　土師器　須恵器　陶磁器　瓦　金属製品",139.7141473,35.74416267,FALSE,TRUE,FALSE,TRUE,TRUE,TRUE,TRUE,FALSE,FALSE,"blue"
13116000500,13116,"5","そめいいせき","染井遺跡","豊島区 巣鴨一丁目　 巣鴨二丁目　 巣鴨三丁目　 巣鴨四丁目　 巣鴨五丁目　 駒込一丁目　 駒込二丁目　 駒込三丁目　 駒込四丁目　 駒込五丁目　 駒込六丁目　 駒込七丁目","[縄文時代（早期〜後期）][弥生時代（後期）][古墳時代][中世][近世]","包蔵地・集落・貝塚・屋敷（大名屋敷）・その他（町屋）","[縄]住居　陥し穴　[弥生時代]方形周溝墓　[中世]道路　[近世]掘立柱建物　方形竪穴　土坑　地下室　門　井戸　畝　溝　柵列　地鎮址　ピット　畝状遺構","縄文土器　石器　弥生土器　土師器　須恵器　陶磁器　舶載磁器　土製品　石製品　硝子製品　金属製品",139.7413728,35.73716819,FALSE,TRUE,TRUE,TRUE,FALSE,FALSE,TRUE,TRUE,FALSE,"blue"
13117000400,13117,"4","ふくろていちいせき","袋低地遺跡","北区 赤羽北一丁目　赤羽北二丁目","[縄文時代][弥生時代][古墳時代][奈良時代][平安時代][中世][近世]","包蔵地・貝塚","[縄文時代]集石群　自然流路　貝塚　[古墳時代][奈良時代][平安時代]土坑　溝址　井戸址　[中世][近世]土坑　溝址　井戸址","縄文土器　石錘　土錘　漆塗土器　朱漆木製耳栓　牙製装飾品　石棒　石器　弥生土器　土師器　須恵器　陶磁器類　独木舟　漆器　飾り弓　銭貨",139.7092754,35.78541401,FALSE,TRUE,TRUE,TRUE,TRUE,TRUE,TRUE,TRUE,FALSE,"blue"
13117001800,13117,"18","しみずざかいせき","清水坂遺跡","北区 中十条四丁目　十条仲原四丁目","[縄文時代（早期〜前期）][弥生時代]","集落・貝塚","[弥生時代][古墳時代]堅穴建物址","弥生土器　土師器",139.7220455,35.76866549,FALSE,TRUE,TRUE,FALSE,FALSE,FALSE,FALSE,FALSE,FALSE,"blue"
13117002500,13117,"25","たきのがわはちまんしゃうらかいづか","滝野川八幡社裏貝塚","北区 滝野川五丁目","[縄文時代（後期〜晩期）][古墳時代]","貝塚・集落","[縄文時代]住居　[古墳時代]住居","縄文土器　磨斧　剥片　土師器",139.7262419,35.74818774,FALSE,TRUE,FALSE,TRUE,FALSE,FALSE,FALSE,FALSE,FALSE,"blue"
13117002700,13117,"27","にしがはらいせきぐん","西ヶ原遺跡群","北区 西ヶ原一丁目　 西ヶ原二丁目　 西ヶ原三丁目　 上中里一丁目　 王子一丁目","[旧石器時代][縄文時代][弥生時代][古墳時代][奈良時代][平安時代][中世][近世]","集落・貝塚・その他の墓・城館","[縄文時代]住居址　土坑　ピット群　土壙墓　墓壙　貝塚　[弥生時代]住居址　土坑　溝址　方形周溝墓　環濠　[弥生時代][古墳時代]方形周溝墓　[古墳時代]住居址　土坑　溝址　古墳　[奈良時代][平安時代]住居址　掘立柱建物址　ピット　土坑　溝　正倉大溝　溝址　[中世][近世]溝址　土坑　[近世]建物　ピット土坑　地下式土坑　井戸　溝　区画溝　道路　土壙墓群　柵列　集石　特殊埋葬遺構","掻器　彫器　縄文土器　打斧　磨斧　石鏃　抉入石器　石器　ヤス状鹿角製品　耳飾　土板　埋葬人骨　動物遺存体　石皿　磨石　凹石　敲石　石核　大珠　骨角器　弥生土器　石皿　磨石　敲石　滑石製玉　土師器　須恵器　支脚　砥石　紡錘車　土錘　羽口　土玉　鉄製品　陶磁器類　土製品　鉄製品　銭貨　鳥獣魚骨　貝　剥片石器",139.7428408,35.74611874,TRUE,TRUE,TRUE,TRUE,TRUE,TRUE,TRUE,TRUE,FALSE,"blue"
13117003000,13117,"30","なかざといせき","中里遺跡","北区 上中里二丁目　東田端一丁目　東田端二丁目","[縄文時代（早期〜後期）][弥生時代][古墳時代][奈良時代][平安時代][中世][近世]","包蔵地・貝塚","[縄文時代]集石　貝塚　木枠付土坑　杭列　炉址　木道　焚き火跡　波食台　[奈良時代][平安時代][中世]掘立柱建物　土坑　道路状遺構　杭列　[近世]旧河道","縄文土器　石斧　石皿　石棒　独木舟　石器　貝製品　耳栓　弥生土器　土師器　須恵器　埴輪　瓦　陶磁器　煙管　木簡　木製品　銭貨",139.7547197,35.74386169,FALSE,TRUE,TRUE,TRUE,TRUE,TRUE,TRUE,TRUE,FALSE,"blue"
13117004000,13117,"40","なかざとはけうえ","中里峽上遺跡","北区 中里三丁目　 田端六丁目　 上中里一丁目　 西ケ原一丁目","[縄文時代][弥生時代][古墳時代][奈良時代][平安時代][近世]","集落・貝塚","[弥生時代]住居址　[古墳時代][奈良時代]住居址　掘立柱建物　溝址　特殊遺構　[平安時代]掘立柱建物　住居址　土坑","弥生土器　土師器　須恵器　砥石　鉄製品　瓦　鉄滓",139.7518616,35.74189019,FALSE,TRUE,TRUE,TRUE,TRUE,TRUE,FALSE,TRUE,FALSE,"blue"
13117004100,13117,"41","たばたにしだいどおりいせき","田端西台通遺跡","北区 田端二丁目　 田端三丁目　 田端四丁目　 田端五丁目　 田端六丁目","[縄文時代][弥生時代][古墳時代][奈良時代][平安時代][中世][近世]","集落・貝塚・古墳","[縄文時代]堅穴建物址　土坑　[弥生時代]堅穴建物址　方形周溝墓　[古墳時代]堅穴建物址　円墳　住居址　[奈良時代][平安時代]堅穴建物址　掘立柱建物址　住居址　[平安時代]土坑　溝　畝[中世]溝址","縄文土器　弥生土器　土師器　須恵器　灰釉陶器　金属製品　石製品　土製器　銭貨　陶磁器　ガラス製品　石器　鉄製品　帯金具　ガラス小玉　鉄釧",139.7576637,35.73804458,FALSE,TRUE,TRUE,TRUE,TRUE,TRUE,TRUE,TRUE,FALSE,"blue"
13117005100,13117,"51","さかえちょうかいづか","栄町貝塚","北区 栄町","[縄文時代]","貝塚","[縄文時代]貝層","",139.7450277,35.74845423,FALSE,TRUE,FALSE,FALSE,FALSE,FALSE,FALSE,FALSE,FALSE,"blue"
13118000100,13118,"1","すわだい・にっぽりえんめいいんかいづかいせきぐん","諏訪台・日暮里延命院貝塚遺跡群","荒川区 西日暮里三丁目","[縄文時代（後期〜晩期）]","包蔵地・貝塚","","縄文土器　石器　骨角器　耳飾　貝製品",139.7673328,35.72995046,FALSE,TRUE,FALSE,FALSE,FALSE,FALSE,FALSE,FALSE,FALSE,"blue"
13119002000,13119,"20","かいとかいづか","海戸貝塚","板橋区 赤塚四丁目","[縄文時代（中期〜後期）]","包蔵地・貝塚","","縄文土器",139.6407373,35.78510124,FALSE,TRUE,FALSE,FALSE,FALSE,FALSE,FALSE,FALSE,FALSE,"blue"
13119002300,13119,"23","はくさんじんじゃかいづか","白山神社貝塚","板橋区 赤塚四丁目","[縄文時代（中期〜後期）][中世]","包蔵地・貝塚","","縄文土器",139.641115,35.78638237,FALSE,TRUE,FALSE,FALSE,FALSE,FALSE,TRUE,FALSE,FALSE,"blue"
13119002600,13119,"26","（抹消）","赤塚城址貝塚","板橋区 赤塚五丁目","[縄文時代（前期・後期〜晩期）][弥生時代（後期）][古墳時代]","包蔵地・貝塚","[古墳時代？]木道","縄文土器　石器　石棒　土偶　牙玉　貝輪　弥生土器　土師器　加工木材",139.6433122,35.78432141,FALSE,TRUE,TRUE,TRUE,FALSE,FALSE,FALSE,FALSE,FALSE,"blue"
13119005600,13119,"56","つじやまかいづか","辻山貝塚","板橋区 徳丸七丁目","[縄文時代（後期）][弥生時代][古墳時代][平安時代]","包蔵地・集落・貝塚","[時代不明]住居","縄文土器　弥生土器　土師器",139.6626906,35.78098126,FALSE,TRUE,TRUE,TRUE,FALSE,TRUE,FALSE,FALSE,FALSE,"blue"
13119005800,13119,"58","にしだいごとうだいせき","西台後藤田遺跡","板橋区 西台一丁目　 西台三丁目　 西台四丁目　 若木二丁目","[旧石器時代][縄文時代（早期〜後期）][弥生時代（後期）][古墳時代][奈良時代][平安時代][近世]","包蔵地・集落・貝塚","","縄文土器",139.670392,35.77291791,TRUE,TRUE,TRUE,TRUE,TRUE,TRUE,FALSE,TRUE,FALSE,"blue"
13119007100,13119,"71","なかだいばばさきかいづか","中台馬場崎貝塚","板橋区 若木三丁目","[縄文時代（早期〜晩期）][弥生時代（後期）][奈良時代]","包蔵地・集落・貝塚","[縄文時代]住居　炉穴　[弥生時代]住居","縄文土器　石器　弥生土器",139.6767434,35.77419924,FALSE,TRUE,TRUE,FALSE,TRUE,FALSE,FALSE,FALSE,FALSE,"blue"
13119009900,13119,"99","しまいはた／しむら／しむらさかうえいせき","四枚畑／志村／志村坂上遺跡","板橋区 前野町三丁目　 前野町四丁目　 志村一丁目","[旧石器時代][縄文時代（早期〜晩期）][弥生時代（後期）][古墳時代][奈良時代][平安時代][中世][近世]","包蔵地・集落・貝塚","[旧石器時代]ブロック　礫群　[縄文時代]住居　土坑　ピット　[弥生時代]住居　[古墳時代]住居　[奈良時代][平安時代]溝　[近世]溝　道路","ナイフ形石器　掻器　縄文土器　石器　けつ状耳飾　土偶　骨角器　弥生土器　土師器　須恵器",139.6953217,35.7739031,TRUE,TRUE,TRUE,TRUE,TRUE,TRUE,TRUE,TRUE,FALSE,"blue"
13119010300,13119,"103","あずさわやまのうえいせき","小豆沢山ノ上遺跡","板橋区 小豆沢二丁目　 小豆沢三丁目","[縄文時代（後期）]","貝塚","","縄文土器",139.6972443,35.77835975,FALSE,TRUE,FALSE,FALSE,FALSE,FALSE,FALSE,FALSE,FALSE,"blue"
13119010400,13119,"104","あずさわかいづか／あずさわみやのまえみなみいせき","小豆沢貝塚／小豆沢宮ノ前南遺跡","板橋区 小豆沢二丁目　 小豆沢四丁目","[縄文時代（早・前・中・後・晩期）][弥生時代（中・後期）][古墳時代][奈良時代][平安時代][中世][近世]","包蔵地・集落・貝塚","[縄文]住居　土坑　埋甕　焼土範囲　貝層　[弥生時代]方形周溝墓　[奈良・平安]竪穴建物跡　掘立柱建物跡　ピット　[近世]溝　[時代不明]小穴　","縄文土器　石器　礫　石製品　土製品　貝製品　弥生土器　ガラス小玉　土師器　須恵器　灰釉陶器　鉄鏃　銅製巡方　石製丸鞆　陶磁器",139.7000938,35.77888896,FALSE,TRUE,TRUE,TRUE,TRUE,TRUE,TRUE,TRUE,FALSE,"blue"
